{"type": "FeatureCollection", "features": [{"type": "Feature", "geometry": {"type": "Point", "coordinates": [-97.557452637, 28.519996107]}, "properties": {"OBJECTID": "236361", "id": "255804", "ORGANIZATION_ID": "W228", "ORGOP_LINE_ID": "1", "WELL_CLASS_TYPE_CODE": null, "well": "WX RA SUA; CROWELL ET AL 17", "well_num": "002-ALT", "township": "01S", "EFFECTIVE_DATE": "2026-08-17 05:00:00", "api": "17039206110000", "OPERATION_TYPE_CODE": "1", "issue_date": "2026-08-17 05:00:00", "spud": null, "status": "1", "WELL_STATUS_DATE": "2026-08-17 05:00:00", "ORIGINAL_COMPLETION_DATE": null, "LAST_RECOMPLETION_DATE": null, "LAST_TEST_DATE": null, "ORPHANED_FLAG": null, "PRODUCT_TYPE_CODE": "0", "CLASSIFICATION": null, "UNIT_WELL_FLAG": null, "EXEMPT_29E_FLAG": null, "FIELD_ID": "2595", "LEASE_NUM": null, "MUD_DENSITY": "0.0", "USDW_VALUE": null, "AREA_USDW_VALUE": "0.0", "SOURCE_AREA_USDW_VALUE": null, "MAX_SIP": null, "SIP_ASSIGNED_DATE": null, "SOURCE_OF_SIP_VALUE": null, "INJECTION_RATE": "0.0", "COMMENTS": null, "LOCATION": "SL 879FT FROM NL AND 1100FT FROM WL OF 017-01S-01E.\nPBHL 622FT FROM NL AND 1500FT FROM WL OF 017-01S-01E.", "section": "017", "MERIDIAN": "W", "range": "01E", "PARISH_CODE": "20", "lat": "28.519996107", "lon": "-97.557452637", "depth": "11260.0", "LEGEND": "-1", "DISTRICT_CODE": null, "INSPECTION_DATE": null, "INSPECTION_YEAR_INDEX": null, "SECTION": "17", "INJECTION_VOLUME": null, "LOG_REVIEWED_FLAG": null, "ORPHAN_STATUS_CODE": null, "ORPHAN_STATUS_DATE": null, "field": "CHENEYVILLE, WEST", "operator": "WAGNER OIL LOUISIANA", "parish": "EVANGELINE", "SCOUT_WELL_STATUS_CODE": "1", "SCOUT_REPORT_DATE": "2026-08-17 05:00:00", "SCOUT_MEASURED_DEPTH": "11260.0", "SCOUT_TRUE_VERTICAL_DEPTH": null, "LUW_CODE": null, "LUW_TYPE_CODE": null, "LUW_NAME": null, "LW_REC_STATUS": null, "SURFACE_LAMBERT_X": "1667.0", "SURFACE_LAMBERT_Y": "841.0", "SURFACE_COORD_SYSTEM_CODE": "1", "SURFACE_ZONE": "S", "SURFACE_UTM83_X": "53811.5209585863", "SURFACE_UTM83_Y": "3163291.5575777", "UPPER_PERFS": null, "LOWER_PERFS": null, "SANDS": null, "RESERVOIRS": null, "FORMATIONS": null, "HYPERLINK": "https://sonlite.dnr.state.la.us/ords/apex/r/sonris_pub/sonris_data_portal/well-profile?clear=CR,9000&ig[ig_master]_well_serial_num=255804", "GIS_UPD_DATE": "2026-08-18 09:05:21", "status_desc": "PERMITTED", "dirwell": null, "SCOUT_DETAIL": "SL 879FT FROM NL AND 1100FT FROM WL OF 017-01S-01E.\nPBHL 622FT FROM NL AND 1500FT FROM WL OF 017-01S-01E.", "MINERAL_INTEREST_FLAG": null, "STATE_INTEREST_FLAG": null, "DOC_ACCESS": "https://sonlite.dnr.state.la.us/ords/r/sonris/ucmsearch/finddocuments?qtype=eq&idx=xwellserialnumber&val=255804", "STATE_ZONE": "SOUTH", "COASTAL_PERMIT_NUM": null, "SE_ANNO_CAD_DATA": null, "TRUE_VERTICAL_DEPTH": "11200.0", "first_seen": "False"}}, {"type": "Feature", "geometry": {"type": "Point", "coordinates": [-93.755189924, 32.00695393]}, "properties": {"OBJECTID": "238551", "id": "255805", "ORGANIZATION_ID": "W1235", "ORGOP_LINE_ID": "1", "WELL_CLASS_TYPE_CODE": null, "well": "HA RA SUI; POLK 24 HU", "well_num": "001-ALT", "township": "12N", "EFFECTIVE_DATE": "2026-08-17 05:00:00", "api": "17031276300000", "OPERATION_TYPE_CODE": "1", "issue_date": "2026-08-17 05:00:00", "spud": null, "status": "1", "WELL_STATUS_DATE": "2026-08-17 05:00:00", "ORIGINAL_COMPLETION_DATE": null, "LAST_RECOMPLETION_DATE": null, "LAST_TEST_DATE": null, "ORPHANED_FLAG": null, "PRODUCT_TYPE_CODE": "0", "CLASSIFICATION": null, "UNIT_WELL_FLAG": null, "EXEMPT_29E_FLAG": null, "FIELD_ID": "4160", "LEASE_NUM": null, "MUD_DENSITY": "0.0", "USDW_VALUE": null, "AREA_USDW_VALUE": "0.0", "SOURCE_AREA_USDW_VALUE": null, "MAX_SIP": null, "SIP_ASSIGNED_DATE": null, "SOURCE_OF_SIP_VALUE": null, "INJECTION_RATE": "0.0", "COMMENTS": null, "LOCATION": "SHL: 494FT FSL & 2220FT FEL OF 024-12N-14W.\nPBHL: 100FT FSL & 660FT FEL OF 024-12N-14W.", "section": "024", "MERIDIAN": "W", "range": "14W", "PARISH_CODE": "16", "lat": "32.00695393", "lon": "-93.755189924", "depth": "24000.0", "LEGEND": "1", "DISTRICT_CODE": null, "INSPECTION_DATE": null, "INSPECTION_YEAR_INDEX": null, "SECTION": "24", "INJECTION_VOLUME": null, "LOG_REVIEWED_FLAG": null, "ORPHAN_STATUS_CODE": null, "ORPHAN_STATUS_DATE": null, "field": "GRAND CANE", "operator": "WNR HAYNESVILLE OPERATING, LLC", "parish": "DE SOTO", "SCOUT_WELL_STATUS_CODE": "1", "SCOUT_REPORT_DATE": "2026-08-17 05:00:00", "SCOUT_MEASURED_DEPTH": "24000.0", "SCOUT_TRUE_VERTICAL_DEPTH": null, "LUW_CODE": null, "LUW_TYPE_CODE": null, "LUW_NAME": null, "LW_REC_STATUS": null, "SURFACE_LAMBERT_X": "1610993.0", "SURFACE_LAMBERT_Y": "489712.0", "SURFACE_COORD_SYSTEM_CODE": "1", "SURFACE_ZONE": "N", "SURFACE_UTM83_X": "428672.747666115", "SURFACE_UTM83_Y": "3541455.63883735", "UPPER_PERFS": null, "LOWER_PERFS": null, "SANDS": null, "RESERVOIRS": null, "FORMATIONS": null, "HYPERLINK": "https://sonlite.dnr.state.la.us/ords/apex/r/sonris_pub/sonris_data_portal/well-profile?clear=CR,9000&ig[ig_master]_well_serial_num=255805", "GIS_UPD_DATE": "2026-08-18 09:05:21", "status_desc": "PERMITTED", "dirwell": null, "SCOUT_DETAIL": "SHL: 494FT FSL & 2220FT FEL OF 024-12N-14W.\nPBHL: 100FT FSL & 660FT FEL OF 024-12N-14W.", "MINERAL_INTEREST_FLAG": null, "STATE_INTEREST_FLAG": null, "DOC_ACCESS": "https://sonlite.dnr.state.la.us/ords/r/sonris/ucmsearch/finddocuments?qtype=eq&idx=xwellserialnumber&val=255805", "STATE_ZONE": "BAD", "COASTAL_PERMIT_NUM": null, "SE_ANNO_CAD_DATA": null, "TRUE_VERTICAL_DEPTH": "12200.0", "first_seen": "False"}}, {"type": "Feature", "geometry": {"type": "Point", "coordinates": [-93.755254443, 32.006953293]}, "properties": {"OBJECTID": "238552", "id": "255806", "ORGANIZATION_ID": "W1235", "ORGOP_LINE_ID": "1", "WELL_CLASS_TYPE_CODE": null, "well": "HA RA SUI; POLK 24 HU", "well_num": "002-ALT", "township": "12N", "EFFECTIVE_DATE": "2026-08-17 05:00:00", "api": "17031276310000", "OPERATION_TYPE_CODE": "1", "issue_date": "2026-08-17 05:00:00", "spud": null, "status": "1", "WELL_STATUS_DATE": "2026-08-17 05:00:00", "ORIGINAL_COMPLETION_DATE": null, "LAST_RECOMPLETION_DATE": null, "LAST_TEST_DATE": null, "ORPHANED_FLAG": null, "PRODUCT_TYPE_CODE": "0", "CLASSIFICATION": null, "UNIT_WELL_FLAG": null, "EXEMPT_29E_FLAG": null, "FIELD_ID": "4160", "LEASE_NUM": null, "MUD_DENSITY": "0.0", "USDW_VALUE": null, "AREA_USDW_VALUE": "0.0", "SOURCE_AREA_USDW_VALUE": null, "MAX_SIP": null, "SIP_ASSIGNED_DATE": null, "SOURCE_OF_SIP_VALUE": null, "INJECTION_RATE": "0.0", "COMMENTS": null, "LOCATION": "SHL: 494FT FSL & 2240FT FEL OF 024-12N-14W. PBHL: 100FT FSL & 760FT FEL OF 024-12N-14W.", "section": "024", "MERIDIAN": "W", "range": "14W", "PARISH_CODE": "16", "lat": "32.006953293", "lon": "-93.755254443", "depth": "23000.0", "LEGEND": "-1", "DISTRICT_CODE": null, "INSPECTION_DATE": null, "INSPECTION_YEAR_INDEX": null, "SECTION": "24", "INJECTION_VOLUME": null, "LOG_REVIEWED_FLAG": null, "ORPHAN_STATUS_CODE": null, "ORPHAN_STATUS_DATE": null, "field": "GRAND CANE", "operator": "WNR HAYNESVILLE OPERATING, LLC", "parish": "DE SOTO", "SCOUT_WELL_STATUS_CODE": "1", "SCOUT_REPORT_DATE": "2026-08-17 05:00:00", "SCOUT_MEASURED_DEPTH": "23000.0", "SCOUT_TRUE_VERTICAL_DEPTH": null, "LUW_CODE": null, "LUW_TYPE_CODE": null, "LUW_NAME": null, "LW_REC_STATUS": null, "SURFACE_LAMBERT_X": "1610973.0", "SURFACE_LAMBERT_Y": "489712.0", "SURFACE_COORD_SYSTEM_CODE": "1", "SURFACE_ZONE": "N", "SURFACE_UTM83_X": "428666.653224778", "SURFACE_UTM83_Y": "3541455.61082665", "UPPER_PERFS": null, "LOWER_PERFS": null, "SANDS": null, "RESERVOIRS": null, "FORMATIONS": null, "HYPERLINK": "https://sonlite.dnr.state.la.us/ords/apex/r/sonris_pub/sonris_data_portal/well-profile?clear=CR,9000&ig[ig_master]_well_serial_num=255806", "GIS_UPD_DATE": "2026-08-18 09:05:21", "status_desc": "PERMITTED", "dirwell": null, "SCOUT_DETAIL": "SHL: 494FT FSL & 2240FT FEL OF 024-12N-14W. PBHL: 100FT FSL & 760FT FEL OF 024-12N-14W.", "MINERAL_INTEREST_FLAG": null, "STATE_INTEREST_FLAG": null, "DOC_ACCESS": "https://sonlite.dnr.state.la.us/ords/r/sonris/ucmsearch/finddocuments?qtype=eq&idx=xwellserialnumber&val=255806", "STATE_ZONE": "BAD", "COASTAL_PERMIT_NUM": null, "SE_ANNO_CAD_DATA": null, "TRUE_VERTICAL_DEPTH": "12000.0", "first_seen": "False"}}, {"type": "Feature", "geometry": {"type": "Point", "coordinates": [-93.693711847, 31.977546858]}, "properties": {"OBJECTID": "236362", "id": "255807", "ORGANIZATION_ID": "C332", "ORGOP_LINE_ID": "1", "WELL_CLASS_TYPE_CODE": null, "well": "HA RA SUB; BEDSOLE 34-27 HC", "well_num": "004-ALT", "township": "12N", "EFFECTIVE_DATE": "2026-08-17 05:00:00", "api": "17031276320000", "OPERATION_TYPE_CODE": "1", "issue_date": "2026-08-17 05:00:00", "spud": null, "status": "1", "WELL_STATUS_DATE": "2026-08-17 05:00:00", "ORIGINAL_COMPLETION_DATE": null, "LAST_RECOMPLETION_DATE": null, "LAST_TEST_DATE": null, "ORPHANED_FLAG": null, "PRODUCT_TYPE_CODE": "0", "CLASSIFICATION": null, "UNIT_WELL_FLAG": null, "EXEMPT_29E_FLAG": null, "FIELD_ID": "8996", "LEASE_NUM": null, "MUD_DENSITY": "0.0", "USDW_VALUE": null, "AREA_USDW_VALUE": "0.0", "SOURCE_AREA_USDW_VALUE": null, "MAX_SIP": null, "SIP_ASSIGNED_DATE": null, "SOURCE_OF_SIP_VALUE": null, "INJECTION_RATE": "0.0", "COMMENTS": null, "LOCATION": "SL: 389FT FSL & 923FT FWL 034-12N-13W. PBHL: 100FT FNL & 1750FT FWL 027-12N-13W.", "section": "034", "MERIDIAN": "W", "range": "13W", "PARISH_CODE": "16", "lat": "31.977546858", "lon": "-93.693711847", "depth": "25000.0", "LEGEND": "-1", "DISTRICT_CODE": null, "INSPECTION_DATE": null, "INSPECTION_YEAR_INDEX": null, "SECTION": "34", "INJECTION_VOLUME": null, "LOG_REVIEWED_FLAG": null, "ORPHAN_STATUS_CODE": null, "ORPHAN_STATUS_DATE": null, "field": "TRENTON", "operator": "COMSTOCK OIL & GAS--LA, LLC", "parish": "DE SOTO", "SCOUT_WELL_STATUS_CODE": "1", "SCOUT_REPORT_DATE": "2026-08-17 05:00:00", "SCOUT_MEASURED_DEPTH": "25000.0", "SCOUT_TRUE_VERTICAL_DEPTH": null, "LUW_CODE": null, "LUW_TYPE_CODE": null, "LUW_NAME": null, "LW_REC_STATUS": null, "SURFACE_LAMBERT_X": "1629930.0", "SURFACE_LAMBERT_Y": "478800.0", "SURFACE_COORD_SYSTEM_CODE": "1", "SURFACE_ZONE": "N", "SURFACE_UTM83_X": "434458.536850303", "SURFACE_UTM83_Y": "3538157.06865483", "UPPER_PERFS": null, "LOWER_PERFS": null, "SANDS": null, "RESERVOIRS": null, "FORMATIONS": null, "HYPERLINK": "https://sonlite.dnr.state.la.us/ords/apex/r/sonris_pub/sonris_data_portal/well-profile?clear=CR,9000&ig[ig_master]_well_serial_num=255807", "GIS_UPD_DATE": "2026-08-18 09:05:21", "status_desc": "PERMITTED", "dirwell": null, "SCOUT_DETAIL": "SL: 389FT FSL & 923FT FWL 034-12N-13W. PBHL: 100FT FNL & 1750FT FWL 027-12N-13W.", "MINERAL_INTEREST_FLAG": null, "STATE_INTEREST_FLAG": null, "DOC_ACCESS": "https://sonlite.dnr.state.la.us/ords/r/sonris/ucmsearch/finddocuments?qtype=eq&idx=xwellserialnumber&val=255807", "STATE_ZONE": "BAD", "COASTAL_PERMIT_NUM": null, "SE_ANNO_CAD_DATA": null, "TRUE_VERTICAL_DEPTH": "15000.0", "first_seen": "False"}}, {"type": "Feature", "geometry": {"type": "Point", "coordinates": [-93.693776346, 31.977546252]}, "properties": {"OBJECTID": "236363", "id": "255808", "ORGANIZATION_ID": "C332", "ORGOP_LINE_ID": "1", "WELL_CLASS_TYPE_CODE": null, "well": "HA RA SUB; BEDSOLE 34-27 HC", "well_num": "005-ALT", "township": "12N", "EFFECTIVE_DATE": "2026-08-17 05:00:00", "api": "17031276330000", "OPERATION_TYPE_CODE": "1", "issue_date": "2026-08-17 05:00:00", "spud": null, "status": "1", "WELL_STATUS_DATE": "2026-08-17 05:00:00", "ORIGINAL_COMPLETION_DATE": null, "LAST_RECOMPLETION_DATE": null, "LAST_TEST_DATE": null, "ORPHANED_FLAG": null, "PRODUCT_TYPE_CODE": "0", "CLASSIFICATION": null, "UNIT_WELL_FLAG": null, "EXEMPT_29E_FLAG": null, "FIELD_ID": "8996", "LEASE_NUM": null, "MUD_DENSITY": "0.0", "USDW_VALUE": null, "AREA_USDW_VALUE": "0.0", "SOURCE_AREA_USDW_VALUE": null, "MAX_SIP": null, "SIP_ASSIGNED_DATE": null, "SOURCE_OF_SIP_VALUE": null, "INJECTION_RATE": "0.0", "COMMENTS": null, "LOCATION": "SL: 389FT FSL & 903FT FWL 034-12N-13W. PBHL: 100FT FNL & 1348FT FWL 027-12N-13W.", "section": "034", "MERIDIAN": "W", "range": "13W", "PARISH_CODE": "16", "lat": "31.977546252", "lon": "-93.693776346", "depth": "25000.0", "LEGEND": "-1", "DISTRICT_CODE": null, "INSPECTION_DATE": null, "INSPECTION_YEAR_INDEX": null, "SECTION": "34", "INJECTION_VOLUME": null, "LOG_REVIEWED_FLAG": null, "ORPHAN_STATUS_CODE": null, "ORPHAN_STATUS_DATE": null, "field": "TRENTON", "operator": "COMSTOCK OIL & GAS--LA, LLC", "parish": "DE SOTO", "SCOUT_WELL_STATUS_CODE": "1", "SCOUT_REPORT_DATE": "2026-08-17 05:00:00", "SCOUT_MEASURED_DEPTH": "25000.0", "SCOUT_TRUE_VERTICAL_DEPTH": null, "LUW_CODE": null, "LUW_TYPE_CODE": null, "LUW_NAME": null, "LW_REC_STATUS": null, "SURFACE_LAMBERT_X": "1629910.0", "SURFACE_LAMBERT_Y": "478800.0", "SURFACE_COORD_SYSTEM_CODE": "1", "SURFACE_ZONE": "N", "SURFACE_UTM83_X": "434452.442464626", "SURFACE_UTM83_Y": "3538157.04060322", "UPPER_PERFS": null, "LOWER_PERFS": null, "SANDS": null, "RESERVOIRS": null, "FORMATIONS": null, "HYPERLINK": "https://sonlite.dnr.state.la.us/ords/apex/r/sonris_pub/sonris_data_portal/well-profile?clear=CR,9000&ig[ig_master]_well_serial_num=255808", "GIS_UPD_DATE": "2026-08-18 09:05:21", "status_desc": "PERMITTED", "dirwell": null, "SCOUT_DETAIL": "SL: 389FT FSL & 903FT FWL 034-12N-13W. PBHL: 100FT FNL & 1348FT FWL 027-12N-13W.", "MINERAL_INTEREST_FLAG": null, "STATE_INTEREST_FLAG": null, "DOC_ACCESS": "https://sonlite.dnr.state.la.us/ords/r/sonris/ucmsearch/finddocuments?qtype=eq&idx=xwellserialnumber&val=255808", "STATE_ZONE": "BAD", "COASTAL_PERMIT_NUM": null, "SE_ANNO_CAD_DATA": null, "TRUE_VERTICAL_DEPTH": "15000.0", "first_seen": "False"}}, {"type": "Feature", "geometry": {"type": "Point", "coordinates": [-93.693840845, 31.977545646]}, "properties": {"OBJECTID": "236364", "id": "255809", "ORGANIZATION_ID": "C332", "ORGOP_LINE_ID": "1", "WELL_CLASS_TYPE_CODE": null, "well": "HA RA SUB;BEDSOLE 34-27 HC", "well_num": "006-ALT", "township": "12N", "EFFECTIVE_DATE": "2026-08-17 05:00:00", "api": "17031276340000", "OPERATION_TYPE_CODE": "1", "issue_date": "2026-08-17 05:00:00", "spud": null, "status": "1", "WELL_STATUS_DATE": "2026-08-17 05:00:00", "ORIGINAL_COMPLETION_DATE": null, "LAST_RECOMPLETION_DATE": null, "LAST_TEST_DATE": null, "ORPHANED_FLAG": null, "PRODUCT_TYPE_CODE": "0", "CLASSIFICATION": null, "UNIT_WELL_FLAG": null, "EXEMPT_29E_FLAG": null, "FIELD_ID": "8996", "LEASE_NUM": null, "MUD_DENSITY": "0.0", "USDW_VALUE": null, "AREA_USDW_VALUE": "0.0", "SOURCE_AREA_USDW_VALUE": null, "MAX_SIP": null, "SIP_ASSIGNED_DATE": null, "SOURCE_OF_SIP_VALUE": null, "INJECTION_RATE": "0.0", "COMMENTS": null, "LOCATION": "SL: 388FT FSL & 883FT FWL 034-12N-13W. PBHL: 100FT FNL & 480FT FWL 027-12N-13W.", "section": "034", "MERIDIAN": "W", "range": "13W", "PARISH_CODE": "16", "lat": "31.977545646", "lon": "-93.693840845", "depth": "25000.0", "LEGEND": "-1", "DISTRICT_CODE": null, "INSPECTION_DATE": null, "INSPECTION_YEAR_INDEX": null, "SECTION": "34", "INJECTION_VOLUME": null, "LOG_REVIEWED_FLAG": null, "ORPHAN_STATUS_CODE": null, "ORPHAN_STATUS_DATE": null, "field": "TRENTON", "operator": "COMSTOCK OIL & GAS--LA, LLC", "parish": "DE SOTO", "SCOUT_WELL_STATUS_CODE": "1", "SCOUT_REPORT_DATE": "2026-08-17 05:00:00", "SCOUT_MEASURED_DEPTH": "25000.0", "SCOUT_TRUE_VERTICAL_DEPTH": null, "LUW_CODE": null, "LUW_TYPE_CODE": null, "LUW_NAME": null, "LW_REC_STATUS": null, "SURFACE_LAMBERT_X": "1629890.0", "SURFACE_LAMBERT_Y": "478800.0", "SURFACE_COORD_SYSTEM_CODE": "1", "SURFACE_ZONE": "N", "SURFACE_UTM83_X": "434446.348078887", "SURFACE_UTM83_Y": "3538157.01255162", "UPPER_PERFS": null, "LOWER_PERFS": null, "SANDS": null, "RESERVOIRS": null, "FORMATIONS": null, "HYPERLINK": "https://sonlite.dnr.state.la.us/ords/apex/r/sonris_pub/sonris_data_portal/well-profile?clear=CR,9000&ig[ig_master]_well_serial_num=255809", "GIS_UPD_DATE": "2026-08-18 09:05:21", "status_desc": "PERMITTED", "dirwell": null, "SCOUT_DETAIL": "SL: 388FT FSL & 883FT FWL 034-12N-13W. PBHL: 100FT FNL & 480FT FWL 027-12N-13W.", "MINERAL_INTEREST_FLAG": null, "STATE_INTEREST_FLAG": null, "DOC_ACCESS": "https://sonlite.dnr.state.la.us/ords/r/sonris/ucmsearch/finddocuments?qtype=eq&idx=xwellserialnumber&val=255809", "STATE_ZONE": "BAD", "COASTAL_PERMIT_NUM": null, "SE_ANNO_CAD_DATA": null, "TRUE_VERTICAL_DEPTH": "15000.0", "first_seen": "False"}}, {"type": "Feature", "geometry": {"type": "Point", "coordinates": [-93.693905344, 31.977545041]}, "properties": {"OBJECTID": "236365", "id": "255810", "ORGANIZATION_ID": "C332", "ORGOP_LINE_ID": "1", "WELL_CLASS_TYPE_CODE": null, "well": "HA RA SUB;BEDSOLE 34-27 HC", "well_num": "007-ALT", "township": "12N", "EFFECTIVE_DATE": "2026-08-17 05:00:00", "api": "17031276350000", "OPERATION_TYPE_CODE": "1", "issue_date": "2026-08-17 05:00:00", "spud": null, "status": "1", "WELL_STATUS_DATE": "2026-08-17 05:00:00", "ORIGINAL_COMPLETION_DATE": null, "LAST_RECOMPLETION_DATE": null, "LAST_TEST_DATE": null, "ORPHANED_FLAG": null, "PRODUCT_TYPE_CODE": "0", "CLASSIFICATION": null, "UNIT_WELL_FLAG": null, "EXEMPT_29E_FLAG": null, "FIELD_ID": "8996", "LEASE_NUM": null, "MUD_DENSITY": "0.0", "USDW_VALUE": null, "AREA_USDW_VALUE": "0.0", "SOURCE_AREA_USDW_VALUE": null, "MAX_SIP": null, "SIP_ASSIGNED_DATE": null, "SOURCE_OF_SIP_VALUE": null, "INJECTION_RATE": "0.0", "COMMENTS": null, "LOCATION": "SL: 388FT FSL & 863FT FWL 034-12N-13W. PBHL: 100FT FNL & 400FT FWL 027-12N-13W.", "section": "034", "MERIDIAN": "W", "range": "13W", "PARISH_CODE": "16", "lat": "31.977545041", "lon": "-93.693905344", "depth": "25000.0", "LEGEND": "-1", "DISTRICT_CODE": null, "INSPECTION_DATE": null, "INSPECTION_YEAR_INDEX": null, "SECTION": "34", "INJECTION_VOLUME": null, "LOG_REVIEWED_FLAG": null, "ORPHAN_STATUS_CODE": null, "ORPHAN_STATUS_DATE": null, "field": "TRENTON", "operator": "COMSTOCK OIL & GAS--LA, LLC", "parish": "DE SOTO", "SCOUT_WELL_STATUS_CODE": "1", "SCOUT_REPORT_DATE": "2026-08-17 05:00:00", "SCOUT_MEASURED_DEPTH": "25000.0", "SCOUT_TRUE_VERTICAL_DEPTH": null, "LUW_CODE": null, "LUW_TYPE_CODE": null, "LUW_NAME": null, "LW_REC_STATUS": null, "SURFACE_LAMBERT_X": "1629870.0", "SURFACE_LAMBERT_Y": "478800.0", "SURFACE_COORD_SYSTEM_CODE": "1", "SURFACE_ZONE": "N", "SURFACE_UTM83_X": "434440.253693089", "SURFACE_UTM83_Y": "3538156.98450003", "UPPER_PERFS": null, "LOWER_PERFS": null, "SANDS": null, "RESERVOIRS": null, "FORMATIONS": null, "HYPERLINK": "https://sonlite.dnr.state.la.us/ords/apex/r/sonris_pub/sonris_data_portal/well-profile?clear=CR,9000&ig[ig_master]_well_serial_num=255810", "GIS_UPD_DATE": "2026-08-18 09:05:21", "status_desc": "PERMITTED", "dirwell": null, "SCOUT_DETAIL": "SL: 388FT FSL & 863FT FWL 034-12N-13W. PBHL: 100FT FNL & 400FT FWL 027-12N-13W.", "MINERAL_INTEREST_FLAG": null, "STATE_INTEREST_FLAG": null, "DOC_ACCESS": "https://sonlite.dnr.state.la.us/ords/r/sonris/ucmsearch/finddocuments?qtype=eq&idx=xwellserialnumber&val=255810", "STATE_ZONE": "BAD", "COASTAL_PERMIT_NUM": null, "SE_ANNO_CAD_DATA": null, "TRUE_VERTICAL_DEPTH": "25000.0", "first_seen": "False"}}]}