{"type": "FeatureCollection", "features": [{"type": "Feature", "geometry": {"type": "Point", "coordinates": [-93.774945017, 32.192010818]}, "properties": {"OBJECTID": "238423", "id": "255855", "ORGANIZATION_ID": "E183", "ORGOP_LINE_ID": "1", "WELL_CLASS_TYPE_CODE": null, "well": "HA RA SUA; BURFORD 23 HU", "well_num": "7-ALT", "township": "14N", "EFFECTIVE_DATE": "2026-09-29 05:00:00", "api": "17031276420000", "OPERATION_TYPE_CODE": "1", "issue_date": "2026-09-29 05:00:00", "spud": null, "status": "1", "WELL_STATUS_DATE": "2026-09-29 05:00:00", "ORIGINAL_COMPLETION_DATE": null, "LAST_RECOMPLETION_DATE": null, "LAST_TEST_DATE": null, "ORPHANED_FLAG": null, "PRODUCT_TYPE_CODE": "0", "CLASSIFICATION": null, "UNIT_WELL_FLAG": null, "EXEMPT_29E_FLAG": null, "FIELD_ID": "4541", "LEASE_NUM": null, "MUD_DENSITY": "0.0", "USDW_VALUE": null, "AREA_USDW_VALUE": "0.0", "SOURCE_AREA_USDW_VALUE": null, "MAX_SIP": null, "SIP_ASSIGNED_DATE": null, "SOURCE_OF_SIP_VALUE": null, "INJECTION_RATE": "0.0", "COMMENTS": null, "LOCATION": "SHL: 989' FNL & 1922' FWL OF SEC 23, T14N-R14W. PBHL: 100' FNL & 700' FWL OF SEC 23, T14N-R14W.", "section": "023", "MERIDIAN": "W", "range": "14W", "PARISH_CODE": "16", "lat": "32.192010818", "lon": "-93.774945017", "depth": "26500.0", "LEGEND": "-1", "DISTRICT_CODE": null, "INSPECTION_DATE": null, "INSPECTION_YEAR_INDEX": null, "SECTION": "23", "INJECTION_VOLUME": null, "LOG_REVIEWED_FLAG": null, "ORPHAN_STATUS_CODE": null, "ORPHAN_STATUS_DATE": null, "field": "HOLLY", "operator": "EXCO OPERATING COMPANY, LP", "parish": "DE SOTO", "SCOUT_WELL_STATUS_CODE": "1", "SCOUT_REPORT_DATE": "2026-09-29 05:00:00", "SCOUT_MEASURED_DEPTH": "26500.0", "SCOUT_TRUE_VERTICAL_DEPTH": null, "LUW_CODE": null, "LUW_TYPE_CODE": null, "LUW_NAME": null, "LW_REC_STATUS": null, "SURFACE_LAMBERT_X": "1605662.0", "SURFACE_LAMBERT_Y": "557098.0", "SURFACE_COORD_SYSTEM_CODE": "1", "SURFACE_ZONE": "N", "SURFACE_UTM83_X": "426954.284070627", "SURFACE_UTM83_Y": "3561982.15050079", "UPPER_PERFS": null, "LOWER_PERFS": null, "SANDS": null, "RESERVOIRS": null, "FORMATIONS": null, "HYPERLINK": "https://sonlite.dnr.state.la.us/ords/apex/r/sonris_pub/sonris_data_portal/well-profile?clear=CR,9000&ig[ig_master]_well_serial_num=255855", "GIS_UPD_DATE": "2026-09-30 09:05:15", "status_desc": "PERMITTED", "dirwell": null, "SCOUT_DETAIL": "SHL: 989' FNL & 1922' FWL OF SEC 23, T14N-R14W. PBHL: 100' FNL & 700' FWL OF SEC 23, T14N-R14W.", "MINERAL_INTEREST_FLAG": null, "STATE_INTEREST_FLAG": null, "DOC_ACCESS": "https://sonlite.dnr.state.la.us/ords/r/sonris/ucmsearch/finddocuments?qtype=eq&idx=xwellserialnumber&val=255855", "STATE_ZONE": "BAD", "COASTAL_PERMIT_NUM": null, "SE_ANNO_CAD_DATA": null, "TRUE_VERTICAL_DEPTH": "13000.0", "first_seen": "False"}}, {"type": "Feature", "geometry": {"type": "Point", "coordinates": [-93.774836902, 32.191907434]}, "properties": {"OBJECTID": "238424", "id": "255856", "ORGANIZATION_ID": "E183", "ORGOP_LINE_ID": "1", "WELL_CLASS_TYPE_CODE": null, "well": "HA RA SUA; BURFORD 23 HU", "well_num": "8-ALT", "township": "14N", "EFFECTIVE_DATE": "2026-09-29 05:00:00", "api": "17031276430000", "OPERATION_TYPE_CODE": "1", "issue_date": "2026-09-29 05:00:00", "spud": null, "status": "1", "WELL_STATUS_DATE": "2026-09-29 05:00:00", "ORIGINAL_COMPLETION_DATE": null, "LAST_RECOMPLETION_DATE": null, "LAST_TEST_DATE": null, "ORPHANED_FLAG": null, "PRODUCT_TYPE_CODE": "0", "CLASSIFICATION": null, "UNIT_WELL_FLAG": null, "EXEMPT_29E_FLAG": null, "FIELD_ID": "4541", "LEASE_NUM": null, "MUD_DENSITY": "0.0", "USDW_VALUE": null, "AREA_USDW_VALUE": "0.0", "SOURCE_AREA_USDW_VALUE": null, "MAX_SIP": null, "SIP_ASSIGNED_DATE": null, "SOURCE_OF_SIP_VALUE": null, "INJECTION_RATE": "0.0", "COMMENTS": null, "LOCATION": "SL: 1026' FNL & 1955' FWL OF SEC 23, T14N-R14W. PBHL: 100' FNL & 700' FEL OF SEC 23, T14N-R14W.", "section": "023", "MERIDIAN": "W", "range": "14W", "PARISH_CODE": "16", "lat": "32.191907434", "lon": "-93.774836902", "depth": "27500.0", "LEGEND": "-1", "DISTRICT_CODE": null, "INSPECTION_DATE": null, "INSPECTION_YEAR_INDEX": null, "SECTION": "23", "INJECTION_VOLUME": null, "LOG_REVIEWED_FLAG": null, "ORPHAN_STATUS_CODE": null, "ORPHAN_STATUS_DATE": null, "field": "HOLLY", "operator": "EXCO OPERATING COMPANY, LP", "parish": "DE SOTO", "SCOUT_WELL_STATUS_CODE": "1", "SCOUT_REPORT_DATE": "2026-09-29 05:00:00", "SCOUT_MEASURED_DEPTH": "27500.0", "SCOUT_TRUE_VERTICAL_DEPTH": null, "LUW_CODE": null, "LUW_TYPE_CODE": null, "LUW_NAME": null, "LW_REC_STATUS": null, "SURFACE_LAMBERT_X": "1605695.0", "SURFACE_LAMBERT_Y": "557060.0", "SURFACE_COORD_SYSTEM_CODE": "1", "SURFACE_ZONE": "N", "SURFACE_UTM83_X": "426964.392614704", "SURFACE_UTM83_Y": "3561970.61698346", "UPPER_PERFS": null, "LOWER_PERFS": null, "SANDS": null, "RESERVOIRS": null, "FORMATIONS": null, "HYPERLINK": "https://sonlite.dnr.state.la.us/ords/apex/r/sonris_pub/sonris_data_portal/well-profile?clear=CR,9000&ig[ig_master]_well_serial_num=255856", "GIS_UPD_DATE": "2026-09-30 09:05:15", "status_desc": "PERMITTED", "dirwell": null, "SCOUT_DETAIL": "SL: 1026' FNL & 1955' FWL OF SEC 23, T14N-R14W. PBHL: 100' FNL & 700' FEL OF SEC 23, T14N-R14W.", "MINERAL_INTEREST_FLAG": null, "STATE_INTEREST_FLAG": null, "DOC_ACCESS": "https://sonlite.dnr.state.la.us/ords/r/sonris/ucmsearch/finddocuments?qtype=eq&idx=xwellserialnumber&val=255856", "STATE_ZONE": "BAD", "COASTAL_PERMIT_NUM": null, "SE_ANNO_CAD_DATA": null, "TRUE_VERTICAL_DEPTH": "13000.0", "first_seen": "False"}}, {"type": "Feature", "geometry": {"type": "Point", "coordinates": [-93.93185983, 32.882022754]}, "properties": {"OBJECTID": "238425", "id": "255857", "ORGANIZATION_ID": "0423", "ORGOP_LINE_ID": "1", "WELL_CLASS_TYPE_CODE": null, "well": "CALDWELL", "well_num": "027", "township": "22N", "EFFECTIVE_DATE": "2026-09-29 05:00:00", "api": "17017370740000", "OPERATION_TYPE_CODE": "1", "issue_date": "2026-09-29 05:00:00", "spud": null, "status": "1", "WELL_STATUS_DATE": "2026-09-29 05:00:00", "ORIGINAL_COMPLETION_DATE": null, "LAST_RECOMPLETION_DATE": null, "LAST_TEST_DATE": null, "ORPHANED_FLAG": null, "PRODUCT_TYPE_CODE": "0", "CLASSIFICATION": null, "UNIT_WELL_FLAG": null, "EXEMPT_29E_FLAG": null, "FIELD_ID": "2152", "LEASE_NUM": null, "MUD_DENSITY": "0.0", "USDW_VALUE": null, "AREA_USDW_VALUE": "0.0", "SOURCE_AREA_USDW_VALUE": null, "MAX_SIP": null, "SIP_ASSIGNED_DATE": null, "SOURCE_OF_SIP_VALUE": null, "INJECTION_RATE": "0.0", "COMMENTS": null, "LOCATION": "LOCATED 278' FEL & 1746' FSL IN SEC 20, T22N-R15W IN CADDO PARISH, LA.", "section": "020", "MERIDIAN": "W", "range": "15W", "PARISH_CODE": "9", "lat": "32.882022754", "lon": "-93.93185983", "depth": "1100.0", "LEGEND": "1", "DISTRICT_CODE": null, "INSPECTION_DATE": null, "INSPECTION_YEAR_INDEX": null, "SECTION": "20", "INJECTION_VOLUME": null, "LOG_REVIEWED_FLAG": null, "ORPHAN_STATUS_CODE": null, "ORPHAN_STATUS_DATE": null, "field": "CADDO PINE ISLAND", "operator": "CALDWELL-BAYOU STATE", "parish": "CADDO", "SCOUT_WELL_STATUS_CODE": "1", "SCOUT_REPORT_DATE": "2026-09-29 05:00:00", "SCOUT_MEASURED_DEPTH": "1100.0", "SCOUT_TRUE_VERTICAL_DEPTH": null, "LUW_CODE": null, "LUW_TYPE_CODE": null, "LUW_NAME": null, "LW_REC_STATUS": null, "SURFACE_LAMBERT_X": "1560442.0", "SURFACE_LAMBERT_Y": "808724.0", "SURFACE_COORD_SYSTEM_CODE": "1", "SURFACE_ZONE": "N", "SURFACE_UTM83_X": "412832.278093266", "SURFACE_UTM83_Y": "3638592.96146829", "UPPER_PERFS": null, "LOWER_PERFS": null, "SANDS": null, "RESERVOIRS": null, "FORMATIONS": null, "HYPERLINK": "https://sonlite.dnr.state.la.us/ords/apex/r/sonris_pub/sonris_data_portal/well-profile?clear=CR,9000&ig[ig_master]_well_serial_num=255857", "GIS_UPD_DATE": "2026-09-30 09:05:15", "status_desc": "PERMITTED", "dirwell": null, "SCOUT_DETAIL": "LOCATED 278' FEL & 1746' FSL IN SEC 20, T22N-R15W IN CADDO PARISH, LA.", "MINERAL_INTEREST_FLAG": null, "STATE_INTEREST_FLAG": null, "DOC_ACCESS": "https://sonlite.dnr.state.la.us/ords/r/sonris/ucmsearch/finddocuments?qtype=eq&idx=xwellserialnumber&val=255857", "STATE_ZONE": "BAD", "COASTAL_PERMIT_NUM": null, "SE_ANNO_CAD_DATA": null, "TRUE_VERTICAL_DEPTH": "1100.0", "first_seen": "True"}}, {"type": "Feature", "geometry": {"type": "Point", "coordinates": [-93.680675253, 32.76979633]}, "properties": {"OBJECTID": "238426", "id": "255858", "ORGANIZATION_ID": "G1212", "ORGOP_LINE_ID": "1", "WELL_CLASS_TYPE_CODE": null, "well": "VUA;NELSON 35-2H", "well_num": "001", "township": "21N", "EFFECTIVE_DATE": "2026-09-29 05:00:00", "api": "17015253030000", "OPERATION_TYPE_CODE": "1", "issue_date": "2026-09-29 05:00:00", "spud": null, "status": "1", "WELL_STATUS_DATE": "2026-09-29 05:00:00", "ORIGINAL_COMPLETION_DATE": null, "LAST_RECOMPLETION_DATE": null, "LAST_TEST_DATE": null, "ORPHANED_FLAG": null, "PRODUCT_TYPE_CODE": "0", "CLASSIFICATION": null, "UNIT_WELL_FLAG": null, "EXEMPT_29E_FLAG": null, "FIELD_ID": "1448", "LEASE_NUM": null, "MUD_DENSITY": "0.0", "USDW_VALUE": null, "AREA_USDW_VALUE": "0.0", "SOURCE_AREA_USDW_VALUE": null, "MAX_SIP": null, "SIP_ASSIGNED_DATE": null, "SOURCE_OF_SIP_VALUE": null, "INJECTION_RATE": "0.0", "COMMENTS": null, "LOCATION": "SHL: 1998' FNL & 2359' FWL OF SEC 035, T21N-R13W. PBHL: 29' FSL & 1333' FEL OF SEC 002, T20N-R13W.", "section": "035", "MERIDIAN": "W", "range": "13W", "PARISH_CODE": "8", "lat": "32.76979633", "lon": "-93.680675253", "depth": "17300.0", "LEGEND": "-1", "DISTRICT_CODE": null, "INSPECTION_DATE": null, "INSPECTION_YEAR_INDEX": null, "SECTION": "35", "INJECTION_VOLUME": null, "LOG_REVIEWED_FLAG": null, "ORPHAN_STATUS_CODE": null, "ORPHAN_STATUS_DATE": null, "field": "BENTON", "operator": "GRAYROCK ENERGY IV OPERATING COMPANY, LL", "parish": "BOSSIER", "SCOUT_WELL_STATUS_CODE": "1", "SCOUT_REPORT_DATE": "2026-09-29 05:00:00", "SCOUT_MEASURED_DEPTH": "17300.0", "SCOUT_TRUE_VERTICAL_DEPTH": null, "LUW_CODE": null, "LUW_TYPE_CODE": null, "LUW_NAME": null, "LW_REC_STATUS": null, "SURFACE_LAMBERT_X": "1637112.0", "SURFACE_LAMBERT_Y": "766962.0", "SURFACE_COORD_SYSTEM_CODE": "1", "SURFACE_ZONE": "N", "SURFACE_UTM83_X": "436248.916924107", "SURFACE_UTM83_Y": "3625971.98718591", "UPPER_PERFS": null, "LOWER_PERFS": null, "SANDS": null, "RESERVOIRS": null, "FORMATIONS": null, "HYPERLINK": "https://sonlite.dnr.state.la.us/ords/apex/r/sonris_pub/sonris_data_portal/well-profile?clear=CR,9000&ig[ig_master]_well_serial_num=255858", "GIS_UPD_DATE": "2026-09-30 09:05:15", "status_desc": "PERMITTED", "dirwell": null, "SCOUT_DETAIL": "SHL: 1998' FNL & 2359' FWL OF SEC 035, T21N-R13W. PBHL: 29' FSL & 1333' FEL OF SEC 002, T20N-R13W.", "MINERAL_INTEREST_FLAG": null, "STATE_INTEREST_FLAG": null, "DOC_ACCESS": "https://sonlite.dnr.state.la.us/ords/r/sonris/ucmsearch/finddocuments?qtype=eq&idx=xwellserialnumber&val=255858", "STATE_ZONE": "BAD", "COASTAL_PERMIT_NUM": null, "SE_ANNO_CAD_DATA": null, "TRUE_VERTICAL_DEPTH": "9400.0", "first_seen": "False"}}, {"type": "Feature", "geometry": {"type": "Point", "coordinates": [-91.551315243, 32.174429382]}, "properties": {"OBJECTID": "238427", "id": "255859", "ORGANIZATION_ID": "G920", "ORGOP_LINE_ID": "1", "WELL_CLASS_TYPE_CODE": null, "well": "VUA; J.L. SCOTT", "well_num": "002", "township": "14N", "EFFECTIVE_DATE": "2026-09-29 05:00:00", "api": "17041200200000", "OPERATION_TYPE_CODE": "1", "issue_date": "2026-09-29 05:00:00", "spud": null, "status": "1", "WELL_STATUS_DATE": "2026-09-29 05:00:00", "ORIGINAL_COMPLETION_DATE": null, "LAST_RECOMPLETION_DATE": null, "LAST_TEST_DATE": null, "ORPHANED_FLAG": null, "PRODUCT_TYPE_CODE": "0", "CLASSIFICATION": null, "UNIT_WELL_FLAG": null, "EXEMPT_29E_FLAG": null, "FIELD_ID": "3598", "LEASE_NUM": null, "MUD_DENSITY": "0.0", "USDW_VALUE": null, "AREA_USDW_VALUE": "0.0", "SOURCE_AREA_USDW_VALUE": null, "MAX_SIP": null, "SIP_ASSIGNED_DATE": null, "SOURCE_OF_SIP_VALUE": null, "INJECTION_RATE": "0.0", "COMMENTS": null, "LOCATION": "173.9' S & 661.44' E OF THE NW CORNER OF THE NW 1/4 OF THE NE 1/4 OF SEC 28, T14N-R09E. THIS WELL IS 330' S OF THE NORTHERN LEASE LINE. REDRILL OF SN 122004.", "section": "028", "MERIDIAN": "W", "range": "09E", "PARISH_CODE": "21", "lat": "32.174429382", "lon": "-91.551315243", "depth": "6512.0", "LEGEND": "1", "DISTRICT_CODE": null, "INSPECTION_DATE": null, "INSPECTION_YEAR_INDEX": null, "SECTION": "28", "INJECTION_VOLUME": null, "LOG_REVIEWED_FLAG": null, "ORPHAN_STATUS_CODE": null, "ORPHAN_STATUS_DATE": null, "field": "EGYPT FERRY", "operator": "GLADNEY ENERGY PARTNERS, LLC", "parish": "FRANKLIN", "SCOUT_WELL_STATUS_CODE": "1", "SCOUT_REPORT_DATE": "2026-09-29 05:00:00", "SCOUT_MEASURED_DEPTH": "6512.0", "SCOUT_TRUE_VERTICAL_DEPTH": null, "LUW_CODE": null, "LUW_TYPE_CODE": null, "LUW_NAME": null, "LW_REC_STATUS": null, "SURFACE_LAMBERT_X": "2293571.0", "SURFACE_LAMBERT_Y": "549667.0", "SURFACE_COORD_SYSTEM_CODE": "1", "SURFACE_ZONE": "N", "SURFACE_UTM83_X": "636582.6811038661", "SURFACE_UTM83_Y": "3560689.72624241", "UPPER_PERFS": null, "LOWER_PERFS": null, "SANDS": null, "RESERVOIRS": null, "FORMATIONS": null, "HYPERLINK": "https://sonlite.dnr.state.la.us/ords/apex/r/sonris_pub/sonris_data_portal/well-profile?clear=CR,9000&ig[ig_master]_well_serial_num=255859", "GIS_UPD_DATE": "2026-09-30 09:05:15", "status_desc": "PERMITTED", "dirwell": null, "SCOUT_DETAIL": "173.9' S & 661.44' E OF THE NW CORNER OF THE NW 1/4 OF THE NE 1/4 OF SEC 28, T14N-R09E. THIS WELL IS 330' S OF THE NORTHERN LEASE LINE. REDRILL OF SN 122004.", "MINERAL_INTEREST_FLAG": null, "STATE_INTEREST_FLAG": null, "DOC_ACCESS": "https://sonlite.dnr.state.la.us/ords/r/sonris/ucmsearch/finddocuments?qtype=eq&idx=xwellserialnumber&val=255859", "STATE_ZONE": "BAD", "COASTAL_PERMIT_NUM": null, "SE_ANNO_CAD_DATA": null, "TRUE_VERTICAL_DEPTH": "6512.0", "first_seen": "True"}}]}