{"type": "FeatureCollection", "features": [{"type": "Feature", "geometry": {"type": "Point", "coordinates": [-93.305439594, 32.117392331]}, "properties": {"OBJECTID": "230710", "id": "255823", "ORGANIZATION_ID": "A1169", "ORGOP_LINE_ID": "1", "WELL_CLASS_TYPE_CODE": null, "well": "DSP 8&5-13-9HC", "well_num": "001", "township": "13N", "EFFECTIVE_DATE": "2026-08-24 05:00:00", "api": "17081219560000", "OPERATION_TYPE_CODE": "1", "issue_date": "2026-08-24 05:00:00", "spud": null, "status": "1", "WELL_STATUS_DATE": "2026-08-24 05:00:00", "ORIGINAL_COMPLETION_DATE": null, "LAST_RECOMPLETION_DATE": null, "LAST_TEST_DATE": null, "ORPHANED_FLAG": null, "PRODUCT_TYPE_CODE": "0", "CLASSIFICATION": null, "UNIT_WELL_FLAG": null, "EXEMPT_29E_FLAG": null, "FIELD_ID": "1843", "LEASE_NUM": null, "MUD_DENSITY": "0.0", "USDW_VALUE": null, "AREA_USDW_VALUE": "0.0", "SOURCE_AREA_USDW_VALUE": null, "MAX_SIP": null, "SIP_ASSIGNED_DATE": null, "SOURCE_OF_SIP_VALUE": null, "INJECTION_RATE": "0.0", "COMMENTS": null, "LOCATION": "SHL: 536' FNL & 229' FEL S017-T13N-R09W. PBHL: 1820' FSL & 1540' FEL S005-T13N-R09W.", "section": "017", "MERIDIAN": "W", "range": "09W", "PARISH_CODE": "41", "lat": "32.117392331", "lon": "-93.305439594", "depth": "25000.0", "LEGEND": "-1", "DISTRICT_CODE": null, "INSPECTION_DATE": null, "INSPECTION_YEAR_INDEX": null, "SECTION": "17", "INJECTION_VOLUME": null, "LOG_REVIEWED_FLAG": null, "ORPHAN_STATUS_CODE": null, "ORPHAN_STATUS_DATE": null, "field": "BRACKY BRANCH", "operator": "APEX NATURAL GAS, LLC", "parish": "RED RIVER", "SCOUT_WELL_STATUS_CODE": "1", "SCOUT_REPORT_DATE": "2026-08-24 05:00:00", "SCOUT_MEASURED_DEPTH": "25000.0", "SCOUT_TRUE_VERTICAL_DEPTH": null, "LUW_CODE": null, "LUW_TYPE_CODE": null, "LUW_NAME": null, "LW_REC_STATUS": null, "SURFACE_LAMBERT_X": "1750692.0", "SURFACE_LAMBERT_Y": "528560.0", "SURFACE_COORD_SYSTEM_CODE": "1", "SURFACE_ZONE": "N", "SURFACE_UTM83_X": "471186.3572229811", "SURFACE_UTM83_Y": "3553488.70035429", "UPPER_PERFS": null, "LOWER_PERFS": null, "SANDS": null, "RESERVOIRS": null, "FORMATIONS": null, "HYPERLINK": "https://sonlite.dnr.state.la.us/ords/apex/r/sonris_pub/sonris_data_portal/well-profile?clear=CR,9000&ig[ig_master]_well_serial_num=255823", "GIS_UPD_DATE": "2026-08-25 09:05:14", "status_desc": "PERMITTED", "dirwell": null, "SCOUT_DETAIL": "SHL: 536' FNL & 229' FEL S017-T13N-R09W. PBHL: 1820' FSL & 1540' FEL S005-T13N-R09W.", "MINERAL_INTEREST_FLAG": null, "STATE_INTEREST_FLAG": null, "DOC_ACCESS": "https://sonlite.dnr.state.la.us/ords/r/sonris/ucmsearch/finddocuments?qtype=eq&idx=xwellserialnumber&val=255823", "STATE_ZONE": "BAD", "COASTAL_PERMIT_NUM": null, "SE_ANNO_CAD_DATA": null, "TRUE_VERTICAL_DEPTH": "15000.0", "first_seen": "False"}}, {"type": "Feature", "geometry": {"type": "Point", "coordinates": [-93.305432916, 32.118107117]}, "properties": {"OBJECTID": "230711", "id": "255824", "ORGANIZATION_ID": "A1169", "ORGOP_LINE_ID": "1", "WELL_CLASS_TYPE_CODE": null, "well": "DSP 8&5-13-9HC", "well_num": "002", "township": "13N", "EFFECTIVE_DATE": "2026-08-24 05:00:00", "api": "17081219570000", "OPERATION_TYPE_CODE": "1", "issue_date": "2026-08-24 05:00:00", "spud": null, "status": "1", "WELL_STATUS_DATE": "2026-08-24 05:00:00", "ORIGINAL_COMPLETION_DATE": null, "LAST_RECOMPLETION_DATE": null, "LAST_TEST_DATE": null, "ORPHANED_FLAG": null, "PRODUCT_TYPE_CODE": "0", "CLASSIFICATION": null, "UNIT_WELL_FLAG": null, "EXEMPT_29E_FLAG": null, "FIELD_ID": "1843", "LEASE_NUM": null, "MUD_DENSITY": "0.0", "USDW_VALUE": null, "AREA_USDW_VALUE": "0.0", "SOURCE_AREA_USDW_VALUE": null, "MAX_SIP": null, "SIP_ASSIGNED_DATE": null, "SOURCE_OF_SIP_VALUE": null, "INJECTION_RATE": "0.0", "COMMENTS": null, "LOCATION": "SHL: 276' FNL & 231' FEL SEC 017-T13N-R09W. PBHL: 1820' FSL & 1490' FEL SEC 005-R13N-R09W.", "section": "017", "MERIDIAN": "W", "range": "09W", "PARISH_CODE": "41", "lat": "32.118107117", "lon": "-93.305432916", "depth": "25000.0", "LEGEND": "-1", "DISTRICT_CODE": null, "INSPECTION_DATE": null, "INSPECTION_YEAR_INDEX": null, "SECTION": "17", "INJECTION_VOLUME": null, "LOG_REVIEWED_FLAG": null, "ORPHAN_STATUS_CODE": null, "ORPHAN_STATUS_DATE": null, "field": "BRACKY BRANCH", "operator": "APEX NATURAL GAS, LLC", "parish": "RED RIVER", "SCOUT_WELL_STATUS_CODE": "1", "SCOUT_REPORT_DATE": "2026-08-24 05:00:00", "SCOUT_MEASURED_DEPTH": "25000.0", "SCOUT_TRUE_VERTICAL_DEPTH": null, "LUW_CODE": null, "LUW_TYPE_CODE": null, "LUW_NAME": null, "LW_REC_STATUS": null, "SURFACE_LAMBERT_X": "1750696.0", "SURFACE_LAMBERT_Y": "528820.0", "SURFACE_COORD_SYSTEM_CODE": "1", "SURFACE_ZONE": "N", "SURFACE_UTM83_X": "471187.211771112", "SURFACE_UTM83_Y": "3553567.9291522", "UPPER_PERFS": null, "LOWER_PERFS": null, "SANDS": null, "RESERVOIRS": null, "FORMATIONS": null, "HYPERLINK": "https://sonlite.dnr.state.la.us/ords/apex/r/sonris_pub/sonris_data_portal/well-profile?clear=CR,9000&ig[ig_master]_well_serial_num=255824", "GIS_UPD_DATE": "2026-08-25 09:05:14", "status_desc": "PERMITTED", "dirwell": null, "SCOUT_DETAIL": "SHL: 276' FNL & 231' FEL SEC 017-T13N-R09W. PBHL: 1820' FSL & 1490' FEL SEC 017-R13N-R09W.", "MINERAL_INTEREST_FLAG": null, "STATE_INTEREST_FLAG": null, "DOC_ACCESS": "https://sonlite.dnr.state.la.us/ords/r/sonris/ucmsearch/finddocuments?qtype=eq&idx=xwellserialnumber&val=255824", "STATE_ZONE": "BAD", "COASTAL_PERMIT_NUM": null, "SE_ANNO_CAD_DATA": null, "TRUE_VERTICAL_DEPTH": "15000.0", "first_seen": "False"}}, {"type": "Feature", "geometry": {"type": "Point", "coordinates": [-93.305358821, 32.117390093]}, "properties": {"OBJECTID": "230712", "id": "255825", "ORGANIZATION_ID": "A1169", "ORGOP_LINE_ID": "1", "WELL_CLASS_TYPE_CODE": null, "well": "DSP 8&5-13-9HC", "well_num": "003", "township": "13N", "EFFECTIVE_DATE": "2026-08-24 05:00:00", "api": "17081219580000", "OPERATION_TYPE_CODE": "1", "issue_date": "2026-08-24 05:00:00", "spud": null, "status": "1", "WELL_STATUS_DATE": "2026-08-24 05:00:00", "ORIGINAL_COMPLETION_DATE": null, "LAST_RECOMPLETION_DATE": null, "LAST_TEST_DATE": null, "ORPHANED_FLAG": null, "PRODUCT_TYPE_CODE": "0", "CLASSIFICATION": null, "UNIT_WELL_FLAG": null, "EXEMPT_29E_FLAG": null, "FIELD_ID": "1843", "LEASE_NUM": null, "MUD_DENSITY": "0.0", "USDW_VALUE": null, "AREA_USDW_VALUE": "0.0", "SOURCE_AREA_USDW_VALUE": null, "MAX_SIP": null, "SIP_ASSIGNED_DATE": null, "SOURCE_OF_SIP_VALUE": null, "INJECTION_RATE": "0.0", "COMMENTS": null, "LOCATION": "SHL: 536' FNL & 204' FEL S017-T13N-R09W. PBHL: 2820' FSL & 450' FEL OF S005-T13N-R09W.", "section": "017", "MERIDIAN": "W", "range": "09W", "PARISH_CODE": "41", "lat": "32.117390093", "lon": "-93.305358821", "depth": "25000.0", "LEGEND": "-1", "DISTRICT_CODE": null, "INSPECTION_DATE": null, "INSPECTION_YEAR_INDEX": null, "SECTION": "17", "INJECTION_VOLUME": null, "LOG_REVIEWED_FLAG": null, "ORPHAN_STATUS_CODE": null, "ORPHAN_STATUS_DATE": null, "field": "BRACKY BRANCH", "operator": "APEX NATURAL GAS, LLC", "parish": "RED RIVER", "SCOUT_WELL_STATUS_CODE": "1", "SCOUT_REPORT_DATE": "2026-08-24 05:00:00", "SCOUT_MEASURED_DEPTH": "25000.0", "SCOUT_TRUE_VERTICAL_DEPTH": null, "LUW_CODE": null, "LUW_TYPE_CODE": null, "LUW_NAME": null, "LW_REC_STATUS": null, "SURFACE_LAMBERT_X": "1750717.0", "SURFACE_LAMBERT_Y": "528559.0", "SURFACE_COORD_SYSTEM_CODE": "1", "SURFACE_ZONE": "N", "SURFACE_UTM83_X": "471193.976238735", "SURFACE_UTM83_Y": "3553488.4306759", "UPPER_PERFS": null, "LOWER_PERFS": null, "SANDS": null, "RESERVOIRS": null, "FORMATIONS": null, "HYPERLINK": "https://sonlite.dnr.state.la.us/ords/apex/r/sonris_pub/sonris_data_portal/well-profile?clear=CR,9000&ig[ig_master]_well_serial_num=255825", "GIS_UPD_DATE": "2026-08-25 09:05:14", "status_desc": "PERMITTED", "dirwell": null, "SCOUT_DETAIL": "SHL: 536' FNL & 204' FEL S017-T13N-R09W. PBHL: 2820' FSL & 450' FEL OF S005-T13N-R09W.", "MINERAL_INTEREST_FLAG": null, "STATE_INTEREST_FLAG": null, "DOC_ACCESS": "https://sonlite.dnr.state.la.us/ords/r/sonris/ucmsearch/finddocuments?qtype=eq&idx=xwellserialnumber&val=255825", "STATE_ZONE": "BAD", "COASTAL_PERMIT_NUM": null, "SE_ANNO_CAD_DATA": null, "TRUE_VERTICAL_DEPTH": "15000.0", "first_seen": "False"}}, {"type": "Feature", "geometry": {"type": "Point", "coordinates": [-93.305355373, 32.118104858]}, "properties": {"OBJECTID": "230713", "id": "255826", "ORGANIZATION_ID": "A1169", "ORGOP_LINE_ID": "1", "WELL_CLASS_TYPE_CODE": null, "well": "DSP 8&5-13-9HC", "well_num": "004", "township": "13N", "EFFECTIVE_DATE": "2026-08-24 05:00:00", "api": "17081219590000", "OPERATION_TYPE_CODE": "1", "issue_date": "2026-08-24 05:00:00", "spud": null, "status": "1", "WELL_STATUS_DATE": "2026-08-24 05:00:00", "ORIGINAL_COMPLETION_DATE": null, "LAST_RECOMPLETION_DATE": null, "LAST_TEST_DATE": null, "ORPHANED_FLAG": null, "PRODUCT_TYPE_CODE": "0", "CLASSIFICATION": null, "UNIT_WELL_FLAG": null, "EXEMPT_29E_FLAG": null, "FIELD_ID": "1843", "LEASE_NUM": null, "MUD_DENSITY": "0.0", "USDW_VALUE": null, "AREA_USDW_VALUE": "0.0", "SOURCE_AREA_USDW_VALUE": null, "MAX_SIP": null, "SIP_ASSIGNED_DATE": null, "SOURCE_OF_SIP_VALUE": null, "INJECTION_RATE": "0.0", "COMMENTS": null, "LOCATION": "SHL: 276' FNL & 206' FEL OS S017-T13N-09W. PBHL: 2820' FSL & 400' FEL S005-T13N-R09W.", "section": "017", "MERIDIAN": "W", "range": "09W", "PARISH_CODE": "41", "lat": "32.118104858", "lon": "-93.305355373", "depth": "25000.0", "LEGEND": "-1", "DISTRICT_CODE": null, "INSPECTION_DATE": null, "INSPECTION_YEAR_INDEX": null, "SECTION": "17", "INJECTION_VOLUME": null, "LOG_REVIEWED_FLAG": null, "ORPHAN_STATUS_CODE": null, "ORPHAN_STATUS_DATE": null, "field": "BRACKY BRANCH", "operator": "APEX NATURAL GAS, LLC", "parish": "RED RIVER", "SCOUT_WELL_STATUS_CODE": "1", "SCOUT_REPORT_DATE": "2026-08-24 05:00:00", "SCOUT_MEASURED_DEPTH": "25000.0", "SCOUT_TRUE_VERTICAL_DEPTH": null, "LUW_CODE": null, "LUW_TYPE_CODE": null, "LUW_NAME": null, "LW_REC_STATUS": null, "SURFACE_LAMBERT_X": "1750720.0", "SURFACE_LAMBERT_Y": "528819.0", "SURFACE_COORD_SYSTEM_CODE": "1", "SURFACE_ZONE": "N", "SURFACE_UTM83_X": "471194.526081943", "SURFACE_UTM83_Y": "3553567.65807237", "UPPER_PERFS": null, "LOWER_PERFS": null, "SANDS": null, "RESERVOIRS": null, "FORMATIONS": null, "HYPERLINK": "https://sonlite.dnr.state.la.us/ords/apex/r/sonris_pub/sonris_data_portal/well-profile?clear=CR,9000&ig[ig_master]_well_serial_num=255826", "GIS_UPD_DATE": "2026-08-25 09:05:14", "status_desc": "PERMITTED", "dirwell": null, "SCOUT_DETAIL": "SHL: 276' FNL & 206' FEL OS S017-T13N-09W. PBHL: 2820' FSL & 400' FEL S005-T13N-R09W.", "MINERAL_INTEREST_FLAG": null, "STATE_INTEREST_FLAG": null, "DOC_ACCESS": "https://sonlite.dnr.state.la.us/ords/r/sonris/ucmsearch/finddocuments?qtype=eq&idx=xwellserialnumber&val=255826", "STATE_ZONE": "BAD", "COASTAL_PERMIT_NUM": null, "SE_ANNO_CAD_DATA": null, "TRUE_VERTICAL_DEPTH": "15000.0", "first_seen": "False"}}]}