{"type": "FeatureCollection", "features": [{"type": "Feature", "geometry": {"type": "Point", "coordinates": [-93.362154939, 32.278141024]}, "properties": {"OBJECTID": "237082", "id": "255800", "ORGANIZATION_ID": "A1203", "ORGOP_LINE_ID": "1", "WELL_CLASS_TYPE_CODE": null, "well": "HA RA SUEE;RALEY 14-11-2HC", "well_num": "001-ALT", "township": "15N", "EFFECTIVE_DATE": "2026-08-04 05:00:00", "api": "17013223580000", "OPERATION_TYPE_CODE": "1", "issue_date": "2026-08-04 05:00:00", "spud": null, "status": "1", "WELL_STATUS_DATE": "2026-08-04 05:00:00", "ORIGINAL_COMPLETION_DATE": null, "LAST_RECOMPLETION_DATE": null, "LAST_TEST_DATE": null, "ORPHANED_FLAG": null, "PRODUCT_TYPE_CODE": "0", "CLASSIFICATION": null, "UNIT_WELL_FLAG": null, "EXEMPT_29E_FLAG": null, "FIELD_ID": "9803", "LEASE_NUM": null, "MUD_DENSITY": "0.0", "USDW_VALUE": null, "AREA_USDW_VALUE": "0.0", "SOURCE_AREA_USDW_VALUE": null, "MAX_SIP": null, "SIP_ASSIGNED_DATE": null, "SOURCE_OF_SIP_VALUE": null, "INJECTION_RATE": "0.0", "COMMENTS": null, "LOCATION": "509' FNL & 1858' FEL OF SEC 23-T15N-R10W.  PBHL:100' FNL & 2398' FEL OF SEC 2-T15-N-R10W.", "section": "023", "MERIDIAN": "W", "range": "10W", "PARISH_CODE": "7", "lat": "32.278141024", "lon": "-93.362154939", "depth": "27900.0", "LEGEND": "-1", "DISTRICT_CODE": null, "INSPECTION_DATE": null, "INSPECTION_YEAR_INDEX": null, "SECTION": "23", "INJECTION_VOLUME": null, "LOG_REVIEWED_FLAG": null, "ORPHAN_STATUS_CODE": null, "ORPHAN_STATUS_DATE": null, "field": "WOODARDVILLE", "operator": "ADAMAS ENERGY LLC", "parish": "BIENVILLE", "SCOUT_WELL_STATUS_CODE": "1", "SCOUT_REPORT_DATE": "2026-08-04 05:00:00", "SCOUT_MEASURED_DEPTH": "27900.0", "SCOUT_TRUE_VERTICAL_DEPTH": null, "LUW_CODE": null, "LUW_TYPE_CODE": null, "LUW_NAME": null, "LW_REC_STATUS": null, "SURFACE_LAMBERT_X": "1733599.0", "SURFACE_LAMBERT_Y": "587171.0", "SURFACE_COORD_SYSTEM_CODE": "1", "SURFACE_ZONE": "N", "SURFACE_UTM83_X": "465896.099994578", "SURFACE_UTM83_Y": "3571323.76416401", "UPPER_PERFS": null, "LOWER_PERFS": null, "SANDS": null, "RESERVOIRS": null, "FORMATIONS": null, "HYPERLINK": "https://sonlite.dnr.state.la.us/ords/apex/r/sonris_pub/sonris_data_portal/well-profile?clear=CR,9000&ig[ig_master]_well_serial_num=255800", "GIS_UPD_DATE": "2026-08-07 09:05:25", "status_desc": "PERMITTED", "dirwell": null, "SCOUT_DETAIL": "509' FNL & 1858' FEL OF SEC 23-T15N-R10W.  PBHL:100' FNL & 2398' FEL OF SEC 2-T15-N-R10W.", "MINERAL_INTEREST_FLAG": null, "STATE_INTEREST_FLAG": null, "DOC_ACCESS": "https://sonlite.dnr.state.la.us/ords/r/sonris/ucmsearch/finddocuments?qtype=eq&idx=xwellserialnumber&val=255800", "STATE_ZONE": "NORTH", "COASTAL_PERMIT_NUM": null, "SE_ANNO_CAD_DATA": null, "TRUE_VERTICAL_DEPTH": "12800.0", "first_seen": "False"}}, {"type": "Feature", "geometry": {"type": "Point", "coordinates": [-93.362145876, 32.278209809]}, "properties": {"OBJECTID": "237083", "id": "255801", "ORGANIZATION_ID": "A1203", "ORGOP_LINE_ID": "1", "WELL_CLASS_TYPE_CODE": null, "well": "HA RA SUEE;RALEY 14-11-2HC", "well_num": "002-ALT", "township": "15N", "EFFECTIVE_DATE": "2026-08-04 05:00:00", "api": "17013223590000", "OPERATION_TYPE_CODE": "1", "issue_date": "2026-08-04 05:00:00", "spud": null, "status": "1", "WELL_STATUS_DATE": "2026-08-04 05:00:00", "ORIGINAL_COMPLETION_DATE": null, "LAST_RECOMPLETION_DATE": null, "LAST_TEST_DATE": null, "ORPHANED_FLAG": null, "PRODUCT_TYPE_CODE": "0", "CLASSIFICATION": null, "UNIT_WELL_FLAG": null, "EXEMPT_29E_FLAG": null, "FIELD_ID": "9803", "LEASE_NUM": null, "MUD_DENSITY": "0.0", "USDW_VALUE": null, "AREA_USDW_VALUE": "0.0", "SOURCE_AREA_USDW_VALUE": null, "MAX_SIP": null, "SIP_ASSIGNED_DATE": null, "SOURCE_OF_SIP_VALUE": null, "INJECTION_RATE": "0.0", "COMMENTS": null, "LOCATION": "484' FNL & 1856' FEL OF S23-T15N-R10W; PBHL: 100' FNL & 1536' FEL OF S2-T15N-R10W.", "section": "023", "MERIDIAN": "W", "range": "10W", "PARISH_CODE": "7", "lat": "32.278209809", "lon": "-93.362145876", "depth": "27900.0", "LEGEND": "-1", "DISTRICT_CODE": null, "INSPECTION_DATE": null, "INSPECTION_YEAR_INDEX": null, "SECTION": "23", "INJECTION_VOLUME": null, "LOG_REVIEWED_FLAG": null, "ORPHAN_STATUS_CODE": null, "ORPHAN_STATUS_DATE": null, "field": "WOODARDVILLE", "operator": "ADAMAS ENERGY LLC", "parish": "BIENVILLE", "SCOUT_WELL_STATUS_CODE": "1", "SCOUT_REPORT_DATE": "2026-08-04 05:00:00", "SCOUT_MEASURED_DEPTH": "27900.0", "SCOUT_TRUE_VERTICAL_DEPTH": null, "LUW_CODE": null, "LUW_TYPE_CODE": null, "LUW_NAME": null, "LW_REC_STATUS": null, "SURFACE_LAMBERT_X": "1733602.0", "SURFACE_LAMBERT_Y": "587196.0", "SURFACE_COORD_SYSTEM_CODE": "1", "SURFACE_ZONE": "N", "SURFACE_UTM83_X": "465896.97921047", "SURFACE_UTM83_Y": "3571331.38589339", "UPPER_PERFS": null, "LOWER_PERFS": null, "SANDS": null, "RESERVOIRS": null, "FORMATIONS": null, "HYPERLINK": "https://sonlite.dnr.state.la.us/ords/apex/r/sonris_pub/sonris_data_portal/well-profile?clear=CR,9000&ig[ig_master]_well_serial_num=255801", "GIS_UPD_DATE": "2026-08-07 09:05:25", "status_desc": "PERMITTED", "dirwell": null, "SCOUT_DETAIL": "484' FNL & 1856' FEL OF S23-T15N-R10W; PBHL: 100' FNL & 1536' FEL OF S2-T15N-R10W.", "MINERAL_INTEREST_FLAG": null, "STATE_INTEREST_FLAG": null, "DOC_ACCESS": "https://sonlite.dnr.state.la.us/ords/r/sonris/ucmsearch/finddocuments?qtype=eq&idx=xwellserialnumber&val=255801", "STATE_ZONE": "NORTH", "COASTAL_PERMIT_NUM": null, "SE_ANNO_CAD_DATA": null, "TRUE_VERTICAL_DEPTH": "12800.0", "first_seen": "False"}}, {"type": "Feature", "geometry": {"type": "Point", "coordinates": [-93.362136813, 32.278278593]}, "properties": {"OBJECTID": "237084", "id": "255802", "ORGANIZATION_ID": "A1203", "ORGOP_LINE_ID": "1", "WELL_CLASS_TYPE_CODE": null, "well": "HA RA SUEE; RALEY 14-11-2HC", "well_num": "003-ALT", "township": "15N", "EFFECTIVE_DATE": "2026-08-04 05:00:00", "api": "17013223600000", "OPERATION_TYPE_CODE": "1", "issue_date": "2026-08-04 05:00:00", "spud": null, "status": "1", "WELL_STATUS_DATE": "2026-08-04 05:00:00", "ORIGINAL_COMPLETION_DATE": null, "LAST_RECOMPLETION_DATE": null, "LAST_TEST_DATE": null, "ORPHANED_FLAG": null, "PRODUCT_TYPE_CODE": "0", "CLASSIFICATION": null, "UNIT_WELL_FLAG": null, "EXEMPT_29E_FLAG": null, "FIELD_ID": "9803", "LEASE_NUM": null, "MUD_DENSITY": "0.0", "USDW_VALUE": null, "AREA_USDW_VALUE": "0.0", "SOURCE_AREA_USDW_VALUE": null, "MAX_SIP": null, "SIP_ASSIGNED_DATE": null, "SOURCE_OF_SIP_VALUE": null, "INJECTION_RATE": "0.0", "COMMENTS": null, "LOCATION": "459' FNL & 1854' FEL OF S23-T15N-R10W; PBHL: 100' FNL & 674' FEL OF S2-T15N-R10W.", "section": "023", "MERIDIAN": "W", "range": "10W", "PARISH_CODE": "7", "lat": "32.278278593", "lon": "-93.362136813", "depth": "27900.0", "LEGEND": "-1", "DISTRICT_CODE": null, "INSPECTION_DATE": null, "INSPECTION_YEAR_INDEX": null, "SECTION": "23", "INJECTION_VOLUME": null, "LOG_REVIEWED_FLAG": null, "ORPHAN_STATUS_CODE": null, "ORPHAN_STATUS_DATE": null, "field": "WOODARDVILLE", "operator": "ADAMAS ENERGY LLC", "parish": "BIENVILLE", "SCOUT_WELL_STATUS_CODE": "1", "SCOUT_REPORT_DATE": "2026-08-04 05:00:00", "SCOUT_MEASURED_DEPTH": "27900.0", "SCOUT_TRUE_VERTICAL_DEPTH": null, "LUW_CODE": null, "LUW_TYPE_CODE": null, "LUW_NAME": null, "LW_REC_STATUS": null, "SURFACE_LAMBERT_X": "1733605.0", "SURFACE_LAMBERT_Y": "587221.0", "SURFACE_COORD_SYSTEM_CODE": "1", "SURFACE_ZONE": "N", "SURFACE_UTM83_X": "465897.858426397", "SURFACE_UTM83_Y": "3571339.00762271", "UPPER_PERFS": null, "LOWER_PERFS": null, "SANDS": null, "RESERVOIRS": null, "FORMATIONS": null, "HYPERLINK": "https://sonlite.dnr.state.la.us/ords/apex/r/sonris_pub/sonris_data_portal/well-profile?clear=CR,9000&ig[ig_master]_well_serial_num=255802", "GIS_UPD_DATE": "2026-08-07 09:05:25", "status_desc": "PERMITTED", "dirwell": null, "SCOUT_DETAIL": "459' FNL & 1854' FEL OF S23-T15N-R10W; PBHL: 100' FNL & 674' FEL OF S2-T15N-R10W.", "MINERAL_INTEREST_FLAG": null, "STATE_INTEREST_FLAG": null, "DOC_ACCESS": "https://sonlite.dnr.state.la.us/ords/r/sonris/ucmsearch/finddocuments?qtype=eq&idx=xwellserialnumber&val=255802", "STATE_ZONE": "NORTH", "COASTAL_PERMIT_NUM": null, "SE_ANNO_CAD_DATA": null, "TRUE_VERTICAL_DEPTH": "12800.0", "first_seen": "False"}}]}