{"type": "FeatureCollection", "features": [{"type": "Feature", "geometry": {"type": "Point", "coordinates": [-92.337767254, 31.765566161]}, "properties": {"OBJECTID": "237213", "id": "255832", "ORGANIZATION_ID": "D1168", "ORGOP_LINE_ID": "1", "WELL_CLASS_TYPE_CODE": null, "well": "HARTER-TENSAS-DELTA", "well_num": "046", "township": "09N", "EFFECTIVE_DATE": "2026-08-27 05:00:00", "api": "17059269270000", "OPERATION_TYPE_CODE": "1", "issue_date": "2026-08-27 05:00:00", "spud": null, "status": "1", "WELL_STATUS_DATE": "2026-08-27 05:00:00", "ORIGINAL_COMPLETION_DATE": null, "LAST_RECOMPLETION_DATE": null, "LAST_TEST_DATE": null, "ORPHANED_FLAG": null, "PRODUCT_TYPE_CODE": "0", "CLASSIFICATION": null, "UNIT_WELL_FLAG": null, "EXEMPT_29E_FLAG": null, "FIELD_ID": "6076", "LEASE_NUM": null, "MUD_DENSITY": "0.0", "USDW_VALUE": null, "AREA_USDW_VALUE": "0.0", "SOURCE_AREA_USDW_VALUE": null, "MAX_SIP": null, "SIP_ASSIGNED_DATE": null, "SOURCE_OF_SIP_VALUE": null, "INJECTION_RATE": "0.0", "COMMENTS": null, "LOCATION": "SL: 753' FNL & 2218' FEL OF SEC 14, T09N-R01E.", "section": "014", "MERIDIAN": "W", "range": "01E", "PARISH_CODE": "30", "lat": "31.765566161", "lon": "-92.337767254", "depth": "2400.0", "LEGEND": "1", "DISTRICT_CODE": null, "INSPECTION_DATE": null, "INSPECTION_YEAR_INDEX": null, "SECTION": "14", "INJECTION_VOLUME": null, "LOG_REVIEWED_FLAG": null, "ORPHAN_STATUS_CODE": null, "ORPHAN_STATUS_DATE": null, "field": "LITTLE CREEK", "operator": "DRAKE PETROLEUM, LLC", "parish": "LA SALLE", "SCOUT_WELL_STATUS_CODE": "1", "SCOUT_REPORT_DATE": "2026-08-27 05:00:00", "SCOUT_MEASURED_DEPTH": "2400.0", "SCOUT_TRUE_VERTICAL_DEPTH": null, "LUW_CODE": null, "LUW_TYPE_CODE": null, "LUW_NAME": null, "LW_REC_STATUS": null, "SURFACE_LAMBERT_X": "2050467.0", "SURFACE_LAMBERT_Y": "399689.0", "SURFACE_COORD_SYSTEM_CODE": "1", "SURFACE_ZONE": "N", "SURFACE_UTM83_X": "562710.68136414", "SURFACE_UTM83_Y": "3514641.74509471", "UPPER_PERFS": null, "LOWER_PERFS": null, "SANDS": null, "RESERVOIRS": null, "FORMATIONS": null, "HYPERLINK": "https://sonlite.dnr.state.la.us/ords/apex/r/sonris_pub/sonris_data_portal/well-profile?clear=CR,9000&ig[ig_master]_well_serial_num=255832", "GIS_UPD_DATE": "2026-08-28 09:05:07", "status_desc": "PERMITTED", "dirwell": null, "SCOUT_DETAIL": "SL: 753' FNL & 2218' FEL OF SEC 14, T09N-R01E.", "MINERAL_INTEREST_FLAG": null, "STATE_INTEREST_FLAG": null, "DOC_ACCESS": "https://sonlite.dnr.state.la.us/ords/r/sonris/ucmsearch/finddocuments?qtype=eq&idx=xwellserialnumber&val=255832", "STATE_ZONE": "BAD", "COASTAL_PERMIT_NUM": null, "SE_ANNO_CAD_DATA": null, "TRUE_VERTICAL_DEPTH": "2400.0", "first_seen": "True"}}, {"type": "Feature", "geometry": {"type": "Point", "coordinates": [-92.336330978, 31.766218602]}, "properties": {"OBJECTID": "237212", "id": "255833", "ORGANIZATION_ID": "D1168", "ORGOP_LINE_ID": "1", "WELL_CLASS_TYPE_CODE": null, "well": "HARTER-TENSAS-DELTA", "well_num": "047", "township": "09N", "EFFECTIVE_DATE": "2026-08-27 05:00:00", "api": "17059269280000", "OPERATION_TYPE_CODE": "1", "issue_date": "2026-08-27 05:00:00", "spud": null, "status": "1", "WELL_STATUS_DATE": "2026-08-27 05:00:00", "ORIGINAL_COMPLETION_DATE": null, "LAST_RECOMPLETION_DATE": null, "LAST_TEST_DATE": null, "ORPHANED_FLAG": null, "PRODUCT_TYPE_CODE": "0", "CLASSIFICATION": null, "UNIT_WELL_FLAG": null, "EXEMPT_29E_FLAG": null, "FIELD_ID": "6076", "LEASE_NUM": null, "MUD_DENSITY": "0.0", "USDW_VALUE": null, "AREA_USDW_VALUE": "0.0", "SOURCE_AREA_USDW_VALUE": null, "MAX_SIP": null, "SIP_ASSIGNED_DATE": null, "SOURCE_OF_SIP_VALUE": null, "INJECTION_RATE": "0.0", "COMMENTS": null, "LOCATION": "SL: 516' FNL & 1772' FEL OF SEC 014, T09N-R01E.", "section": "014", "MERIDIAN": "W", "range": "01E", "PARISH_CODE": "30", "lat": "31.766218602", "lon": "-92.336330978", "depth": "2400.0", "LEGEND": "1", "DISTRICT_CODE": null, "INSPECTION_DATE": null, "INSPECTION_YEAR_INDEX": null, "SECTION": "14", "INJECTION_VOLUME": null, "LOG_REVIEWED_FLAG": null, "ORPHAN_STATUS_CODE": null, "ORPHAN_STATUS_DATE": null, "field": "LITTLE CREEK", "operator": "DRAKE PETROLEUM, LLC", "parish": "LA SALLE", "SCOUT_WELL_STATUS_CODE": "1", "SCOUT_REPORT_DATE": "2026-08-27 05:00:00", "SCOUT_MEASURED_DEPTH": "2400.0", "SCOUT_TRUE_VERTICAL_DEPTH": null, "LUW_CODE": null, "LUW_TYPE_CODE": null, "LUW_NAME": null, "LW_REC_STATUS": null, "SURFACE_LAMBERT_X": "2050913.0", "SURFACE_LAMBERT_Y": "399927.0", "SURFACE_COORD_SYSTEM_CODE": "1", "SURFACE_ZONE": "N", "SURFACE_UTM83_X": "562846.252454112", "SURFACE_UTM83_Y": "3514714.89128589", "UPPER_PERFS": null, "LOWER_PERFS": null, "SANDS": null, "RESERVOIRS": null, "FORMATIONS": null, "HYPERLINK": "https://sonlite.dnr.state.la.us/ords/apex/r/sonris_pub/sonris_data_portal/well-profile?clear=CR,9000&ig[ig_master]_well_serial_num=255833", "GIS_UPD_DATE": "2026-08-28 09:05:07", "status_desc": "PERMITTED", "dirwell": null, "SCOUT_DETAIL": "SL: 516' FNL & 1772' FEL OF SEC 014, T09N-R01E.", "MINERAL_INTEREST_FLAG": null, "STATE_INTEREST_FLAG": null, "DOC_ACCESS": "https://sonlite.dnr.state.la.us/ords/r/sonris/ucmsearch/finddocuments?qtype=eq&idx=xwellserialnumber&val=255833", "STATE_ZONE": "BAD", "COASTAL_PERMIT_NUM": null, "SE_ANNO_CAD_DATA": null, "TRUE_VERTICAL_DEPTH": "2400.0", "first_seen": "True"}}]}