{"type": "FeatureCollection", "features": [{"type": "Feature", "geometry": {"type": "Point", "coordinates": [-93.906421215, 32.327196182]}, "properties": {"OBJECTID": "3751", "id": "255841", "ORGANIZATION_ID": "E1152", "ORGOP_LINE_ID": "1", "WELL_CLASS_TYPE_CODE": null, "well": "HA RA SUMM;ARK33&28&21-16-15HC", "well_num": "1-ALT", "township": "16N", "EFFECTIVE_DATE": "2026-09-15 05:00:00", "api": "17017370710000", "OPERATION_TYPE_CODE": "1", "issue_date": "2026-09-15 05:00:00", "spud": null, "status": "1", "WELL_STATUS_DATE": "2026-09-15 05:00:00", "ORIGINAL_COMPLETION_DATE": null, "LAST_RECOMPLETION_DATE": null, "LAST_TEST_DATE": null, "ORPHANED_FLAG": null, "PRODUCT_TYPE_CODE": "0", "CLASSIFICATION": null, "UNIT_WELL_FLAG": null, "EXEMPT_29E_FLAG": null, "FIELD_ID": "4780", "LEASE_NUM": null, "MUD_DENSITY": "0.0", "USDW_VALUE": null, "AREA_USDW_VALUE": "0.0", "SOURCE_AREA_USDW_VALUE": null, "MAX_SIP": null, "SIP_ASSIGNED_DATE": null, "SOURCE_OF_SIP_VALUE": null, "INJECTION_RATE": "0.0", "COMMENTS": null, "LOCATION": "SL: 276' FSL & 1848' FEL OF SEC 33,T16N-R15W. PBHL: 440' FSL & 385' FWL OF SEC 21, T16N-R15W.", "section": "033", "MERIDIAN": "W", "range": "15W", "PARISH_CODE": "9", "lat": "32.327196182", "lon": "-93.906421215", "depth": "35000.0", "LEGEND": "-1", "DISTRICT_CODE": null, "INSPECTION_DATE": null, "INSPECTION_YEAR_INDEX": null, "SECTION": "33", "INJECTION_VOLUME": null, "LOG_REVIEWED_FLAG": null, "ORPHAN_STATUS_CODE": null, "ORPHAN_STATUS_DATE": null, "field": "JOHNSON BRANCH", "operator": "EXPAND OPERATING LLC", "parish": "CADDO", "SCOUT_WELL_STATUS_CODE": "1", "SCOUT_REPORT_DATE": "2026-09-15 05:00:00", "SCOUT_MEASURED_DEPTH": "35000.0", "SCOUT_TRUE_VERTICAL_DEPTH": null, "LUW_CODE": null, "LUW_TYPE_CODE": null, "LUW_NAME": null, "LW_REC_STATUS": null, "SURFACE_LAMBERT_X": "1565632.0", "SURFACE_LAMBERT_Y": "606776.0", "SURFACE_COORD_SYSTEM_CODE": "1", "SURFACE_ZONE": "N", "SURFACE_UTM83_X": "414687.572379768", "SURFACE_UTM83_Y": "3577064.74171038", "UPPER_PERFS": null, "LOWER_PERFS": null, "SANDS": null, "RESERVOIRS": null, "FORMATIONS": null, "HYPERLINK": "https://sonlite.dnr.state.la.us/ords/apex/r/sonris_pub/sonris_data_portal/well-profile?clear=CR,9000&ig[ig_master]_well_serial_num=255841", "GIS_UPD_DATE": "2026-09-16 09:05:30", "status_desc": "PERMITTED", "dirwell": null, "SCOUT_DETAIL": "SL: 276' FSL & 1848' FEL OF SEC 33,T16N-R15W. PBHL: 440' FSL & 385' FWL OF SEC 21, T16N-R15W.", "MINERAL_INTEREST_FLAG": null, "STATE_INTEREST_FLAG": null, "DOC_ACCESS": "https://sonlite.dnr.state.la.us/ords/r/sonris/ucmsearch/finddocuments?qtype=eq&idx=xwellserialnumber&val=255841", "STATE_ZONE": "BAD", "COASTAL_PERMIT_NUM": null, "SE_ANNO_CAD_DATA": null, "TRUE_VERTICAL_DEPTH": "14000.0", "first_seen": "False"}}, {"type": "Feature", "geometry": {"type": "Point", "coordinates": [-93.906418819, 32.327251189]}, "properties": {"OBJECTID": "3752", "id": "255842", "ORGANIZATION_ID": "E1152", "ORGOP_LINE_ID": "1", "WELL_CLASS_TYPE_CODE": null, "well": "HA RA SUMM;ARK33&28&21-16-15HC", "well_num": "2-ALT", "township": "16N", "EFFECTIVE_DATE": "2026-09-15 05:00:00", "api": "17017370720000", "OPERATION_TYPE_CODE": "1", "issue_date": "2026-09-15 05:00:00", "spud": null, "status": "1", "WELL_STATUS_DATE": "2026-09-15 05:00:00", "ORIGINAL_COMPLETION_DATE": null, "LAST_RECOMPLETION_DATE": null, "LAST_TEST_DATE": null, "ORPHANED_FLAG": null, "PRODUCT_TYPE_CODE": "0", "CLASSIFICATION": null, "UNIT_WELL_FLAG": null, "EXEMPT_29E_FLAG": null, "FIELD_ID": "4780", "LEASE_NUM": null, "MUD_DENSITY": "0.0", "USDW_VALUE": null, "AREA_USDW_VALUE": "0.0", "SOURCE_AREA_USDW_VALUE": null, "MAX_SIP": null, "SIP_ASSIGNED_DATE": null, "SOURCE_OF_SIP_VALUE": null, "INJECTION_RATE": "0.0", "COMMENTS": null, "LOCATION": "SL: 296' & 1848' FEL OF SEC 33, T16N-R15W. PBHL: 480' FSL & 1435' FWL OF SEC 21, T16N-R15W.", "section": "033", "MERIDIAN": "W", "range": "15W", "PARISH_CODE": "9", "lat": "32.327251189", "lon": "-93.906418819", "depth": "35000.0", "LEGEND": "-1", "DISTRICT_CODE": null, "INSPECTION_DATE": null, "INSPECTION_YEAR_INDEX": null, "SECTION": "33", "INJECTION_VOLUME": null, "LOG_REVIEWED_FLAG": null, "ORPHAN_STATUS_CODE": null, "ORPHAN_STATUS_DATE": null, "field": "JOHNSON BRANCH", "operator": "EXPAND OPERATING LLC", "parish": "CADDO", "SCOUT_WELL_STATUS_CODE": "1", "SCOUT_REPORT_DATE": "2026-09-15 05:00:00", "SCOUT_MEASURED_DEPTH": "35000.0", "SCOUT_TRUE_VERTICAL_DEPTH": null, "LUW_CODE": null, "LUW_TYPE_CODE": null, "LUW_NAME": null, "LW_REC_STATUS": null, "SURFACE_LAMBERT_X": "1565633.0", "SURFACE_LAMBERT_Y": "606796.0", "SURFACE_COORD_SYSTEM_CODE": "1", "SURFACE_ZONE": "N", "SURFACE_UTM83_X": "414687.849570681", "SURFACE_UTM83_Y": "3577070.83754749", "UPPER_PERFS": null, "LOWER_PERFS": null, "SANDS": null, "RESERVOIRS": null, "FORMATIONS": null, "HYPERLINK": "https://sonlite.dnr.state.la.us/ords/apex/r/sonris_pub/sonris_data_portal/well-profile?clear=CR,9000&ig[ig_master]_well_serial_num=255842", "GIS_UPD_DATE": "2026-09-16 09:05:30", "status_desc": "PERMITTED", "dirwell": null, "SCOUT_DETAIL": "SL: 296' & 1848' FEL OF SEC 33, T16N-R15W. PBHL: 480' FSL & 1435' FWL OF SEC 21, T16N-R15W.", "MINERAL_INTEREST_FLAG": null, "STATE_INTEREST_FLAG": null, "DOC_ACCESS": "https://sonlite.dnr.state.la.us/ords/r/sonris/ucmsearch/finddocuments?qtype=eq&idx=xwellserialnumber&val=255842", "STATE_ZONE": "BAD", "COASTAL_PERMIT_NUM": null, "SE_ANNO_CAD_DATA": null, "TRUE_VERTICAL_DEPTH": "14000.0", "first_seen": "False"}}, {"type": "Feature", "geometry": {"type": "Point", "coordinates": [-93.906419659, 32.32730616]}, "properties": {"OBJECTID": "3753", "id": "255843", "ORGANIZATION_ID": "E1152", "ORGOP_LINE_ID": "1", "WELL_CLASS_TYPE_CODE": null, "well": "HA RA SUMM;ARK33&28&21-16-15HC", "well_num": "3-ALT", "township": "16N", "EFFECTIVE_DATE": "2026-09-15 05:00:00", "api": "17017370730000", "OPERATION_TYPE_CODE": "1", "issue_date": "2026-09-15 05:00:00", "spud": null, "status": "1", "WELL_STATUS_DATE": "2026-09-15 05:00:00", "ORIGINAL_COMPLETION_DATE": null, "LAST_RECOMPLETION_DATE": null, "LAST_TEST_DATE": null, "ORPHANED_FLAG": null, "PRODUCT_TYPE_CODE": "0", "CLASSIFICATION": null, "UNIT_WELL_FLAG": null, "EXEMPT_29E_FLAG": null, "FIELD_ID": "4780", "LEASE_NUM": null, "MUD_DENSITY": "0.0", "USDW_VALUE": null, "AREA_USDW_VALUE": "0.0", "SOURCE_AREA_USDW_VALUE": null, "MAX_SIP": null, "SIP_ASSIGNED_DATE": null, "SOURCE_OF_SIP_VALUE": null, "INJECTION_RATE": "0.0", "COMMENTS": null, "LOCATION": "SL: 316' FSL &1848' FEL OF SEC 33, T16N-R15W. PBHL: 495'  FSL & 2490' FWL OF SEC 21, T16N-R15W.", "section": "033", "MERIDIAN": "W", "range": "15W", "PARISH_CODE": "9", "lat": "32.32730616", "lon": "-93.906419659", "depth": "35000.0", "LEGEND": "-1", "DISTRICT_CODE": null, "INSPECTION_DATE": null, "INSPECTION_YEAR_INDEX": null, "SECTION": "33", "INJECTION_VOLUME": null, "LOG_REVIEWED_FLAG": null, "ORPHAN_STATUS_CODE": null, "ORPHAN_STATUS_DATE": null, "field": "JOHNSON BRANCH", "operator": "EXPAND OPERATING LLC", "parish": "CADDO", "SCOUT_WELL_STATUS_CODE": "1", "SCOUT_REPORT_DATE": "2026-09-15 05:00:00", "SCOUT_MEASURED_DEPTH": "35000.0", "SCOUT_TRUE_VERTICAL_DEPTH": null, "LUW_CODE": null, "LUW_TYPE_CODE": null, "LUW_NAME": null, "LW_REC_STATUS": null, "SURFACE_LAMBERT_X": "1565633.0", "SURFACE_LAMBERT_Y": "606816.0", "SURFACE_COORD_SYSTEM_CODE": "1", "SURFACE_ZONE": "N", "SURFACE_UTM83_X": "414687.822038661", "SURFACE_UTM83_Y": "3577076.93200794", "UPPER_PERFS": null, "LOWER_PERFS": null, "SANDS": null, "RESERVOIRS": null, "FORMATIONS": null, "HYPERLINK": "https://sonlite.dnr.state.la.us/ords/apex/r/sonris_pub/sonris_data_portal/well-profile?clear=CR,9000&ig[ig_master]_well_serial_num=255843", "GIS_UPD_DATE": "2026-09-16 09:05:30", "status_desc": "PERMITTED", "dirwell": null, "SCOUT_DETAIL": "SL: 316' FSL &1848' FEL OF SEC 33, T16N-R15W. PBHL: 495'  FSL & 2490' FWL OF SEC 21, T16N-R15W.", "MINERAL_INTEREST_FLAG": null, "STATE_INTEREST_FLAG": null, "DOC_ACCESS": "https://sonlite.dnr.state.la.us/ords/r/sonris/ucmsearch/finddocuments?qtype=eq&idx=xwellserialnumber&val=255843", "STATE_ZONE": "BAD", "COASTAL_PERMIT_NUM": null, "SE_ANNO_CAD_DATA": null, "TRUE_VERTICAL_DEPTH": "14000.0", "first_seen": "False"}}, {"type": "Feature", "geometry": {"type": "Point", "coordinates": [-93.404416709, 32.424632515]}, "properties": {"OBJECTID": "3754", "id": "255844", "ORGANIZATION_ID": "E4161", "ORGOP_LINE_ID": "1", "WELL_CLASS_TYPE_CODE": null, "well": "HA RA SU88; TALIAFERRO 28-21HC", "well_num": "1-ALT", "township": "17N", "EFFECTIVE_DATE": "2026-09-15 05:00:00", "api": "17119223100000", "OPERATION_TYPE_CODE": "1", "issue_date": "2026-09-15 05:00:00", "spud": null, "status": "1", "WELL_STATUS_DATE": "2026-09-15 05:00:00", "ORIGINAL_COMPLETION_DATE": null, "LAST_RECOMPLETION_DATE": null, "LAST_TEST_DATE": null, "ORPHANED_FLAG": null, "PRODUCT_TYPE_CODE": "0", "CLASSIFICATION": null, "UNIT_WELL_FLAG": null, "EXEMPT_29E_FLAG": null, "FIELD_ID": "3608", "LEASE_NUM": null, "MUD_DENSITY": "0.0", "USDW_VALUE": null, "AREA_USDW_VALUE": "0.0", "SOURCE_AREA_USDW_VALUE": null, "MAX_SIP": null, "SIP_ASSIGNED_DATE": null, "SOURCE_OF_SIP_VALUE": null, "INJECTION_RATE": "0.0", "COMMENTS": null, "LOCATION": "SHL: 122' FNL & 840' FWL SEC 33, T17N-R10W. PBHL: 25' FNL & 1600' FWL SEC 21, T17N-R10W.", "section": "033", "MERIDIAN": "W", "range": "10W", "PARISH_CODE": "60", "lat": "32.424632515", "lon": "-93.404416709", "depth": "23251.0", "LEGEND": "-1", "DISTRICT_CODE": null, "INSPECTION_DATE": null, "INSPECTION_YEAR_INDEX": null, "SECTION": "33", "INJECTION_VOLUME": null, "LOG_REVIEWED_FLAG": null, "ORPHAN_STATUS_CODE": null, "ORPHAN_STATUS_DATE": null, "field": "ELM GROVE", "operator": "ENSIGHT IV ENERGY MANAGEMENT, LLC", "parish": "WEBSTER", "SCOUT_WELL_STATUS_CODE": "1", "SCOUT_REPORT_DATE": "2026-09-15 05:00:00", "SCOUT_MEASURED_DEPTH": "23251.0", "SCOUT_TRUE_VERTICAL_DEPTH": null, "LUW_CODE": null, "LUW_TYPE_CODE": null, "LUW_NAME": null, "LW_REC_STATUS": null, "SURFACE_LAMBERT_X": "1720983.0", "SURFACE_LAMBERT_Y": "640569.0", "SURFACE_COORD_SYSTEM_CODE": "1", "SURFACE_ZONE": "N", "SURFACE_UTM83_X": "461977.643324917", "SURFACE_UTM83_Y": "3587576.53580086", "UPPER_PERFS": null, "LOWER_PERFS": null, "SANDS": null, "RESERVOIRS": null, "FORMATIONS": null, "HYPERLINK": "https://sonlite.dnr.state.la.us/ords/apex/r/sonris_pub/sonris_data_portal/well-profile?clear=CR,9000&ig[ig_master]_well_serial_num=255844", "GIS_UPD_DATE": "2026-09-16 09:05:30", "status_desc": "PERMITTED", "dirwell": null, "SCOUT_DETAIL": "SHL: 122' FNL & 840' FWL SEC 33, T17N-R10W. PBHL: 25' FNL & 1600' FWL SEC 21, T17N-R10W.", "MINERAL_INTEREST_FLAG": null, "STATE_INTEREST_FLAG": null, "DOC_ACCESS": "https://sonlite.dnr.state.la.us/ords/r/sonris/ucmsearch/finddocuments?qtype=eq&idx=xwellserialnumber&val=255844", "STATE_ZONE": "BAD", "COASTAL_PERMIT_NUM": null, "SE_ANNO_CAD_DATA": null, "TRUE_VERTICAL_DEPTH": "12981.0", "first_seen": "False"}}, {"type": "Feature", "geometry": {"type": "Point", "coordinates": [-93.573112399, 31.962151819]}, "properties": {"OBJECTID": "4271", "id": "255845", "ORGANIZATION_ID": "J1211", "ORGOP_LINE_ID": "1", "WELL_CLASS_TYPE_CODE": null, "well": "HA RA SUH; LARKSPUR 2HU", "well_num": "1-ALT", "township": "11N", "EFFECTIVE_DATE": "2026-09-15 05:00:00", "api": "17031276410000", "OPERATION_TYPE_CODE": "1", "issue_date": "2026-09-15 05:00:00", "spud": null, "status": "1", "WELL_STATUS_DATE": "2026-09-15 05:00:00", "ORIGINAL_COMPLETION_DATE": null, "LAST_RECOMPLETION_DATE": null, "LAST_TEST_DATE": null, "ORPHANED_FLAG": null, "PRODUCT_TYPE_CODE": "0", "CLASSIFICATION": null, "UNIT_WELL_FLAG": null, "EXEMPT_29E_FLAG": null, "FIELD_ID": "8871", "LEASE_NUM": null, "MUD_DENSITY": "0.0", "USDW_VALUE": null, "AREA_USDW_VALUE": "0.0", "SOURCE_AREA_USDW_VALUE": null, "MAX_SIP": null, "SIP_ASSIGNED_DATE": null, "SOURCE_OF_SIP_VALUE": null, "INJECTION_RATE": "0.0", "COMMENTS": null, "LOCATION": "SL: 126' FSL & 1228' FWL OF SEC 002, T11N-R12W. PBHL: 0' FSL & 2030' FWL OF SEC 002, T11N-R12W.", "section": "002", "MERIDIAN": "W", "range": "12W", "PARISH_CODE": "16", "lat": "31.962151819", "lon": "-93.573112399", "depth": "24500.0", "LEGEND": "-1", "DISTRICT_CODE": null, "INSPECTION_DATE": null, "INSPECTION_YEAR_INDEX": null, "SECTION": "2", "INJECTION_VOLUME": null, "LOG_REVIEWED_FLAG": null, "ORPHAN_STATUS_CODE": null, "ORPHAN_STATUS_DATE": null, "field": "TEN MILE BAYOU", "operator": "JERA UPSTREAM AMERICA, LLC", "parish": "DE SOTO", "SCOUT_WELL_STATUS_CODE": "1", "SCOUT_REPORT_DATE": "2026-09-15 05:00:00", "SCOUT_MEASURED_DEPTH": "24500.0", "SCOUT_TRUE_VERTICAL_DEPTH": null, "LUW_CODE": null, "LUW_TYPE_CODE": null, "LUW_NAME": null, "LW_REC_STATUS": null, "SURFACE_LAMBERT_X": "1667266.0", "SURFACE_LAMBERT_Y": "472809.0", "SURFACE_COORD_SYSTEM_CODE": "1", "SURFACE_ZONE": "N", "SURFACE_UTM83_X": "445843.845483371", "SURFACE_UTM83_Y": "3536383.9023599", "UPPER_PERFS": null, "LOWER_PERFS": null, "SANDS": null, "RESERVOIRS": null, "FORMATIONS": null, "HYPERLINK": "https://sonlite.dnr.state.la.us/ords/apex/r/sonris_pub/sonris_data_portal/well-profile?clear=CR,9000&ig[ig_master]_well_serial_num=255845", "GIS_UPD_DATE": "2026-09-16 09:05:30", "status_desc": "PERMITTED", "dirwell": null, "SCOUT_DETAIL": "SL: 126' FSL & 1228' FWL OF SEC 002, T11N-R12W. PBHL: 0' FSL & 2030' FWL OF SEC 002, T11N-R12W.", "MINERAL_INTEREST_FLAG": null, "STATE_INTEREST_FLAG": null, "DOC_ACCESS": "https://sonlite.dnr.state.la.us/ords/r/sonris/ucmsearch/finddocuments?qtype=eq&idx=xwellserialnumber&val=255845", "STATE_ZONE": "BAD", "COASTAL_PERMIT_NUM": null, "SE_ANNO_CAD_DATA": null, "TRUE_VERTICAL_DEPTH": "12100.0", "first_seen": "False"}}, {"type": "Feature", "geometry": {"type": "Point", "coordinates": [-91.301790807, 30.315710454]}, "properties": {"OBJECTID": "4272", "id": "255846", "ORGANIZATION_ID": "B9046", "ORGOP_LINE_ID": "1", "WELL_CLASS_TYPE_CODE": null, "well": "BLACKSTONE MINERALS", "well_num": "010", "township": "09S", "EFFECTIVE_DATE": "2026-09-15 05:00:00", "api": "17047211660000", "OPERATION_TYPE_CODE": "1", "issue_date": "2026-09-15 05:00:00", "spud": null, "status": "1", "WELL_STATUS_DATE": "2026-09-15 05:00:00", "ORIGINAL_COMPLETION_DATE": null, "LAST_RECOMPLETION_DATE": null, "LAST_TEST_DATE": null, "ORPHANED_FLAG": null, "PRODUCT_TYPE_CODE": "0", "CLASSIFICATION": null, "UNIT_WELL_FLAG": null, "EXEMPT_29E_FLAG": null, "FIELD_ID": "576", "LEASE_NUM": null, "MUD_DENSITY": "0.0", "USDW_VALUE": null, "AREA_USDW_VALUE": "0.0", "SOURCE_AREA_USDW_VALUE": null, "MAX_SIP": null, "SIP_ASSIGNED_DATE": null, "SOURCE_OF_SIP_VALUE": null, "INJECTION_RATE": "0.0", "COMMENTS": null, "LOCATION": "SL: N71 D 07'30\" W 33785.25' FROM NGS MONS \"178 2 RESET\" FALLING IN SEC 52, T9S-R11E, IBERVILLE PARISH. PBHL: S 200' FROM SL.", "section": "052", "MERIDIAN": null, "range": "11E", "PARISH_CODE": "24", "lat": "30.315710454", "lon": "-91.301790807", "depth": "5465.0", "LEGEND": "-1", "DISTRICT_CODE": null, "INSPECTION_DATE": null, "INSPECTION_YEAR_INDEX": null, "SECTION": "52", "INJECTION_VOLUME": null, "LOG_REVIEWED_FLAG": null, "ORPHAN_STATUS_CODE": null, "ORPHAN_STATUS_DATE": null, "field": "BAYOU CHOCTAW", "operator": "BURRITE OPERATING, LLC", "parish": "IBERVILLE", "SCOUT_WELL_STATUS_CODE": "1", "SCOUT_REPORT_DATE": "2026-09-15 05:00:00", "SCOUT_MEASURED_DEPTH": "5465.0", "SCOUT_TRUE_VERTICAL_DEPTH": null, "LUW_CODE": null, "LUW_TYPE_CODE": null, "LUW_NAME": null, "LW_REC_STATUS": null, "SURFACE_LAMBERT_X": "2009991.0", "SURFACE_LAMBERT_Y": "599587.0", "SURFACE_COORD_SYSTEM_CODE": "1", "SURFACE_ZONE": "S", "SURFACE_UTM83_X": "663279.2344420559", "SURFACE_UTM83_Y": "3354991.09580272", "UPPER_PERFS": null, "LOWER_PERFS": null, "SANDS": null, "RESERVOIRS": null, "FORMATIONS": null, "HYPERLINK": "https://sonlite.dnr.state.la.us/ords/apex/r/sonris_pub/sonris_data_portal/well-profile?clear=CR,9000&ig[ig_master]_well_serial_num=255846", "GIS_UPD_DATE": "2026-09-16 09:05:30", "status_desc": "PERMITTED", "dirwell": null, "SCOUT_DETAIL": "SL: N71 D 07'30\" W 33785.25' FROM NGS MONS \"178 2 RESET\" FALLING IN SEC 52, T9S-R11E, IBERVILLE PARISH. PBHL: S 200' FROM SL.", "MINERAL_INTEREST_FLAG": null, "STATE_INTEREST_FLAG": null, "DOC_ACCESS": "https://sonlite.dnr.state.la.us/ords/r/sonris/ucmsearch/finddocuments?qtype=eq&idx=xwellserialnumber&val=255846", "STATE_ZONE": "SOUTH", "COASTAL_PERMIT_NUM": null, "SE_ANNO_CAD_DATA": null, "TRUE_VERTICAL_DEPTH": "5450.0", "first_seen": "False"}}]}