{"type": "FeatureCollection", "features": [{"type": "Feature", "geometry": {"type": "Point", "coordinates": [-93.630786739, 33.013937993]}, "properties": {"OBJECTID": "239873", "id": "255840", "ORGANIZATION_ID": "A156", "ORGOP_LINE_ID": "1", "WELL_CLASS_TYPE_CODE": null, "well": "ADIRONDACK", "well_num": "003", "township": "23N", "EFFECTIVE_DATE": "2026-09-10 05:00:00", "api": "17015254310000", "OPERATION_TYPE_CODE": "1", "issue_date": "2026-09-10 05:00:00", "spud": null, "status": "1", "WELL_STATUS_DATE": "2026-09-10 05:00:00", "ORIGINAL_COMPLETION_DATE": null, "LAST_RECOMPLETION_DATE": null, "LAST_TEST_DATE": null, "ORPHANED_FLAG": null, "PRODUCT_TYPE_CODE": "0", "CLASSIFICATION": null, "UNIT_WELL_FLAG": null, "EXEMPT_29E_FLAG": null, "FIELD_ID": "116", "LEASE_NUM": null, "MUD_DENSITY": "0.0", "USDW_VALUE": null, "AREA_USDW_VALUE": "0.0", "SOURCE_AREA_USDW_VALUE": null, "MAX_SIP": null, "SIP_ASSIGNED_DATE": null, "SOURCE_OF_SIP_VALUE": null, "INJECTION_RATE": "0.0", "COMMENTS": null, "LOCATION": "1820' FROM THE S SECTION LINE & 1650' FROM THE W SECTION LINE, SEC 005, T23-R12W.", "section": "005", "MERIDIAN": "W", "range": "12W", "PARISH_CODE": "8", "lat": "33.013937993", "lon": "-93.630786739", "depth": "2850.0", "LEGEND": "1", "DISTRICT_CODE": null, "INSPECTION_DATE": null, "INSPECTION_YEAR_INDEX": null, "SECTION": "5", "INJECTION_VOLUME": null, "LOG_REVIEWED_FLAG": null, "ORPHAN_STATUS_CODE": null, "ORPHAN_STATUS_DATE": null, "field": "ARKANA", "operator": "ARK-LA-TEX ENERGY, L.L.C.", "parish": "BOSSIER", "SCOUT_WELL_STATUS_CODE": "1", "SCOUT_REPORT_DATE": "2026-09-10 05:00:00", "SCOUT_MEASURED_DEPTH": "2850.0", "SCOUT_TRUE_VERTICAL_DEPTH": null, "LUW_CODE": null, "LUW_TYPE_CODE": null, "LUW_NAME": null, "LW_REC_STATUS": null, "SURFACE_LAMBERT_X": "1653374.0", "SURFACE_LAMBERT_Y": "855630.0", "SURFACE_COORD_SYSTEM_CODE": "1", "SURFACE_ZONE": "N", "SURFACE_UTM83_X": "441083.310250287", "SURFACE_UTM83_Y": "3653008.81851991", "UPPER_PERFS": null, "LOWER_PERFS": null, "SANDS": null, "RESERVOIRS": null, "FORMATIONS": null, "HYPERLINK": "https://sonlite.dnr.state.la.us/ords/apex/r/sonris_pub/sonris_data_portal/well-profile?clear=CR,9000&ig[ig_master]_well_serial_num=255840", "GIS_UPD_DATE": "2026-09-11 09:05:11", "status_desc": "PERMITTED", "dirwell": null, "SCOUT_DETAIL": "1820' FROM THE S SECTION LINE & 1650' FROM THE W SECTION LINE, SEC 005, T23-R12W.", "MINERAL_INTEREST_FLAG": null, "STATE_INTEREST_FLAG": null, "DOC_ACCESS": "https://sonlite.dnr.state.la.us/ords/r/sonris/ucmsearch/finddocuments?qtype=eq&idx=xwellserialnumber&val=255840", "STATE_ZONE": "BAD", "COASTAL_PERMIT_NUM": null, "SE_ANNO_CAD_DATA": null, "TRUE_VERTICAL_DEPTH": "2850.0", "first_seen": "True"}}]}