{"type": "FeatureCollection", "features": [{"type": "Feature", "geometry": {"type": "Point", "coordinates": [-93.396875991, 32.148383896]}, "properties": {"OBJECTID": "234009", "id": "255863", "ORGANIZATION_ID": "A1169", "ORGOP_LINE_ID": "1", "WELL_CLASS_TYPE_CODE": null, "well": "BREWER 33-14-10 HU", "well_num": "003", "township": "14N", "EFFECTIVE_DATE": "2026-10-06 05:00:00", "api": "17081219600000", "OPERATION_TYPE_CODE": "1", "issue_date": "2026-10-06 05:00:00", "spud": null, "status": "1", "WELL_STATUS_DATE": "2026-10-06 05:00:00", "ORIGINAL_COMPLETION_DATE": null, "LAST_RECOMPLETION_DATE": null, "LAST_TEST_DATE": null, "ORPHANED_FLAG": null, "PRODUCT_TYPE_CODE": "0", "CLASSIFICATION": null, "UNIT_WELL_FLAG": "Y", "EXEMPT_29E_FLAG": null, "FIELD_ID": "1843", "LEASE_NUM": null, "MUD_DENSITY": "0.0", "USDW_VALUE": null, "AREA_USDW_VALUE": "0.0", "SOURCE_AREA_USDW_VALUE": null, "MAX_SIP": null, "SIP_ASSIGNED_DATE": null, "SOURCE_OF_SIP_VALUE": null, "INJECTION_RATE": "0.0", "COMMENTS": null, "LOCATION": "SL: 13' (SC) FNL & 2003' (SC) FEL OF SEC 004, T13N-R10W. PBHL: 100' (SC) FSL & 530' (SC) FWL OF SEC 33, T14N-R10W.", "section": "033", "MERIDIAN": "W", "range": "10W", "PARISH_CODE": "41", "lat": "32.148383896", "lon": "-93.396875991", "depth": "30000.0", "LEGEND": "-1", "DISTRICT_CODE": "3NW", "INSPECTION_DATE": null, "INSPECTION_YEAR_INDEX": null, "SECTION": "33", "INJECTION_VOLUME": null, "LOG_REVIEWED_FLAG": null, "ORPHAN_STATUS_CODE": null, "ORPHAN_STATUS_DATE": null, "field": "BRACKY BRANCH", "operator": "APEX NATURAL GAS, LLC", "parish": "RED RIVER", "SCOUT_WELL_STATUS_CODE": "1", "SCOUT_REPORT_DATE": "2026-10-06 05:00:00", "SCOUT_MEASURED_DEPTH": "30000.0", "SCOUT_TRUE_VERTICAL_DEPTH": null, "LUW_CODE": null, "LUW_TYPE_CODE": null, "LUW_NAME": null, "LW_REC_STATUS": null, "SURFACE_LAMBERT_X": "1722478.0", "SURFACE_LAMBERT_Y": "540056.0", "SURFACE_COORD_SYSTEM_CODE": "1", "SURFACE_ZONE": "N", "SURFACE_UTM83_X": "462573.308305431", "SURFACE_UTM83_Y": "3556952.0964912", "UPPER_PERFS": null, "LOWER_PERFS": null, "SANDS": null, "RESERVOIRS": null, "FORMATIONS": null, "HYPERLINK": "https://sonlite.dnr.state.la.us/ords/apex/r/sonris_pub/sonris_data_portal/well-profile?clear=CR,9000&ig[ig_master]_well_serial_num=255863", "GIS_UPD_DATE": "2026-10-07 09:05:18", "status_desc": "PERMITTED", "dirwell": null, "SCOUT_DETAIL": "SL: 13' (SC) FNL & 2003' (SC) FEL OF SEC 004, T13N-R10W. PBHL: 100' (SC) FSL & 530' (SC) FWL OF SEC 33, T14N-R10W.", "MINERAL_INTEREST_FLAG": null, "STATE_INTEREST_FLAG": null, "DOC_ACCESS": "https://sonlite.dnr.state.la.us/ords/r/sonris/ucmsearch/finddocuments?qtype=eq&idx=xwellserialnumber&val=255863", "STATE_ZONE": "BAD", "COASTAL_PERMIT_NUM": null, "SE_ANNO_CAD_DATA": null, "TRUE_VERTICAL_DEPTH": "15000.0", "first_seen": "False"}}, {"type": "Feature", "geometry": {"type": "Point", "coordinates": [-93.396808514, 32.148422858]}, "properties": {"OBJECTID": "234010", "id": "255864", "ORGANIZATION_ID": "A1169", "ORGOP_LINE_ID": "1", "WELL_CLASS_TYPE_CODE": null, "well": "BREWER 33-14-10 HU", "well_num": "004", "township": "14N", "EFFECTIVE_DATE": "2026-10-06 05:00:00", "api": "17081219610000", "OPERATION_TYPE_CODE": "1", "issue_date": "2026-10-06 05:00:00", "spud": null, "status": "1", "WELL_STATUS_DATE": "2026-10-06 05:00:00", "ORIGINAL_COMPLETION_DATE": null, "LAST_RECOMPLETION_DATE": null, "LAST_TEST_DATE": null, "ORPHANED_FLAG": null, "PRODUCT_TYPE_CODE": "0", "CLASSIFICATION": null, "UNIT_WELL_FLAG": "Y", "EXEMPT_29E_FLAG": null, "FIELD_ID": "1843", "LEASE_NUM": null, "MUD_DENSITY": "0.0", "USDW_VALUE": null, "AREA_USDW_VALUE": "0.0", "SOURCE_AREA_USDW_VALUE": null, "MAX_SIP": null, "SIP_ASSIGNED_DATE": null, "SOURCE_OF_SIP_VALUE": null, "INJECTION_RATE": "0.0", "COMMENTS": null, "LOCATION": "SL: 1' (SC) FNL & 1983' (SC) FEL OF SEC 004, T13N-R10W. PBHL: 100' (SC) FSL & 346' (SC) FEL OF SEC 033, T14N,R10W.", "section": "033", "MERIDIAN": "W", "range": "10W", "PARISH_CODE": "41", "lat": "32.148422858", "lon": "-93.396808514", "depth": "30000.0", "LEGEND": "-1", "DISTRICT_CODE": "3NW", "INSPECTION_DATE": null, "INSPECTION_YEAR_INDEX": null, "SECTION": "33", "INJECTION_VOLUME": null, "LOG_REVIEWED_FLAG": null, "ORPHAN_STATUS_CODE": null, "ORPHAN_STATUS_DATE": null, "field": "BRACKY BRANCH", "operator": "APEX NATURAL GAS, LLC", "parish": "RED RIVER", "SCOUT_WELL_STATUS_CODE": "1", "SCOUT_REPORT_DATE": "2026-10-06 05:00:00", "SCOUT_MEASURED_DEPTH": "30000.0", "SCOUT_TRUE_VERTICAL_DEPTH": null, "LUW_CODE": null, "LUW_TYPE_CODE": null, "LUW_NAME": null, "LW_REC_STATUS": null, "SURFACE_LAMBERT_X": "1722499.0", "SURFACE_LAMBERT_Y": "540070.0", "SURFACE_COORD_SYSTEM_CODE": "1", "SURFACE_ZONE": "N", "SURFACE_UTM83_X": "462579.687553045", "SURFACE_UTM83_Y": "3556956.39174862", "UPPER_PERFS": null, "LOWER_PERFS": null, "SANDS": null, "RESERVOIRS": null, "FORMATIONS": null, "HYPERLINK": "https://sonlite.dnr.state.la.us/ords/apex/r/sonris_pub/sonris_data_portal/well-profile?clear=CR,9000&ig[ig_master]_well_serial_num=255864", "GIS_UPD_DATE": "2026-10-07 09:05:18", "status_desc": "PERMITTED", "dirwell": null, "SCOUT_DETAIL": "SL: 1' (SC) FNL & 1983' (SC) FEL OF SEC 004, T13N-R10W. PBHL: 100' (SC) FSL & 346' (SC) FEL OF SEC 033, T14N,R10W.", "MINERAL_INTEREST_FLAG": null, "STATE_INTEREST_FLAG": null, "DOC_ACCESS": "https://sonlite.dnr.state.la.us/ords/r/sonris/ucmsearch/finddocuments?qtype=eq&idx=xwellserialnumber&val=255864", "STATE_ZONE": "BAD", "COASTAL_PERMIT_NUM": null, "SE_ANNO_CAD_DATA": null, "TRUE_VERTICAL_DEPTH": "15000.0", "first_seen": "False"}}]}