{"type": "FeatureCollection", "features": [{"type": "Feature", "geometry": {"type": "Point", "coordinates": [-93.754662636, 32.183035697]}, "properties": {"OBJECTID": "241209", "id": "255796", "ORGANIZATION_ID": "E183", "ORGOP_LINE_ID": "1", "WELL_CLASS_TYPE_CODE": null, "well": "HA RA SUB;FULLER 24-13 HC", "well_num": "001-ALT", "township": "14N", "EFFECTIVE_DATE": "2026-07-29 05:00:00", "api": "17031276260000", "OPERATION_TYPE_CODE": "1", "issue_date": "2026-07-29 05:00:00", "spud": null, "status": "1", "WELL_STATUS_DATE": "2026-07-29 05:00:00", "ORIGINAL_COMPLETION_DATE": null, "LAST_RECOMPLETION_DATE": null, "LAST_TEST_DATE": null, "ORPHANED_FLAG": null, "PRODUCT_TYPE_CODE": "0", "CLASSIFICATION": null, "UNIT_WELL_FLAG": null, "EXEMPT_29E_FLAG": null, "FIELD_ID": "4541", "LEASE_NUM": null, "MUD_DENSITY": "0.0", "USDW_VALUE": null, "AREA_USDW_VALUE": "0.0", "SOURCE_AREA_USDW_VALUE": null, "MAX_SIP": null, "SIP_ASSIGNED_DATE": null, "SOURCE_OF_SIP_VALUE": null, "INJECTION_RATE": "0.0", "COMMENTS": null, "LOCATION": "1030' FSL & 2380' FEL OF SEC 24-T14N-R14W.  PBHL: 100' FNL & 2000' FEL OF SEC 13-T14N-R14W.", "section": "024", "MERIDIAN": "W", "range": "14W", "PARISH_CODE": "16", "lat": "32.183035697", "lon": "-93.754662636", "depth": "26500.0", "LEGEND": "-1", "DISTRICT_CODE": null, "INSPECTION_DATE": null, "INSPECTION_YEAR_INDEX": null, "SECTION": "24", "INJECTION_VOLUME": null, "LOG_REVIEWED_FLAG": null, "ORPHAN_STATUS_CODE": null, "ORPHAN_STATUS_DATE": null, "field": "HOLLY", "operator": "EXCO OPERATING COMPANY, LP", "parish": "DE SOTO", "SCOUT_WELL_STATUS_CODE": "1", "SCOUT_REPORT_DATE": "2026-07-29 05:00:00", "SCOUT_MEASURED_DEPTH": "26500.0", "SCOUT_TRUE_VERTICAL_DEPTH": null, "LUW_CODE": null, "LUW_TYPE_CODE": null, "LUW_NAME": null, "LW_REC_STATUS": null, "SURFACE_LAMBERT_X": "1611898.0", "SURFACE_LAMBERT_Y": "553760.0", "SURFACE_COORD_SYSTEM_CODE": "1", "SURFACE_ZONE": "N", "SURFACE_UTM83_X": "428859.153528218", "SURFACE_UTM83_Y": "3560973.66218882", "UPPER_PERFS": null, "LOWER_PERFS": null, "SANDS": null, "RESERVOIRS": null, "FORMATIONS": null, "HYPERLINK": "https://sonlite.dnr.state.la.us/ords/apex/r/sonris_pub/sonris_data_portal/well-profile?clear=CR,9000&ig[ig_master]_well_serial_num=255796", "GIS_UPD_DATE": "2026-07-31 09:05:28", "status_desc": "PERMITTED", "dirwell": null, "SCOUT_DETAIL": "1030' FSL & 2380' FEL OF SEC 24-T14N-R14W.  PBHL: 100' FNL & 2000' FEL OF SEC 13-T14N-R14W.", "MINERAL_INTEREST_FLAG": null, "STATE_INTEREST_FLAG": null, "DOC_ACCESS": "https://sonlite.dnr.state.la.us/ords/r/sonris/ucmsearch/finddocuments?qtype=eq&idx=xwellserialnumber&val=255796", "STATE_ZONE": "BAD", "COASTAL_PERMIT_NUM": null, "SE_ANNO_CAD_DATA": null, "TRUE_VERTICAL_DEPTH": "13000.0", "first_seen": "True"}}, {"type": "Feature", "geometry": {"type": "Point", "coordinates": [-93.754663997, 32.18289823]}, "properties": {"OBJECTID": "241210", "id": "255797", "ORGANIZATION_ID": "E183", "ORGOP_LINE_ID": "1", "WELL_CLASS_TYPE_CODE": null, "well": "HA RA SUB;FULLER 24-13 HC", "well_num": "002-ALT", "township": "14N", "EFFECTIVE_DATE": "2026-07-29 05:00:00", "api": "17031276270000", "OPERATION_TYPE_CODE": "1", "issue_date": "2026-07-29 05:00:00", "spud": null, "status": "1", "WELL_STATUS_DATE": "2026-07-29 05:00:00", "ORIGINAL_COMPLETION_DATE": null, "LAST_RECOMPLETION_DATE": null, "LAST_TEST_DATE": null, "ORPHANED_FLAG": null, "PRODUCT_TYPE_CODE": "0", "CLASSIFICATION": null, "UNIT_WELL_FLAG": null, "EXEMPT_29E_FLAG": null, "FIELD_ID": "4541", "LEASE_NUM": null, "MUD_DENSITY": "0.0", "USDW_VALUE": null, "AREA_USDW_VALUE": "0.0", "SOURCE_AREA_USDW_VALUE": null, "MAX_SIP": null, "SIP_ASSIGNED_DATE": null, "SOURCE_OF_SIP_VALUE": null, "INJECTION_RATE": "0.0", "COMMENTS": null, "LOCATION": "980' FSL & 2381' FEL OF SEC 24-T14N-R14W. PBHL: 100' FNL & 670' FEL OF SEC 13-T14N-R14W.", "section": "024", "MERIDIAN": "W", "range": "14W", "PARISH_CODE": "16", "lat": "32.18289823", "lon": "-93.754663997", "depth": "26500.0", "LEGEND": "-1", "DISTRICT_CODE": null, "INSPECTION_DATE": null, "INSPECTION_YEAR_INDEX": null, "SECTION": "24", "INJECTION_VOLUME": null, "LOG_REVIEWED_FLAG": null, "ORPHAN_STATUS_CODE": null, "ORPHAN_STATUS_DATE": null, "field": "HOLLY", "operator": "EXCO OPERATING COMPANY, LP", "parish": "DE SOTO", "SCOUT_WELL_STATUS_CODE": "1", "SCOUT_REPORT_DATE": "2026-07-29 05:00:00", "SCOUT_MEASURED_DEPTH": "26500.0", "SCOUT_TRUE_VERTICAL_DEPTH": null, "LUW_CODE": null, "LUW_TYPE_CODE": null, "LUW_NAME": null, "LW_REC_STATUS": null, "SURFACE_LAMBERT_X": "1611897.0", "SURFACE_LAMBERT_Y": "553710.0", "SURFACE_COORD_SYSTEM_CODE": "1", "SURFACE_ZONE": "N", "SURFACE_UTM83_X": "428858.9183132231", "SURFACE_UTM83_Y": "3560958.42484192", "UPPER_PERFS": null, "LOWER_PERFS": null, "SANDS": null, "RESERVOIRS": null, "FORMATIONS": null, "HYPERLINK": "https://sonlite.dnr.state.la.us/ords/apex/r/sonris_pub/sonris_data_portal/well-profile?clear=CR,9000&ig[ig_master]_well_serial_num=255797", "GIS_UPD_DATE": "2026-07-31 09:05:28", "status_desc": "PERMITTED", "dirwell": null, "SCOUT_DETAIL": "980' FSL & 2381' FEL OF SEC 24-T14N-R14W. PBHL: 100' FNL & 670' FEL OF SEC 13-T14N-R14W.", "MINERAL_INTEREST_FLAG": null, "STATE_INTEREST_FLAG": null, "DOC_ACCESS": "https://sonlite.dnr.state.la.us/ords/r/sonris/ucmsearch/finddocuments?qtype=eq&idx=xwellserialnumber&val=255797", "STATE_ZONE": "BAD", "COASTAL_PERMIT_NUM": null, "SE_ANNO_CAD_DATA": null, "TRUE_VERTICAL_DEPTH": "13000.0", "first_seen": "True"}}, {"type": "Feature", "geometry": {"type": "Point", "coordinates": [-93.760348236, 32.184656528]}, "properties": {"OBJECTID": "241211", "id": "255798", "ORGANIZATION_ID": "E183", "ORGOP_LINE_ID": "1", "WELL_CLASS_TYPE_CODE": null, "well": "HA RA SUB;MAIER 24-13 HC", "well_num": "001-ALT", "township": "14N", "EFFECTIVE_DATE": "2026-07-29 05:00:00", "api": "17031276280000", "OPERATION_TYPE_CODE": "1", "issue_date": "2026-07-29 05:00:00", "spud": null, "status": "1", "WELL_STATUS_DATE": "2026-07-29 05:00:00", "ORIGINAL_COMPLETION_DATE": null, "LAST_RECOMPLETION_DATE": null, "LAST_TEST_DATE": null, "ORPHANED_FLAG": null, "PRODUCT_TYPE_CODE": "0", "CLASSIFICATION": null, "UNIT_WELL_FLAG": null, "EXEMPT_29E_FLAG": null, "FIELD_ID": "4541", "LEASE_NUM": null, "MUD_DENSITY": "0.0", "USDW_VALUE": null, "AREA_USDW_VALUE": "0.0", "SOURCE_AREA_USDW_VALUE": null, "MAX_SIP": null, "SIP_ASSIGNED_DATE": null, "SOURCE_OF_SIP_VALUE": null, "INJECTION_RATE": "0.0", "COMMENTS": null, "LOCATION": "1606' FSL & 1191' FWL OF SEC 24-T14N-R14W.  PBHL: 100' FNL & 700' FWL OF SEC 13-T14N-R14W.", "section": "024", "MERIDIAN": "W", "range": "14W", "PARISH_CODE": "16", "lat": "32.184656528", "lon": "-93.760348236", "depth": "2650.0", "LEGEND": "-1", "DISTRICT_CODE": null, "INSPECTION_DATE": null, "INSPECTION_YEAR_INDEX": null, "SECTION": "24", "INJECTION_VOLUME": null, "LOG_REVIEWED_FLAG": null, "ORPHAN_STATUS_CODE": null, "ORPHAN_STATUS_DATE": null, "field": "HOLLY", "operator": "EXCO OPERATING COMPANY, LP", "parish": "DE SOTO", "SCOUT_WELL_STATUS_CODE": "1", "SCOUT_REPORT_DATE": "2026-07-29 05:00:00", "SCOUT_MEASURED_DEPTH": "2650.0", "SCOUT_TRUE_VERTICAL_DEPTH": null, "LUW_CODE": null, "LUW_TYPE_CODE": null, "LUW_NAME": null, "LW_REC_STATUS": null, "SURFACE_LAMBERT_X": "1610146.0", "SURFACE_LAMBERT_Y": "554370.0", "SURFACE_COORD_SYSTEM_CODE": "1", "SURFACE_ZONE": "N", "SURFACE_UTM83_X": "428324.437520708", "SURFACE_UTM83_Y": "3561157.10570811", "UPPER_PERFS": null, "LOWER_PERFS": null, "SANDS": null, "RESERVOIRS": null, "FORMATIONS": null, "HYPERLINK": "https://sonlite.dnr.state.la.us/ords/apex/r/sonris_pub/sonris_data_portal/well-profile?clear=CR,9000&ig[ig_master]_well_serial_num=255798", "GIS_UPD_DATE": "2026-07-31 09:05:28", "status_desc": "PERMITTED", "dirwell": null, "SCOUT_DETAIL": "1606' FSL & 1191' FWL OF SEC 24-T14N-R14W.  PBHL: 100' FNL & 700' FWL OF SEC 13-T14N-R14W.", "MINERAL_INTEREST_FLAG": null, "STATE_INTEREST_FLAG": null, "DOC_ACCESS": "https://sonlite.dnr.state.la.us/ords/r/sonris/ucmsearch/finddocuments?qtype=eq&idx=xwellserialnumber&val=255798", "STATE_ZONE": "BAD", "COASTAL_PERMIT_NUM": null, "SE_ANNO_CAD_DATA": null, "TRUE_VERTICAL_DEPTH": "13000.0", "first_seen": "True"}}, {"type": "Feature", "geometry": {"type": "Point", "coordinates": [-93.760294716, 32.184525101]}, "properties": {"OBJECTID": "241212", "id": "255799", "ORGANIZATION_ID": "E183", "ORGOP_LINE_ID": "1", "WELL_CLASS_TYPE_CODE": null, "well": "HA RA SUB;MAIER 24-13 HC", "well_num": "002-ALT", "township": "14N", "EFFECTIVE_DATE": "2026-07-29 05:00:00", "api": "17031276290000", "OPERATION_TYPE_CODE": "1", "issue_date": "2026-07-29 05:00:00", "spud": null, "status": "1", "WELL_STATUS_DATE": "2026-07-29 05:00:00", "ORIGINAL_COMPLETION_DATE": null, "LAST_RECOMPLETION_DATE": null, "LAST_TEST_DATE": null, "ORPHANED_FLAG": null, "PRODUCT_TYPE_CODE": "0", "CLASSIFICATION": null, "UNIT_WELL_FLAG": null, "EXEMPT_29E_FLAG": null, "FIELD_ID": "4541", "LEASE_NUM": null, "MUD_DENSITY": "0.0", "USDW_VALUE": null, "AREA_USDW_VALUE": "0.0", "SOURCE_AREA_USDW_VALUE": null, "MAX_SIP": null, "SIP_ASSIGNED_DATE": null, "SOURCE_OF_SIP_VALUE": null, "INJECTION_RATE": "0.0", "COMMENTS": null, "LOCATION": "1559' FSL & 1208' FWL OF SEC 24-T14N-R14W.  PBHL: 100' FNL & 1970' FWL OF SEC 13-T14N-R14W.", "section": "024", "MERIDIAN": "W", "range": "14W", "PARISH_CODE": "16", "lat": "32.184525101", "lon": "-93.760294716", "depth": "26500.0", "LEGEND": "-1", "DISTRICT_CODE": null, "INSPECTION_DATE": null, "INSPECTION_YEAR_INDEX": null, "SECTION": "24", "INJECTION_VOLUME": null, "LOG_REVIEWED_FLAG": null, "ORPHAN_STATUS_CODE": null, "ORPHAN_STATUS_DATE": null, "field": "HOLLY", "operator": "EXCO OPERATING COMPANY, LP", "parish": "DE SOTO", "SCOUT_WELL_STATUS_CODE": "1", "SCOUT_REPORT_DATE": "2026-07-29 05:00:00", "SCOUT_MEASURED_DEPTH": "26500.0", "SCOUT_TRUE_VERTICAL_DEPTH": null, "LUW_CODE": null, "LUW_TYPE_CODE": null, "LUW_NAME": null, "LW_REC_STATUS": null, "SURFACE_LAMBERT_X": "1610162.0", "SURFACE_LAMBERT_Y": "554322.0", "SURFACE_COORD_SYSTEM_CODE": "1", "SURFACE_ZONE": "N", "SURFACE_UTM83_X": "428329.379744295", "SURFACE_UTM83_Y": "3561142.50141558", "UPPER_PERFS": null, "LOWER_PERFS": null, "SANDS": null, "RESERVOIRS": null, "FORMATIONS": null, "HYPERLINK": "https://sonlite.dnr.state.la.us/ords/apex/r/sonris_pub/sonris_data_portal/well-profile?clear=CR,9000&ig[ig_master]_well_serial_num=255799", "GIS_UPD_DATE": "2026-07-31 09:05:28", "status_desc": "PERMITTED", "dirwell": null, "SCOUT_DETAIL": "1559' FSL & 1208' FWL OF SEC 24-T14N-R14W.  PBHL: 100' FNL & 1970' FWL OF SEC 13-T14N-R14W.", "MINERAL_INTEREST_FLAG": null, "STATE_INTEREST_FLAG": null, "DOC_ACCESS": "https://sonlite.dnr.state.la.us/ords/r/sonris/ucmsearch/finddocuments?qtype=eq&idx=xwellserialnumber&val=255799", "STATE_ZONE": "BAD", "COASTAL_PERMIT_NUM": null, "SE_ANNO_CAD_DATA": null, "TRUE_VERTICAL_DEPTH": "13000.0", "first_seen": "True"}}]}