{"type": "FeatureCollection", "features": [{"type": "Feature", "geometry": {"type": "Point", "coordinates": [-89.782965781, 29.380719762]}, "properties": {"OBJECTID": "231203", "id": "255850", "ORGANIZATION_ID": "H032", "ORGOP_LINE_ID": "1", "WELL_CLASS_TYPE_CODE": null, "well": "COCKRELL MORAN", "well_num": "430", "township": "20S", "EFFECTIVE_DATE": "2026-09-28 05:00:00", "api": "17075246190000", "OPERATION_TYPE_CODE": "1", "issue_date": "2026-09-28 05:00:00", "spud": null, "status": "1", "WELL_STATUS_DATE": "2026-09-28 05:00:00", "ORIGINAL_COMPLETION_DATE": null, "LAST_RECOMPLETION_DATE": null, "LAST_TEST_DATE": null, "ORPHANED_FLAG": null, "PRODUCT_TYPE_CODE": "0", "CLASSIFICATION": null, "UNIT_WELL_FLAG": null, "EXEMPT_29E_FLAG": null, "FIELD_ID": "5759", "LEASE_NUM": null, "MUD_DENSITY": "0.0", "USDW_VALUE": null, "AREA_USDW_VALUE": "0.0", "SOURCE_AREA_USDW_VALUE": null, "MAX_SIP": null, "SIP_ASSIGNED_DATE": null, "SOURCE_OF_SIP_VALUE": null, "INJECTION_RATE": "0.0", "COMMENTS": null, "LOCATION": "PSL WITHIN SEC 13,T20S-R26E, S 21D 40'52\" W A DISTANCE OF 7,733' FROM NGS MON.\"RATTLESNAKE\" PBHL BNG S27D33'35\"E 1,197' FROM PSHL WITHIN SEC 13,T20S-R26E.", "section": "013", "MERIDIAN": "E", "range": "26E", "PARISH_CODE": "38", "lat": "29.380719762", "lon": "-89.782965781", "depth": "5488.0", "LEGEND": "-1", "DISTRICT_CODE": null, "INSPECTION_DATE": null, "INSPECTION_YEAR_INDEX": null, "SECTION": "13", "INJECTION_VOLUME": null, "LOG_REVIEWED_FLAG": null, "ORPHAN_STATUS_CODE": null, "ORPHAN_STATUS_DATE": null, "field": "LAKE WASHINGTON", "operator": "HILCORP ENERGY COMPANY", "parish": "PLAQUEMINES", "SCOUT_WELL_STATUS_CODE": "1", "SCOUT_REPORT_DATE": "2026-09-28 05:00:00", "SCOUT_MEASURED_DEPTH": "5488.0", "SCOUT_TRUE_VERTICAL_DEPTH": null, "LUW_CODE": null, "LUW_TYPE_CODE": null, "LUW_NAME": null, "LW_REC_STATUS": null, "SURFACE_LAMBERT_X": "2493808.0", "SURFACE_LAMBERT_Y": "262911.0", "SURFACE_COORD_SYSTEM_CODE": "1", "SURFACE_ZONE": "S", "SURFACE_UTM83_X": "812269.509050007", "SURFACE_UTM83_Y": "3254471.18156381", "UPPER_PERFS": null, "LOWER_PERFS": null, "SANDS": null, "RESERVOIRS": null, "FORMATIONS": null, "HYPERLINK": "https://sonlite.dnr.state.la.us/ords/apex/r/sonris_pub/sonris_data_portal/well-profile?clear=CR,9000&ig[ig_master]_well_serial_num=255850", "GIS_UPD_DATE": "2026-09-29 09:05:17", "status_desc": "PERMITTED", "dirwell": null, "SCOUT_DETAIL": "PSL WITHIN SEC 13,T20S-R26E, S 21D 40'52\" W A DISTANCE OF 7,733' FROM NGS MON.\"RATTLESNAKE\" PBHL BNG S27D33'35\"E 1,197' FROM PSHL WITHIN SEC 13,T20S-R26E.", "MINERAL_INTEREST_FLAG": null, "STATE_INTEREST_FLAG": null, "DOC_ACCESS": "https://sonlite.dnr.state.la.us/ords/r/sonris/ucmsearch/finddocuments?qtype=eq&idx=xwellserialnumber&val=255850", "STATE_ZONE": "SOUTH", "COASTAL_PERMIT_NUM": null, "SE_ANNO_CAD_DATA": null, "TRUE_VERTICAL_DEPTH": "5020.0", "first_seen": "False"}}, {"type": "Feature", "geometry": {"type": "Point", "coordinates": [-93.453061707, 31.740857233]}, "properties": {"OBJECTID": "231299", "id": "255851", "ORGANIZATION_ID": "E1152", "ORGOP_LINE_ID": "1", "WELL_CLASS_TYPE_CODE": null, "well": "HA RA SUW;LMIN 24&25&36&35LHC", "well_num": "001-ALT", "township": "09N", "EFFECTIVE_DATE": "2026-09-28 05:00:00", "api": "17085227310000", "OPERATION_TYPE_CODE": "1", "issue_date": "2026-09-28 05:00:00", "spud": null, "status": "1", "WELL_STATUS_DATE": "2026-09-28 05:00:00", "ORIGINAL_COMPLETION_DATE": null, "LAST_RECOMPLETION_DATE": null, "LAST_TEST_DATE": null, "ORPHANED_FLAG": null, "PRODUCT_TYPE_CODE": "0", "CLASSIFICATION": null, "UNIT_WELL_FLAG": null, "EXEMPT_29E_FLAG": null, "FIELD_ID": "7870", "LEASE_NUM": null, "MUD_DENSITY": "0.0", "USDW_VALUE": null, "AREA_USDW_VALUE": "0.0", "SOURCE_AREA_USDW_VALUE": null, "MAX_SIP": null, "SIP_ASSIGNED_DATE": null, "SOURCE_OF_SIP_VALUE": null, "INJECTION_RATE": "0.0", "COMMENTS": null, "LOCATION": "SL: 901' FNL & 1645' FWL OF SEC 25, T9N-11W. PBHL: 100' FSL & 752' OF SEC 35, T19-R11W.", "section": "025", "MERIDIAN": "W", "range": "11W", "PARISH_CODE": "43", "lat": "31.740857233", "lon": "-93.453061707", "depth": "35000.0", "LEGEND": "-1", "DISTRICT_CODE": null, "INSPECTION_DATE": null, "INSPECTION_YEAR_INDEX": null, "SECTION": "25", "INJECTION_VOLUME": null, "LOG_REVIEWED_FLAG": null, "ORPHAN_STATUS_CODE": null, "ORPHAN_STATUS_DATE": null, "field": "SAN MIGUEL CREEK", "operator": "EXPAND OPERATING LLC", "parish": "SABINE", "SCOUT_WELL_STATUS_CODE": "1", "SCOUT_REPORT_DATE": "2026-09-28 05:00:00", "SCOUT_MEASURED_DEPTH": "35000.0", "SCOUT_TRUE_VERTICAL_DEPTH": null, "LUW_CODE": null, "LUW_TYPE_CODE": null, "LUW_NAME": null, "LW_REC_STATUS": null, "SURFACE_LAMBERT_X": "1703786.0", "SURFACE_LAMBERT_Y": "391966.0", "SURFACE_COORD_SYSTEM_CODE": "1", "SURFACE_ZONE": "N", "SURFACE_UTM83_X": "457085.775516034", "SURFACE_UTM83_Y": "3511801.5204502", "UPPER_PERFS": null, "LOWER_PERFS": null, "SANDS": null, "RESERVOIRS": null, "FORMATIONS": null, "HYPERLINK": "https://sonlite.dnr.state.la.us/ords/apex/r/sonris_pub/sonris_data_portal/well-profile?clear=CR,9000&ig[ig_master]_well_serial_num=255851", "GIS_UPD_DATE": "2026-09-29 09:05:17", "status_desc": "PERMITTED", "dirwell": null, "SCOUT_DETAIL": "SL: 901' FNL & 1645' FWL OF SEC 25, T9N-11W. PBHL: 100' FSL & 752' OF SEC 35, T19-R11W.", "MINERAL_INTEREST_FLAG": null, "STATE_INTEREST_FLAG": null, "DOC_ACCESS": "https://sonlite.dnr.state.la.us/ords/r/sonris/ucmsearch/finddocuments?qtype=eq&idx=xwellserialnumber&val=255851", "STATE_ZONE": "BAD", "COASTAL_PERMIT_NUM": null, "SE_ANNO_CAD_DATA": null, "TRUE_VERTICAL_DEPTH": "14000.0", "first_seen": "False"}}, {"type": "Feature", "geometry": {"type": "Point", "coordinates": [-93.453042944, 31.740909609]}, "properties": {"OBJECTID": "231300", "id": "255852", "ORGANIZATION_ID": "E1152", "ORGOP_LINE_ID": "1", "WELL_CLASS_TYPE_CODE": null, "well": "HA RA SUSS;LMIN 25&36-9-11 HC", "well_num": "003-ALT", "township": "09N", "EFFECTIVE_DATE": "2026-09-28 05:00:00", "api": "17085227320000", "OPERATION_TYPE_CODE": "1", "issue_date": "2026-09-28 05:00:00", "spud": null, "status": "1", "WELL_STATUS_DATE": "2026-09-28 05:00:00", "ORIGINAL_COMPLETION_DATE": null, "LAST_RECOMPLETION_DATE": null, "LAST_TEST_DATE": null, "ORPHANED_FLAG": null, "PRODUCT_TYPE_CODE": "0", "CLASSIFICATION": null, "UNIT_WELL_FLAG": null, "EXEMPT_29E_FLAG": null, "FIELD_ID": "7870", "LEASE_NUM": null, "MUD_DENSITY": "0.0", "USDW_VALUE": null, "AREA_USDW_VALUE": "0.0", "SOURCE_AREA_USDW_VALUE": null, "MAX_SIP": null, "SIP_ASSIGNED_DATE": null, "SOURCE_OF_SIP_VALUE": null, "INJECTION_RATE": "0.0", "COMMENTS": null, "LOCATION": "SL: 882' FNL & 1651' FWL OF SEC 25, T9N-11W. PBHL: 100' FSL & 707' FWL OF SEC 36, T19N-R11W.", "section": "025", "MERIDIAN": "W", "range": "11W", "PARISH_CODE": "43", "lat": "31.740909609", "lon": "-93.453042944", "depth": "35000.0", "LEGEND": "-1", "DISTRICT_CODE": null, "INSPECTION_DATE": null, "INSPECTION_YEAR_INDEX": null, "SECTION": "25", "INJECTION_VOLUME": null, "LOG_REVIEWED_FLAG": null, "ORPHAN_STATUS_CODE": null, "ORPHAN_STATUS_DATE": null, "field": "SAN MIGUEL CREEK", "operator": "EXPAND OPERATING LLC", "parish": "SABINE", "SCOUT_WELL_STATUS_CODE": "1", "SCOUT_REPORT_DATE": "2026-09-28 05:00:00", "SCOUT_MEASURED_DEPTH": "35000.0", "SCOUT_TRUE_VERTICAL_DEPTH": null, "LUW_CODE": null, "LUW_TYPE_CODE": null, "LUW_NAME": null, "LW_REC_STATUS": null, "SURFACE_LAMBERT_X": "1703792.0", "SURFACE_LAMBERT_Y": "391985.0", "SURFACE_COORD_SYSTEM_CODE": "1", "SURFACE_ZONE": "N", "SURFACE_UTM83_X": "457087.576937309", "SURFACE_UTM83_Y": "3511807.31838939", "UPPER_PERFS": null, "LOWER_PERFS": null, "SANDS": null, "RESERVOIRS": null, "FORMATIONS": null, "HYPERLINK": "https://sonlite.dnr.state.la.us/ords/apex/r/sonris_pub/sonris_data_portal/well-profile?clear=CR,9000&ig[ig_master]_well_serial_num=255852", "GIS_UPD_DATE": "2026-09-29 09:05:17", "status_desc": "PERMITTED", "dirwell": null, "SCOUT_DETAIL": "SL: 882' FNL & 1651' FWL OF SEC 25, T9N-11W. PBHL: 100' FSL & 707' FWL OF SEC 36, T19N-R11W.", "MINERAL_INTEREST_FLAG": null, "STATE_INTEREST_FLAG": null, "DOC_ACCESS": "https://sonlite.dnr.state.la.us/ords/r/sonris/ucmsearch/finddocuments?qtype=eq&idx=xwellserialnumber&val=255852", "STATE_ZONE": "BAD", "COASTAL_PERMIT_NUM": null, "SE_ANNO_CAD_DATA": null, "TRUE_VERTICAL_DEPTH": "14000.0", "first_seen": "False"}}, {"type": "Feature", "geometry": {"type": "Point", "coordinates": [-93.76967162, 31.780171204]}, "properties": {"OBJECTID": "231499", "id": "255853", "ORGANIZATION_ID": "C332", "ORGOP_LINE_ID": "1", "WELL_CLASS_TYPE_CODE": null, "well": "HA RA SUPP;ARRINGTON 11-14 HC", "well_num": "3-ALT", "township": "09N", "EFFECTIVE_DATE": "2026-09-28 05:00:00", "api": "17085227330000", "OPERATION_TYPE_CODE": "1", "issue_date": "2026-09-28 05:00:00", "spud": null, "status": "1", "WELL_STATUS_DATE": "2026-09-28 05:00:00", "ORIGINAL_COMPLETION_DATE": null, "LAST_RECOMPLETION_DATE": null, "LAST_TEST_DATE": null, "ORPHANED_FLAG": null, "PRODUCT_TYPE_CODE": "0", "CLASSIFICATION": null, "UNIT_WELL_FLAG": null, "EXEMPT_29E_FLAG": null, "FIELD_ID": "2872", "LEASE_NUM": null, "MUD_DENSITY": "0.0", "USDW_VALUE": null, "AREA_USDW_VALUE": "0.0", "SOURCE_AREA_USDW_VALUE": null, "MAX_SIP": null, "SIP_ASSIGNED_DATE": null, "SOURCE_OF_SIP_VALUE": null, "INJECTION_RATE": "0.0", "COMMENTS": null, "LOCATION": "SL: 2539' FNL & 1626' FEL SEC 11, T09N-R14W. PBHL: 100' FSL & 400' FEL SEC 14, T09N-R14W.", "section": "011", "MERIDIAN": "W", "range": "14W", "PARISH_CODE": "43", "lat": "31.780171204", "lon": "-93.76967162", "depth": "22000.0", "LEGEND": "-1", "DISTRICT_CODE": null, "INSPECTION_DATE": null, "INSPECTION_YEAR_INDEX": null, "SECTION": "11", "INJECTION_VOLUME": null, "LOG_REVIEWED_FLAG": null, "ORPHAN_STATUS_CODE": null, "ORPHAN_STATUS_DATE": null, "field": "CONVERSE", "operator": "COMSTOCK OIL & GAS--LA, LLC", "parish": "SABINE", "SCOUT_WELL_STATUS_CODE": "1", "SCOUT_REPORT_DATE": "2026-09-28 05:00:00", "SCOUT_MEASURED_DEPTH": "22000.0", "SCOUT_TRUE_VERTICAL_DEPTH": null, "LUW_CODE": null, "LUW_TYPE_CODE": null, "LUW_NAME": null, "LW_REC_STATUS": null, "SURFACE_LAMBERT_X": "1605538.0", "SURFACE_LAMBERT_Y": "407275.0", "SURFACE_COORD_SYSTEM_CODE": "1", "SURFACE_ZONE": "N", "SURFACE_UTM83_X": "427126.500706307", "SURFACE_UTM83_Y": "3516327.54460304", "UPPER_PERFS": null, "LOWER_PERFS": null, "SANDS": null, "RESERVOIRS": null, "FORMATIONS": null, "HYPERLINK": "https://sonlite.dnr.state.la.us/ords/apex/r/sonris_pub/sonris_data_portal/well-profile?clear=CR,9000&ig[ig_master]_well_serial_num=255853", "GIS_UPD_DATE": "2026-09-29 09:05:17", "status_desc": "PERMITTED", "dirwell": null, "SCOUT_DETAIL": "SL: 2539' FNL & 1626' FEL SEC 11, T09N-R14W. PBHL: 100' FSL & 400' FEL SEC 14, T09N-R14W.", "MINERAL_INTEREST_FLAG": null, "STATE_INTEREST_FLAG": null, "DOC_ACCESS": "https://sonlite.dnr.state.la.us/ords/r/sonris/ucmsearch/finddocuments?qtype=eq&idx=xwellserialnumber&val=255853", "STATE_ZONE": "BAD", "COASTAL_PERMIT_NUM": null, "SE_ANNO_CAD_DATA": null, "TRUE_VERTICAL_DEPTH": "13000.0", "first_seen": "False"}}, {"type": "Feature", "geometry": {"type": "Point", "coordinates": [-93.769610213, 31.780152574]}, "properties": {"OBJECTID": "231500", "id": "255854", "ORGANIZATION_ID": "C332", "ORGOP_LINE_ID": "1", "WELL_CLASS_TYPE_CODE": null, "well": "HA RA SUPP;ARRINGTON 11-2-35HC", "well_num": "1-ALT", "township": "09N", "EFFECTIVE_DATE": "2026-09-28 05:00:00", "api": "17085227340000", "OPERATION_TYPE_CODE": "1", "issue_date": "2026-09-28 05:00:00", "spud": null, "status": "1", "WELL_STATUS_DATE": "2026-09-28 05:00:00", "ORIGINAL_COMPLETION_DATE": null, "LAST_RECOMPLETION_DATE": null, "LAST_TEST_DATE": null, "ORPHANED_FLAG": null, "PRODUCT_TYPE_CODE": "0", "CLASSIFICATION": null, "UNIT_WELL_FLAG": null, "EXEMPT_29E_FLAG": null, "FIELD_ID": "2872", "LEASE_NUM": null, "MUD_DENSITY": "0.0", "USDW_VALUE": null, "AREA_USDW_VALUE": "0.0", "SOURCE_AREA_USDW_VALUE": null, "MAX_SIP": null, "SIP_ASSIGNED_DATE": null, "SOURCE_OF_SIP_VALUE": null, "INJECTION_RATE": "0.0", "COMMENTS": null, "LOCATION": "SL: 2545' FNL & 1607' FEL SEC 11, T09N-R14W. PBHL: 100' FNL & 450' FEL SEC 35, T10N-R14W.", "section": "011", "MERIDIAN": "W", "range": "14W", "PARISH_CODE": "43", "lat": "31.780152574", "lon": "-93.769610213", "depth": "27000.0", "LEGEND": "-1", "DISTRICT_CODE": null, "INSPECTION_DATE": null, "INSPECTION_YEAR_INDEX": null, "SECTION": "11", "INJECTION_VOLUME": null, "LOG_REVIEWED_FLAG": null, "ORPHAN_STATUS_CODE": null, "ORPHAN_STATUS_DATE": null, "field": "CONVERSE", "operator": "COMSTOCK OIL & GAS--LA, LLC", "parish": "SABINE", "SCOUT_WELL_STATUS_CODE": "1", "SCOUT_REPORT_DATE": "2026-09-28 05:00:00", "SCOUT_MEASURED_DEPTH": null, "SCOUT_TRUE_VERTICAL_DEPTH": null, "LUW_CODE": null, "LUW_TYPE_CODE": null, "LUW_NAME": null, "LW_REC_STATUS": null, "SURFACE_LAMBERT_X": "1605557.0", "SURFACE_LAMBERT_Y": "407268.0", "SURFACE_COORD_SYSTEM_CODE": "1", "SURFACE_ZONE": "N", "SURFACE_UTM83_X": "427132.300329937", "SURFACE_UTM83_Y": "3516325.43841611", "UPPER_PERFS": null, "LOWER_PERFS": null, "SANDS": null, "RESERVOIRS": null, "FORMATIONS": null, "HYPERLINK": "https://sonlite.dnr.state.la.us/ords/apex/r/sonris_pub/sonris_data_portal/well-profile?clear=CR,9000&ig[ig_master]_well_serial_num=255854", "GIS_UPD_DATE": "2026-09-29 09:05:17", "status_desc": "PERMITTED", "dirwell": null, "SCOUT_DETAIL": "SL: 2545' FNL & 1607' FEL SEC 11, T09N-R14W. PBHL: 100' FNL & 450' FEL SEC 35, T10N-R14W.", "MINERAL_INTEREST_FLAG": null, "STATE_INTEREST_FLAG": null, "DOC_ACCESS": "https://sonlite.dnr.state.la.us/ords/r/sonris/ucmsearch/finddocuments?qtype=eq&idx=xwellserialnumber&val=255854", "STATE_ZONE": "BAD", "COASTAL_PERMIT_NUM": null, "SE_ANNO_CAD_DATA": null, "TRUE_VERTICAL_DEPTH": "13000.0", "first_seen": "False"}}]}