{"type": "FeatureCollection", "features": [{"type": "Feature", "geometry": {"type": "Point", "coordinates": [-91.488497144, 32.454003471]}, "properties": {"OBJECTID": "244886", "id": "255821", "ORGANIZATION_ID": "D188", "ORGOP_LINE_ID": "1", "WELL_CLASS_TYPE_CODE": null, "well": "DELHI HOLT BRYANT SU; DELHI HT", "well_num": "042-1", "township": "17N", "EFFECTIVE_DATE": "2026-08-19 05:00:00", "api": "17083000670000", "OPERATION_TYPE_CODE": "1", "issue_date": "2026-08-19 05:00:00", "spud": null, "status": "1", "WELL_STATUS_DATE": "2026-08-19 05:00:00", "ORIGINAL_COMPLETION_DATE": null, "LAST_RECOMPLETION_DATE": null, "LAST_TEST_DATE": null, "ORPHANED_FLAG": null, "PRODUCT_TYPE_CODE": "0", "CLASSIFICATION": null, "UNIT_WELL_FLAG": null, "EXEMPT_29E_FLAG": null, "FIELD_ID": "3294", "LEASE_NUM": null, "MUD_DENSITY": "0.0", "USDW_VALUE": null, "AREA_USDW_VALUE": "0.0", "SOURCE_AREA_USDW_VALUE": null, "MAX_SIP": null, "SIP_ASSIGNED_DATE": null, "SOURCE_OF_SIP_VALUE": null, "INJECTION_RATE": "0.0", "COMMENTS": null, "LOCATION": "1538' FNL AND 1191' EAST OF SW CORNER OF S018-T17N-10W. REDRILL OF SN 037627. PNA EXPIRED.", "section": "018", "MERIDIAN": "W", "range": "10E", "PARISH_CODE": "42", "lat": "32.454003471", "lon": "-91.488497144", "depth": "3340.0", "LEGEND": "1", "DISTRICT_CODE": null, "INSPECTION_DATE": null, "INSPECTION_YEAR_INDEX": null, "SECTION": "18", "INJECTION_VOLUME": null, "LOG_REVIEWED_FLAG": null, "ORPHAN_STATUS_CODE": null, "ORPHAN_STATUS_DATE": null, "field": "DELHI", "operator": "DENBURY ONSHORE, LLC", "parish": "RICHLAND", "SCOUT_WELL_STATUS_CODE": "1", "SCOUT_REPORT_DATE": "2026-08-19 05:00:00", "SCOUT_MEASURED_DEPTH": "3340.0", "SCOUT_TRUE_VERTICAL_DEPTH": null, "LUW_CODE": null, "LUW_TYPE_CODE": null, "LUW_NAME": null, "LW_REC_STATUS": null, "SURFACE_LAMBERT_X": "2312057.0", "SURFACE_LAMBERT_Y": "651546.0", "SURFACE_COORD_SYSTEM_CODE": "1", "SURFACE_ZONE": "N", "SURFACE_UTM83_X": "642068.5924372249", "SURFACE_UTM83_Y": "3591766.09794918", "UPPER_PERFS": null, "LOWER_PERFS": null, "SANDS": null, "RESERVOIRS": null, "FORMATIONS": null, "HYPERLINK": "https://sonlite.dnr.state.la.us/ords/apex/r/sonris_pub/sonris_data_portal/well-profile?clear=CR,9000&ig[ig_master]_well_serial_num=255821", "GIS_UPD_DATE": "2026-08-20 09:05:17", "status_desc": "PERMITTED", "dirwell": null, "SCOUT_DETAIL": "1538' FNL AND 1191' EAST OF SW CORNER OF S018-T17N-10W. REDRILL OF SN 037627. PNA EXPIRED.", "MINERAL_INTEREST_FLAG": null, "STATE_INTEREST_FLAG": null, "DOC_ACCESS": "https://sonlite.dnr.state.la.us/ords/r/sonris/ucmsearch/finddocuments?qtype=eq&idx=xwellserialnumber&val=255821", "STATE_ZONE": "BAD", "COASTAL_PERMIT_NUM": null, "SE_ANNO_CAD_DATA": null, "TRUE_VERTICAL_DEPTH": "3340.0", "first_seen": "False"}}, {"type": "Feature", "geometry": {"type": "Point", "coordinates": [-91.481802347, 32.451374677]}, "properties": {"OBJECTID": "244888", "id": "255822", "ORGANIZATION_ID": "D188", "ORGOP_LINE_ID": "1", "WELL_CLASS_TYPE_CODE": null, "well": "DELHI HOLT BRYANT SU; DELHI UT", "well_num": "035-1", "township": "17N", "EFFECTIVE_DATE": "2026-08-19 05:00:00", "api": "17083000730000", "OPERATION_TYPE_CODE": "1", "issue_date": "2026-08-19 05:00:00", "spud": null, "status": "1", "WELL_STATUS_DATE": "2026-08-19 05:00:00", "ORIGINAL_COMPLETION_DATE": null, "LAST_RECOMPLETION_DATE": null, "LAST_TEST_DATE": null, "ORPHANED_FLAG": null, "PRODUCT_TYPE_CODE": "0", "CLASSIFICATION": null, "UNIT_WELL_FLAG": null, "EXEMPT_29E_FLAG": null, "FIELD_ID": "3294", "LEASE_NUM": null, "MUD_DENSITY": "0.0", "USDW_VALUE": null, "AREA_USDW_VALUE": "0.0", "SOURCE_AREA_USDW_VALUE": null, "MAX_SIP": null, "SIP_ASSIGNED_DATE": null, "SOURCE_OF_SIP_VALUE": null, "INJECTION_RATE": "0.0", "COMMENTS": null, "LOCATION": "601' FNL AND 3266' FEL OF SW CORNER OF SEC 18,T-17N,R-10E. REDRILL OF 032011. EXPIRED PNA.", "section": "018", "MERIDIAN": "W", "range": "10E", "PARISH_CODE": "42", "lat": "32.451374677", "lon": "-91.481802347", "depth": "3380.0", "LEGEND": "1", "DISTRICT_CODE": null, "INSPECTION_DATE": null, "INSPECTION_YEAR_INDEX": null, "SECTION": "18", "INJECTION_VOLUME": null, "LOG_REVIEWED_FLAG": null, "ORPHAN_STATUS_CODE": null, "ORPHAN_STATUS_DATE": null, "field": "DELHI", "operator": "DENBURY ONSHORE, LLC", "parish": "RICHLAND", "SCOUT_WELL_STATUS_CODE": "1", "SCOUT_REPORT_DATE": "2026-08-19 05:00:00", "SCOUT_MEASURED_DEPTH": "3380.0", "SCOUT_TRUE_VERTICAL_DEPTH": null, "LUW_CODE": null, "LUW_TYPE_CODE": null, "LUW_NAME": null, "LW_REC_STATUS": null, "SURFACE_LAMBERT_X": "2314131.0", "SURFACE_LAMBERT_Y": "650609.0", "SURFACE_COORD_SYSTEM_CODE": "1", "SURFACE_ZONE": "N", "SURFACE_UTM83_X": "642702.054945811", "SURFACE_UTM83_Y": "3591483.58214064", "UPPER_PERFS": null, "LOWER_PERFS": null, "SANDS": null, "RESERVOIRS": null, "FORMATIONS": null, "HYPERLINK": "https://sonlite.dnr.state.la.us/ords/apex/r/sonris_pub/sonris_data_portal/well-profile?clear=CR,9000&ig[ig_master]_well_serial_num=255822", "GIS_UPD_DATE": "2026-08-20 09:05:17", "status_desc": "PERMITTED", "dirwell": null, "SCOUT_DETAIL": "601' FNL AND 3266' FEL OF SW CORNER OF SEC 18,T-17N,R-10E. REDRILL OF 032011. EXPIRED PNA.", "MINERAL_INTEREST_FLAG": null, "STATE_INTEREST_FLAG": null, "DOC_ACCESS": "https://sonlite.dnr.state.la.us/ords/r/sonris/ucmsearch/finddocuments?qtype=eq&idx=xwellserialnumber&val=255822", "STATE_ZONE": "BAD", "COASTAL_PERMIT_NUM": null, "SE_ANNO_CAD_DATA": null, "TRUE_VERTICAL_DEPTH": "3380.0", "first_seen": "False"}}]}