{"type": "FeatureCollection", "features": [{"type": "Feature", "geometry": {"type": "Point", "coordinates": [-92.226025529, 31.862865017]}, "properties": {"OBJECTID": "231415", "id": "255848", "ORGANIZATION_ID": "C019", "ORGOP_LINE_ID": "1", "WELL_CLASS_TYPE_CODE": null, "well": "Y FLOWERS ET AL", "well_num": "003", "township": "10N", "EFFECTIVE_DATE": "2026-09-24 05:00:00", "api": "17059269290000", "OPERATION_TYPE_CODE": "1", "issue_date": "2026-09-24 05:00:00", "spud": null, "status": "1", "WELL_STATUS_DATE": "2026-09-24 05:00:00", "ORIGINAL_COMPLETION_DATE": null, "LAST_RECOMPLETION_DATE": null, "LAST_TEST_DATE": null, "ORPHANED_FLAG": null, "PRODUCT_TYPE_CODE": "0", "CLASSIFICATION": null, "UNIT_WELL_FLAG": null, "EXEMPT_29E_FLAG": null, "FIELD_ID": "7130", "LEASE_NUM": null, "MUD_DENSITY": "0.0", "USDW_VALUE": null, "AREA_USDW_VALUE": "0.0", "SOURCE_AREA_USDW_VALUE": null, "MAX_SIP": null, "SIP_ASSIGNED_DATE": null, "SOURCE_OF_SIP_VALUE": null, "INJECTION_RATE": "0.0", "COMMENTS": null, "LOCATION": "2373' FNL & 472' FWL OF SEC 12-T10N-R2E.", "section": "012", "MERIDIAN": "W", "range": "02E", "PARISH_CODE": "30", "lat": "31.862865017", "lon": "-92.226025529", "depth": "2900.0", "LEGEND": "1", "DISTRICT_CODE": null, "INSPECTION_DATE": null, "INSPECTION_YEAR_INDEX": null, "SECTION": "12", "INJECTION_VOLUME": null, "LOG_REVIEWED_FLAG": null, "ORPHAN_STATUS_CODE": null, "ORPHAN_STATUS_DATE": null, "field": "OLLA", "operator": "CHADCO, INC.", "parish": "LA SALLE", "SCOUT_WELL_STATUS_CODE": "1", "SCOUT_REPORT_DATE": "2026-09-24 05:00:00", "SCOUT_MEASURED_DEPTH": "2900.0", "SCOUT_TRUE_VERTICAL_DEPTH": null, "LUW_CODE": null, "LUW_TYPE_CODE": null, "LUW_NAME": null, "LW_REC_STATUS": null, "SURFACE_LAMBERT_X": "2085104.0", "SURFACE_LAMBERT_Y": "435152.0", "SURFACE_COORD_SYSTEM_CODE": "1", "SURFACE_ZONE": "N", "SURFACE_UTM83_X": "573215.619009693", "SURFACE_UTM83_Y": "3525496.5368512", "UPPER_PERFS": null, "LOWER_PERFS": null, "SANDS": null, "RESERVOIRS": null, "FORMATIONS": null, "HYPERLINK": "https://sonlite.dnr.state.la.us/ords/apex/r/sonris_pub/sonris_data_portal/well-profile?clear=CR,9000&ig[ig_master]_well_serial_num=255848", "GIS_UPD_DATE": "2026-09-25 09:05:25", "status_desc": "PERMITTED", "dirwell": null, "SCOUT_DETAIL": "2373' FNL & 472' FWL OF SEC 12-T10N-R2E.", "MINERAL_INTEREST_FLAG": null, "STATE_INTEREST_FLAG": null, "DOC_ACCESS": "https://sonlite.dnr.state.la.us/ords/r/sonris/ucmsearch/finddocuments?qtype=eq&idx=xwellserialnumber&val=255848", "STATE_ZONE": "BAD", "COASTAL_PERMIT_NUM": null, "SE_ANNO_CAD_DATA": null, "TRUE_VERTICAL_DEPTH": "2900.0", "first_seen": "False"}}, {"type": "Feature", "geometry": {"type": "Point", "coordinates": [-96.342496128, 31.636606847]}, "properties": {"OBJECTID": "231416", "id": "255849", "ORGANIZATION_ID": "C019", "ORGOP_LINE_ID": "1", "WELL_CLASS_TYPE_CODE": null, "well": "MCCARTNEY", "well_num": "004", "township": "10N", "EFFECTIVE_DATE": "2026-09-24 05:00:00", "api": "17059269300000", "OPERATION_TYPE_CODE": "1", "issue_date": "2026-09-24 05:00:00", "spud": null, "status": "1", "WELL_STATUS_DATE": "2026-09-24 05:00:00", "ORIGINAL_COMPLETION_DATE": null, "LAST_RECOMPLETION_DATE": null, "LAST_TEST_DATE": null, "ORPHANED_FLAG": null, "PRODUCT_TYPE_CODE": "0", "CLASSIFICATION": null, "UNIT_WELL_FLAG": null, "EXEMPT_29E_FLAG": null, "FIELD_ID": "7130", "LEASE_NUM": null, "MUD_DENSITY": "0.0", "USDW_VALUE": null, "AREA_USDW_VALUE": "0.0", "SOURCE_AREA_USDW_VALUE": null, "MAX_SIP": null, "SIP_ASSIGNED_DATE": null, "SOURCE_OF_SIP_VALUE": null, "INJECTION_RATE": "0.0", "COMMENTS": null, "LOCATION": "2369' FSL & 625' FWL OF SEC 12-T10N-R2E.", "section": "012", "MERIDIAN": "W", "range": "02E", "PARISH_CODE": "30", "lat": "31.636606847", "lon": "-96.342496128", "depth": "2900.0", "LEGEND": "1", "DISTRICT_CODE": null, "INSPECTION_DATE": null, "INSPECTION_YEAR_INDEX": null, "SECTION": "12", "INJECTION_VOLUME": null, "LOG_REVIEWED_FLAG": null, "ORPHAN_STATUS_CODE": null, "ORPHAN_STATUS_DATE": null, "field": "OLLA", "operator": "CHADCO, INC.", "parish": "LA SALLE", "SCOUT_WELL_STATUS_CODE": "1", "SCOUT_REPORT_DATE": "2026-09-24 05:00:00", "SCOUT_MEASURED_DEPTH": "2900.0", "SCOUT_TRUE_VERTICAL_DEPTH": null, "LUW_CODE": null, "LUW_TYPE_CODE": null, "LUW_NAME": null, "LW_REC_STATUS": null, "SURFACE_LAMBERT_X": "2085261.0", "SURFACE_LAMBERT_Y": "434653.0", "SURFACE_COORD_SYSTEM_CODE": "2", "SURFACE_ZONE": "N", "SURFACE_UTM83_X": "182963.07166917", "SURFACE_UTM83_Y": "3505011.4971508", "UPPER_PERFS": null, "LOWER_PERFS": null, "SANDS": null, "RESERVOIRS": null, "FORMATIONS": null, "HYPERLINK": "https://sonlite.dnr.state.la.us/ords/apex/r/sonris_pub/sonris_data_portal/well-profile?clear=CR,9000&ig[ig_master]_well_serial_num=255849", "GIS_UPD_DATE": "2026-09-25 09:05:25", "status_desc": "PERMITTED", "dirwell": null, "SCOUT_DETAIL": "2369' FSL & 625' FWL OF SEC 12-T10N-R2E.", "MINERAL_INTEREST_FLAG": null, "STATE_INTEREST_FLAG": null, "DOC_ACCESS": "https://sonlite.dnr.state.la.us/ords/r/sonris/ucmsearch/finddocuments?qtype=eq&idx=xwellserialnumber&val=255849", "STATE_ZONE": "BAD", "COASTAL_PERMIT_NUM": null, "SE_ANNO_CAD_DATA": null, "TRUE_VERTICAL_DEPTH": "2900.0", "first_seen": "False"}}]}