{"type": "FeatureCollection", "features": [{"type": "Feature", "geometry": {"type": "Point", "coordinates": [-91.525287568, 32.436567777]}, "properties": {"OBJECTID": "8406", "id": "255860", "ORGANIZATION_ID": "D188", "ORGOP_LINE_ID": "1", "WELL_CLASS_TYPE_CODE": null, "well": "DELHI HOLT BRYANT SU;DELHI UT", "well_num": "80-1", "township": "17N", "EFFECTIVE_DATE": "2026-10-05 05:00:00", "api": "17083004240000", "OPERATION_TYPE_CODE": "1", "issue_date": "2026-10-05 05:00:00", "spud": null, "status": "1", "WELL_STATUS_DATE": "2026-10-05 05:00:00", "ORIGINAL_COMPLETION_DATE": null, "LAST_RECOMPLETION_DATE": null, "LAST_TEST_DATE": null, "ORPHANED_FLAG": null, "PRODUCT_TYPE_CODE": "10", "CLASSIFICATION": null, "UNIT_WELL_FLAG": null, "EXEMPT_29E_FLAG": null, "FIELD_ID": "3294", "LEASE_NUM": null, "MUD_DENSITY": "0.0", "USDW_VALUE": null, "AREA_USDW_VALUE": "0.0", "SOURCE_AREA_USDW_VALUE": null, "MAX_SIP": null, "SIP_ASSIGNED_DATE": null, "SOURCE_OF_SIP_VALUE": null, "INJECTION_RATE": "0.0", "COMMENTS": null, "LOCATION": "570' N & 478' E OF SW/COR OF SEC 23, T14N-R09E.  (REDRILL OF SER#248609-PERMIT EXPIRED 04/21/2015)", "section": "023", "MERIDIAN": "W", "range": "09E", "PARISH_CODE": "42", "lat": "32.436567777", "lon": "-91.525287568", "depth": "3382.0", "LEGEND": "1", "DISTRICT_CODE": null, "INSPECTION_DATE": null, "INSPECTION_YEAR_INDEX": null, "SECTION": "23", "INJECTION_VOLUME": null, "LOG_REVIEWED_FLAG": null, "ORPHAN_STATUS_CODE": null, "ORPHAN_STATUS_DATE": null, "field": "DELHI", "operator": "DENBURY ONSHORE, LLC", "parish": "RICHLAND", "SCOUT_WELL_STATUS_CODE": "1", "SCOUT_REPORT_DATE": "2026-10-05 05:00:00", "SCOUT_MEASURED_DEPTH": "3382.0", "SCOUT_TRUE_VERTICAL_DEPTH": null, "LUW_CODE": null, "LUW_TYPE_CODE": null, "LUW_NAME": null, "LW_REC_STATUS": null, "SURFACE_LAMBERT_X": "2300766.0", "SURFACE_LAMBERT_Y": "645099.0", "SURFACE_COORD_SYSTEM_CODE": "1", "SURFACE_ZONE": "N", "SURFACE_UTM83_X": "638636.968987094", "SURFACE_UTM83_Y": "3589784.69981252", "UPPER_PERFS": null, "LOWER_PERFS": null, "SANDS": null, "RESERVOIRS": null, "FORMATIONS": null, "HYPERLINK": "https://sonlite.dnr.state.la.us/ords/apex/r/sonris_pub/sonris_data_portal/well-profile?clear=CR,9000&ig[ig_master]_well_serial_num=255860", "GIS_UPD_DATE": "2026-10-06 09:05:25", "status_desc": "PERMITTED", "dirwell": null, "SCOUT_DETAIL": "570' N & 478' E OF SW/COR OF SEC 23, T14N-R09E.  (REDRILL OF SER#248609-PERMIT EXPIRED 04/21/2015)", "MINERAL_INTEREST_FLAG": null, "STATE_INTEREST_FLAG": null, "DOC_ACCESS": "https://sonlite.dnr.state.la.us/ords/r/sonris/ucmsearch/finddocuments?qtype=eq&idx=xwellserialnumber&val=255860", "STATE_ZONE": "BAD", "COASTAL_PERMIT_NUM": null, "SE_ANNO_CAD_DATA": null, "TRUE_VERTICAL_DEPTH": "3382.0", "first_seen": "False"}}, {"type": "Feature", "geometry": {"type": "Point", "coordinates": [-93.646019111, 32.324340634]}, "properties": {"OBJECTID": "8356", "id": "255861", "ORGANIZATION_ID": "B6983", "ORGOP_LINE_ID": "1", "WELL_CLASS_TYPE_CODE": null, "well": "HA RA SU95; FBM 36-1-12HC", "well_num": "1-ALT", "township": "15N", "EFFECTIVE_DATE": "2026-10-05 05:00:00", "api": "17017370750000", "OPERATION_TYPE_CODE": "1", "issue_date": "2026-10-05 05:00:00", "spud": null, "status": "1", "WELL_STATUS_DATE": "2026-10-05 05:00:00", "ORIGINAL_COMPLETION_DATE": null, "LAST_RECOMPLETION_DATE": null, "LAST_TEST_DATE": null, "ORPHANED_FLAG": null, "PRODUCT_TYPE_CODE": "0", "CLASSIFICATION": null, "UNIT_WELL_FLAG": null, "EXEMPT_29E_FLAG": null, "FIELD_ID": "3608", "LEASE_NUM": null, "MUD_DENSITY": "0.0", "USDW_VALUE": null, "AREA_USDW_VALUE": "0.0", "SOURCE_AREA_USDW_VALUE": null, "MAX_SIP": null, "SIP_ASSIGNED_DATE": null, "SOURCE_OF_SIP_VALUE": null, "INJECTION_RATE": "0.0", "COMMENTS": null, "LOCATION": "SL: 179' FNL & 142' FEL OF SEC 001, T15N-R13W IN CADDO PARISH. PBHL: 100' FSL & 2120' FEL OF SEC 12, T15N-R13W IN DESOTO PARISH.", "section": "001", "MERIDIAN": "W", "range": "13W", "PARISH_CODE": "9", "lat": "32.324340634", "lon": "-93.646019111", "depth": "22785.0", "LEGEND": "-1", "DISTRICT_CODE": null, "INSPECTION_DATE": null, "INSPECTION_YEAR_INDEX": null, "SECTION": "1", "INJECTION_VOLUME": null, "LOG_REVIEWED_FLAG": null, "ORPHAN_STATUS_CODE": null, "ORPHAN_STATUS_DATE": null, "field": "ELM GROVE", "operator": "BPX OPERATING COMPANY", "parish": "CADDO", "SCOUT_WELL_STATUS_CODE": "1", "SCOUT_REPORT_DATE": "2026-10-05 05:00:00", "SCOUT_MEASURED_DEPTH": "22785.0", "SCOUT_TRUE_VERTICAL_DEPTH": null, "LUW_CODE": null, "LUW_TYPE_CODE": null, "LUW_NAME": null, "LW_REC_STATUS": null, "SURFACE_LAMBERT_X": "1646051.0", "SURFACE_LAMBERT_Y": "604790.0", "SURFACE_COORD_SYSTEM_CODE": "1", "SURFACE_ZONE": "N", "SURFACE_UTM83_X": "439195.266420635", "SURFACE_UTM83_Y": "3576570.62650052", "UPPER_PERFS": null, "LOWER_PERFS": null, "SANDS": null, "RESERVOIRS": null, "FORMATIONS": null, "HYPERLINK": "https://sonlite.dnr.state.la.us/ords/apex/r/sonris_pub/sonris_data_portal/well-profile?clear=CR,9000&ig[ig_master]_well_serial_num=255861", "GIS_UPD_DATE": "2026-10-06 09:05:25", "status_desc": "PERMITTED", "dirwell": null, "SCOUT_DETAIL": "SL: 179' FNL & 142' FEL OF SEC 001, T15N-R13W IN CADDO PARISH. PBHL: 100' FSL & 2120' FEL OF SEC 12, T15N-R13W IN DESOTO PARISH.", "MINERAL_INTEREST_FLAG": null, "STATE_INTEREST_FLAG": null, "DOC_ACCESS": "https://sonlite.dnr.state.la.us/ords/r/sonris/ucmsearch/finddocuments?qtype=eq&idx=xwellserialnumber&val=255861", "STATE_ZONE": "BAD", "COASTAL_PERMIT_NUM": null, "SE_ANNO_CAD_DATA": null, "TRUE_VERTICAL_DEPTH": "11466.0", "first_seen": "False"}}, {"type": "Feature", "geometry": {"type": "Point", "coordinates": [-93.646020138, 32.324423093]}, "properties": {"OBJECTID": "8357", "id": "255862", "ORGANIZATION_ID": "B6983", "ORGOP_LINE_ID": "1", "WELL_CLASS_TYPE_CODE": null, "well": "HA RA SU95; FBM 36-1-12HC", "well_num": "2-ALT", "township": "15N", "EFFECTIVE_DATE": "2026-10-05 05:00:00", "api": "17017370760000", "OPERATION_TYPE_CODE": "1", "issue_date": "2026-10-05 05:00:00", "spud": null, "status": "1", "WELL_STATUS_DATE": "2026-10-05 05:00:00", "ORIGINAL_COMPLETION_DATE": null, "LAST_RECOMPLETION_DATE": null, "LAST_TEST_DATE": null, "ORPHANED_FLAG": null, "PRODUCT_TYPE_CODE": "0", "CLASSIFICATION": null, "UNIT_WELL_FLAG": null, "EXEMPT_29E_FLAG": null, "FIELD_ID": "3608", "LEASE_NUM": null, "MUD_DENSITY": "0.0", "USDW_VALUE": null, "AREA_USDW_VALUE": "0.0", "SOURCE_AREA_USDW_VALUE": null, "MAX_SIP": null, "SIP_ASSIGNED_DATE": null, "SOURCE_OF_SIP_VALUE": null, "INJECTION_RATE": "0.0", "COMMENTS": null, "LOCATION": "SL: 149' FNL & 142' FEL OF SEC 001, T15N-R13W IN CADDO PARISH. PBHL: 100' FSL & 924' FEL OF SEC 12, T15N-R13W IN DESOTO PARISH.", "section": "001", "MERIDIAN": "W", "range": "13W", "PARISH_CODE": "9", "lat": "32.324423093", "lon": "-93.646020138", "depth": "22244.0", "LEGEND": "-1", "DISTRICT_CODE": null, "INSPECTION_DATE": null, "INSPECTION_YEAR_INDEX": null, "SECTION": "1", "INJECTION_VOLUME": null, "LOG_REVIEWED_FLAG": null, "ORPHAN_STATUS_CODE": null, "ORPHAN_STATUS_DATE": null, "field": "ELM GROVE", "operator": "BPX OPERATING COMPANY", "parish": "CADDO", "SCOUT_WELL_STATUS_CODE": "1", "SCOUT_REPORT_DATE": "2026-10-05 05:00:00", "SCOUT_MEASURED_DEPTH": "22244.0", "SCOUT_TRUE_VERTICAL_DEPTH": null, "LUW_CODE": null, "LUW_TYPE_CODE": null, "LUW_NAME": null, "LW_REC_STATUS": null, "SURFACE_LAMBERT_X": "1646051.0", "SURFACE_LAMBERT_Y": "604820.0", "SURFACE_COORD_SYSTEM_CODE": "1", "SURFACE_ZONE": "N", "SURFACE_UTM83_X": "439195.224865514", "SURFACE_UTM83_Y": "3576579.7677896", "UPPER_PERFS": null, "LOWER_PERFS": null, "SANDS": null, "RESERVOIRS": null, "FORMATIONS": null, "HYPERLINK": "https://sonlite.dnr.state.la.us/ords/apex/r/sonris_pub/sonris_data_portal/well-profile?clear=CR,9000&ig[ig_master]_well_serial_num=255862", "GIS_UPD_DATE": "2026-10-06 09:05:25", "status_desc": "PERMITTED", "dirwell": null, "SCOUT_DETAIL": "SL: 149' FNL & 142' FEL OF SEC 001, T15N-R13W IN CADDO PARISH. PBHL: 100' FSL & 924' FEL OF SEC 12, T15N-R13W IN DESOTO PARISH.", "MINERAL_INTEREST_FLAG": null, "STATE_INTEREST_FLAG": null, "DOC_ACCESS": "https://sonlite.dnr.state.la.us/ords/r/sonris/ucmsearch/finddocuments?qtype=eq&idx=xwellserialnumber&val=255862", "STATE_ZONE": "BAD", "COASTAL_PERMIT_NUM": null, "SE_ANNO_CAD_DATA": null, "TRUE_VERTICAL_DEPTH": "11425.0", "first_seen": "False"}}]}