{"type": "FeatureCollection", "features": [{"type": "Feature", "geometry": {"type": "Point", "coordinates": [-93.682005353, 30.51403792]}, "properties": {"OBJECTID": "238366", "id": "255803", "ORGANIZATION_ID": "F2880", "ORGOP_LINE_ID": "1", "WELL_CLASS_TYPE_CODE": null, "well": "COLUMBIA LAND 27", "well_num": "002", "township": "06S", "EFFECTIVE_DATE": "2026-08-12 05:00:00", "api": "17011213080000", "OPERATION_TYPE_CODE": "1", "issue_date": "2026-08-12 05:00:00", "spud": null, "status": "1", "WELL_STATUS_DATE": "2026-08-12 05:00:00", "ORIGINAL_COMPLETION_DATE": null, "LAST_RECOMPLETION_DATE": null, "LAST_TEST_DATE": null, "ORPHANED_FLAG": null, "PRODUCT_TYPE_CODE": "0", "CLASSIFICATION": null, "UNIT_WELL_FLAG": null, "EXEMPT_29E_FLAG": null, "FIELD_ID": "234", "LEASE_NUM": null, "MUD_DENSITY": "0.0", "USDW_VALUE": null, "AREA_USDW_VALUE": "0.0", "SOURCE_AREA_USDW_VALUE": null, "MAX_SIP": null, "SIP_ASSIGNED_DATE": null, "SOURCE_OF_SIP_VALUE": null, "INJECTION_RATE": "0.0", "COMMENTS": null, "LOCATION": "S 89 D 12' 18\" 2354.21\" & S 00 D 47' 42\" W 1996.98\" FNW CORNER S027 T06S 13W.", "section": "027", "MERIDIAN": "W", "range": "13W", "PARISH_CODE": "6", "lat": "30.51403792", "lon": "-93.682005353", "depth": "9000.0", "LEGEND": "-1", "DISTRICT_CODE": null, "INSPECTION_DATE": null, "INSPECTION_YEAR_INDEX": null, "SECTION": "27", "INJECTION_VOLUME": null, "LOG_REVIEWED_FLAG": null, "ORPHAN_STATUS_CODE": null, "ORPHAN_STATUS_DATE": null, "field": "BANCROFT, SOUTH", "operator": "FONTAINEBLEAU OPERATING, LLC", "parish": "BEAUREGARD", "SCOUT_WELL_STATUS_CODE": "1", "SCOUT_REPORT_DATE": "2026-08-12 05:00:00", "SCOUT_MEASURED_DEPTH": "9000.0", "SCOUT_TRUE_VERTICAL_DEPTH": null, "LUW_CODE": null, "LUW_TYPE_CODE": null, "LUW_NAME": null, "LW_REC_STATUS": null, "SURFACE_LAMBERT_X": "1260497.0", "SURFACE_LAMBERT_Y": "679295.0", "SURFACE_COORD_SYSTEM_CODE": "1", "SURFACE_ZONE": "S", "SURFACE_UTM83_X": "434563.052308328", "SURFACE_UTM83_Y": "3375944.9038895", "UPPER_PERFS": null, "LOWER_PERFS": null, "SANDS": null, "RESERVOIRS": null, "FORMATIONS": null, "HYPERLINK": "https://sonlite.dnr.state.la.us/ords/apex/r/sonris_pub/sonris_data_portal/well-profile?clear=CR,9000&ig[ig_master]_well_serial_num=255803", "GIS_UPD_DATE": "2026-08-13 09:05:32", "status_desc": "PERMITTED", "dirwell": null, "SCOUT_DETAIL": "S 89 D 12' 18\" 2354.21\" & S 00 D 47' 42\" W 1996.98\" FNW CORNER S027 T06S 13W.", "MINERAL_INTEREST_FLAG": null, "STATE_INTEREST_FLAG": null, "DOC_ACCESS": "https://sonlite.dnr.state.la.us/ords/r/sonris/ucmsearch/finddocuments?qtype=eq&idx=xwellserialnumber&val=255803", "STATE_ZONE": "SOUTH", "COASTAL_PERMIT_NUM": null, "SE_ANNO_CAD_DATA": null, "TRUE_VERTICAL_DEPTH": "9000.0", "first_seen": "True"}}]}