{"type": "FeatureCollection", "features": [{"type": "Feature", "geometry": {"type": "Point", "coordinates": [-93.441799283, 33.010483684]}, "properties": {"OBJECTID": "244556", "id": "255811", "ORGANIZATION_ID": "F2880", "ORGOP_LINE_ID": "1", "WELL_CLASS_TYPE_CODE": null, "well": "ROD-PET RA SUB; KEY 6", "well_num": "001", "township": "23N", "EFFECTIVE_DATE": "2026-08-18 05:00:00", "api": "17119223090000", "OPERATION_TYPE_CODE": "1", "issue_date": "2026-08-18 05:00:00", "spud": null, "status": "1", "WELL_STATUS_DATE": "2026-08-18 05:00:00", "ORIGINAL_COMPLETION_DATE": null, "LAST_RECOMPLETION_DATE": null, "LAST_TEST_DATE": null, "ORPHANED_FLAG": null, "PRODUCT_TYPE_CODE": "0", "CLASSIFICATION": null, "UNIT_WELL_FLAG": null, "EXEMPT_29E_FLAG": null, "FIELD_ID": "8599", "LEASE_NUM": null, "MUD_DENSITY": "0.0", "USDW_VALUE": null, "AREA_USDW_VALUE": "0.0", "SOURCE_AREA_USDW_VALUE": null, "MAX_SIP": null, "SIP_ASSIGNED_DATE": null, "SOURCE_OF_SIP_VALUE": null, "INJECTION_RATE": "0.0", "COMMENTS": null, "LOCATION": "351FT FSL & 1208FT FWL OF 006-T23N-R10W.", "section": "006", "MERIDIAN": "W", "range": "10W", "PARISH_CODE": "60", "lat": "33.010483684", "lon": "-93.441799283", "depth": "6500.0", "LEGEND": "1", "DISTRICT_CODE": null, "INSPECTION_DATE": null, "INSPECTION_YEAR_INDEX": null, "SECTION": "6", "INJECTION_VOLUME": null, "LOG_REVIEWED_FLAG": null, "ORPHAN_STATUS_CODE": null, "ORPHAN_STATUS_DATE": null, "field": "SPRINGHILL", "operator": "FONTAINEBLEAU OPERATING, LLC", "parish": "WEBSTER", "SCOUT_WELL_STATUS_CODE": "1", "SCOUT_REPORT_DATE": "2026-08-18 05:00:00", "SCOUT_MEASURED_DEPTH": "6500.0", "SCOUT_TRUE_VERTICAL_DEPTH": null, "LUW_CODE": null, "LUW_TYPE_CODE": null, "LUW_NAME": null, "LW_REC_STATUS": null, "SURFACE_LAMBERT_X": "1711301.0", "SURFACE_LAMBERT_Y": "853819.0", "SURFACE_COORD_SYSTEM_CODE": "1", "SURFACE_ZONE": "N", "SURFACE_UTM83_X": "458733.6658101311", "SURFACE_UTM83_Y": "3652535.84432156", "UPPER_PERFS": null, "LOWER_PERFS": null, "SANDS": null, "RESERVOIRS": null, "FORMATIONS": null, "HYPERLINK": "https://sonlite.dnr.state.la.us/ords/apex/r/sonris_pub/sonris_data_portal/well-profile?clear=CR,9000&ig[ig_master]_well_serial_num=255811", "GIS_UPD_DATE": "2026-08-19 09:05:20", "status_desc": "PERMITTED", "dirwell": null, "SCOUT_DETAIL": "351FT FSL & 1208FT FWL OF 006-T23N-R10W.", "MINERAL_INTEREST_FLAG": null, "STATE_INTEREST_FLAG": null, "DOC_ACCESS": "https://sonlite.dnr.state.la.us/ords/r/sonris/ucmsearch/finddocuments?qtype=eq&idx=xwellserialnumber&val=255811", "STATE_ZONE": "BAD", "COASTAL_PERMIT_NUM": null, "SE_ANNO_CAD_DATA": null, "TRUE_VERTICAL_DEPTH": "6500.0", "first_seen": "False"}}, {"type": "Feature", "geometry": {"type": "Point", "coordinates": [-93.408023098, 31.788399646]}, "properties": {"OBJECTID": "243664", "id": "255812", "ORGANIZATION_ID": "A1203", "ORGOP_LINE_ID": "1", "WELL_CLASS_TYPE_CODE": null, "well": "HA RA SU58; POWELL 5-8HC", "well_num": "001", "township": "09N", "EFFECTIVE_DATE": "2026-08-18 05:00:00", "api": "17069205640000", "OPERATION_TYPE_CODE": "1", "issue_date": "2026-08-18 05:00:00", "spud": null, "status": "1", "WELL_STATUS_DATE": "2026-08-18 05:00:00", "ORIGINAL_COMPLETION_DATE": null, "LAST_RECOMPLETION_DATE": null, "LAST_TEST_DATE": null, "ORPHANED_FLAG": null, "PRODUCT_TYPE_CODE": "0", "CLASSIFICATION": null, "UNIT_WELL_FLAG": null, "EXEMPT_29E_FLAG": null, "FIELD_ID": "7870", "LEASE_NUM": null, "MUD_DENSITY": "0.0", "USDW_VALUE": null, "AREA_USDW_VALUE": "0.0", "SOURCE_AREA_USDW_VALUE": null, "MAX_SIP": null, "SIP_ASSIGNED_DATE": null, "SOURCE_OF_SIP_VALUE": null, "INJECTION_RATE": "0.0", "COMMENTS": null, "LOCATION": "SL: 484' FSL & 332' FEL OF S5-T9N-R10W; PBHL: 100'FSL & 1200' FEL OF S8-T9N-R10W.", "section": "05", "MERIDIAN": "W", "range": "10W", "PARISH_CODE": "35", "lat": "31.788399646", "lon": "-93.408023098", "depth": "18600.0", "LEGEND": "-1", "DISTRICT_CODE": null, "INSPECTION_DATE": null, "INSPECTION_YEAR_INDEX": null, "SECTION": "5", "INJECTION_VOLUME": null, "LOG_REVIEWED_FLAG": null, "ORPHAN_STATUS_CODE": null, "ORPHAN_STATUS_DATE": null, "field": "SAN MIGUEL CREEK", "operator": "ADAMAS ENERGY LLC", "parish": "NATCHITOCHES", "SCOUT_WELL_STATUS_CODE": "1", "SCOUT_REPORT_DATE": "2026-08-18 05:00:00", "SCOUT_MEASURED_DEPTH": "18600.0", "SCOUT_TRUE_VERTICAL_DEPTH": null, "LUW_CODE": null, "LUW_TYPE_CODE": null, "LUW_NAME": null, "LW_REC_STATUS": null, "SURFACE_LAMBERT_X": "1717931.0", "SURFACE_LAMBERT_Y": "409139.0", "SURFACE_COORD_SYSTEM_CODE": "1", "SURFACE_ZONE": "N", "SURFACE_UTM83_X": "461371.644084184", "SURFACE_UTM83_Y": "3517054.2378993", "UPPER_PERFS": null, "LOWER_PERFS": null, "SANDS": null, "RESERVOIRS": null, "FORMATIONS": null, "HYPERLINK": "https://sonlite.dnr.state.la.us/ords/apex/r/sonris_pub/sonris_data_portal/well-profile?clear=CR,9000&ig[ig_master]_well_serial_num=255812", "GIS_UPD_DATE": "2026-08-19 09:05:20", "status_desc": "PERMITTED", "dirwell": null, "SCOUT_DETAIL": "SL: 484' FSL & 332' FEL OF S5-T9N-R10W; PBHL: 100'FSL & 1200' FEL OF S8-T9N-R10W.", "MINERAL_INTEREST_FLAG": null, "STATE_INTEREST_FLAG": null, "DOC_ACCESS": "https://sonlite.dnr.state.la.us/ords/r/sonris/ucmsearch/finddocuments?qtype=eq&idx=xwellserialnumber&val=255812", "STATE_ZONE": "BAD", "COASTAL_PERMIT_NUM": null, "SE_ANNO_CAD_DATA": null, "TRUE_VERTICAL_DEPTH": "12800.0", "first_seen": "False"}}, {"type": "Feature", "geometry": {"type": "Point", "coordinates": [-93.407965651, 31.788449542]}, "properties": {"OBJECTID": "243665", "id": "255813", "ORGANIZATION_ID": "A1203", "ORGOP_LINE_ID": "1", "WELL_CLASS_TYPE_CODE": null, "well": "HA RA SUOO; POWELL 4-33 HC", "well_num": "001", "township": "09N", "EFFECTIVE_DATE": "2026-08-18 05:00:00", "api": "17069205650000", "OPERATION_TYPE_CODE": "1", "issue_date": "2026-08-18 05:00:00", "spud": null, "status": "1", "WELL_STATUS_DATE": "2026-08-18 05:00:00", "ORIGINAL_COMPLETION_DATE": null, "LAST_RECOMPLETION_DATE": null, "LAST_TEST_DATE": null, "ORPHANED_FLAG": null, "PRODUCT_TYPE_CODE": "0", "CLASSIFICATION": null, "UNIT_WELL_FLAG": null, "EXEMPT_29E_FLAG": null, "FIELD_ID": "7870", "LEASE_NUM": null, "MUD_DENSITY": "0.0", "USDW_VALUE": null, "AREA_USDW_VALUE": "0.0", "SOURCE_AREA_USDW_VALUE": null, "MAX_SIP": null, "SIP_ASSIGNED_DATE": null, "SOURCE_OF_SIP_VALUE": null, "INJECTION_RATE": "0.0", "COMMENTS": null, "LOCATION": "SL: 501' FSL & 314' FEL OF S5-T9N-R10W. PBHL: 100' FNL & 380' FWL OF S33-T10N-R10W.", "section": "005", "MERIDIAN": "W", "range": "10W", "PARISH_CODE": "35", "lat": "31.788449542", "lon": "-93.407965651", "depth": "18600.0", "LEGEND": "-1", "DISTRICT_CODE": null, "INSPECTION_DATE": null, "INSPECTION_YEAR_INDEX": null, "SECTION": "5", "INJECTION_VOLUME": null, "LOG_REVIEWED_FLAG": null, "ORPHAN_STATUS_CODE": null, "ORPHAN_STATUS_DATE": null, "field": "SAN MIGUEL CREEK", "operator": "ADAMAS ENERGY LLC", "parish": "NATCHITOCHES", "SCOUT_WELL_STATUS_CODE": "1", "SCOUT_REPORT_DATE": "2026-08-18 05:00:00", "SCOUT_MEASURED_DEPTH": "18600.0", "SCOUT_TRUE_VERTICAL_DEPTH": null, "LUW_CODE": null, "LUW_TYPE_CODE": null, "LUW_NAME": null, "LW_REC_STATUS": null, "SURFACE_LAMBERT_X": "1717949.0", "SURFACE_LAMBERT_Y": "409157.0", "SURFACE_COORD_SYSTEM_CODE": "1", "SURFACE_ZONE": "N", "SURFACE_UTM83_X": "461377.1034499111", "SURFACE_UTM83_Y": "3517059.74802555", "UPPER_PERFS": null, "LOWER_PERFS": null, "SANDS": null, "RESERVOIRS": null, "FORMATIONS": null, "HYPERLINK": "https://sonlite.dnr.state.la.us/ords/apex/r/sonris_pub/sonris_data_portal/well-profile?clear=CR,9000&ig[ig_master]_well_serial_num=255813", "GIS_UPD_DATE": "2026-08-19 09:05:20", "status_desc": "PERMITTED", "dirwell": null, "SCOUT_DETAIL": "SL: 501' FSL & 314' FEL OF S5-T9N-R10W. PBHL: 100' FNL & 380' FWL OF S33-T10N-R10W.", "MINERAL_INTEREST_FLAG": null, "STATE_INTEREST_FLAG": null, "DOC_ACCESS": "https://sonlite.dnr.state.la.us/ords/r/sonris/ucmsearch/finddocuments?qtype=eq&idx=xwellserialnumber&val=255813", "STATE_ZONE": "BAD", "COASTAL_PERMIT_NUM": null, "SE_ANNO_CAD_DATA": null, "TRUE_VERTICAL_DEPTH": "12800.0", "first_seen": "False"}}, {"type": "Feature", "geometry": {"type": "Point", "coordinates": [-93.968430636, 32.115071044]}, "properties": {"OBJECTID": "243666", "id": "255814", "ORGANIZATION_ID": "E1152", "ORGOP_LINE_ID": "1", "WELL_CLASS_TYPE_CODE": null, "well": "HA RB SUYY;HDRK 13&12-13-16 HC", "well_num": "001-ALT", "township": "13N", "EFFECTIVE_DATE": "2026-08-18 05:00:00", "api": "17031276360000", "OPERATION_TYPE_CODE": "1", "issue_date": "2026-08-18 05:00:00", "spud": null, "status": "1", "WELL_STATUS_DATE": "2026-08-18 05:00:00", "ORIGINAL_COMPLETION_DATE": null, "LAST_RECOMPLETION_DATE": null, "LAST_TEST_DATE": null, "ORPHANED_FLAG": null, "PRODUCT_TYPE_CODE": "0", "CLASSIFICATION": null, "UNIT_WELL_FLAG": null, "EXEMPT_29E_FLAG": null, "FIELD_ID": "1464", "LEASE_NUM": null, "MUD_DENSITY": "0.0", "USDW_VALUE": null, "AREA_USDW_VALUE": "0.0", "SOURCE_AREA_USDW_VALUE": null, "MAX_SIP": null, "SIP_ASSIGNED_DATE": null, "SOURCE_OF_SIP_VALUE": null, "INJECTION_RATE": "0.0", "COMMENTS": null, "LOCATION": "SL: 2370' FSL & 310' FWL OF S13-T13N-R16W. PBHL: 100' FNL & 999' FWL OF S12-T13N-R16W.", "section": "013", "MERIDIAN": "W", "range": "16W", "PARISH_CODE": "16", "lat": "32.115071044", "lon": "-93.968430636", "depth": "35000.0", "LEGEND": "-1", "DISTRICT_CODE": null, "INSPECTION_DATE": null, "INSPECTION_YEAR_INDEX": null, "SECTION": "13", "INJECTION_VOLUME": null, "LOG_REVIEWED_FLAG": null, "ORPHAN_STATUS_CODE": null, "ORPHAN_STATUS_DATE": null, "field": "BETHANY LONGSTREET", "operator": "EXPAND OPERATING LLC", "parish": "DE SOTO", "SCOUT_WELL_STATUS_CODE": "1", "SCOUT_REPORT_DATE": "2026-08-18 05:00:00", "SCOUT_MEASURED_DEPTH": "35000.0", "SCOUT_TRUE_VERTICAL_DEPTH": null, "LUW_CODE": null, "LUW_TYPE_CODE": null, "LUW_NAME": null, "LW_REC_STATUS": null, "SURFACE_LAMBERT_X": "1545434.0", "SURFACE_LAMBERT_Y": "529869.0", "SURFACE_COORD_SYSTEM_CODE": "1", "SURFACE_ZONE": "N", "SURFACE_UTM83_X": "408639.071427429", "SURFACE_UTM83_Y": "3553601.05783749", "UPPER_PERFS": null, "LOWER_PERFS": null, "SANDS": null, "RESERVOIRS": null, "FORMATIONS": null, "HYPERLINK": "https://sonlite.dnr.state.la.us/ords/apex/r/sonris_pub/sonris_data_portal/well-profile?clear=CR,9000&ig[ig_master]_well_serial_num=255814", "GIS_UPD_DATE": "2026-08-19 09:05:20", "status_desc": "PERMITTED", "dirwell": null, "SCOUT_DETAIL": "SL: 2370' FSL & 310' FWL OF S13-T13N-R16W. PBHL: 100' FNL & 999' FWL OF S12-T13N-R16W.", "MINERAL_INTEREST_FLAG": null, "STATE_INTEREST_FLAG": null, "DOC_ACCESS": "https://sonlite.dnr.state.la.us/ords/r/sonris/ucmsearch/finddocuments?qtype=eq&idx=xwellserialnumber&val=255814", "STATE_ZONE": "BAD", "COASTAL_PERMIT_NUM": null, "SE_ANNO_CAD_DATA": null, "TRUE_VERTICAL_DEPTH": "14000.0", "first_seen": "False"}}, {"type": "Feature", "geometry": {"type": "Point", "coordinates": [-93.968365999, 32.115069041]}, "properties": {"OBJECTID": "243667", "id": "255815", "ORGANIZATION_ID": "E1152", "ORGOP_LINE_ID": "1", "WELL_CLASS_TYPE_CODE": null, "well": "HA RB SUYY;HDRK 13&12-13-16 HC", "well_num": "002-ALT", "township": "13N", "EFFECTIVE_DATE": "2026-08-18 05:00:00", "api": "17031276370000", "OPERATION_TYPE_CODE": "1", "issue_date": "2026-08-18 05:00:00", "spud": null, "status": "1", "WELL_STATUS_DATE": "2026-08-18 05:00:00", "ORIGINAL_COMPLETION_DATE": null, "LAST_RECOMPLETION_DATE": null, "LAST_TEST_DATE": null, "ORPHANED_FLAG": null, "PRODUCT_TYPE_CODE": "0", "CLASSIFICATION": null, "UNIT_WELL_FLAG": null, "EXEMPT_29E_FLAG": null, "FIELD_ID": "1464", "LEASE_NUM": null, "MUD_DENSITY": "0.0", "USDW_VALUE": null, "AREA_USDW_VALUE": "0.0", "SOURCE_AREA_USDW_VALUE": null, "MAX_SIP": null, "SIP_ASSIGNED_DATE": null, "SOURCE_OF_SIP_VALUE": null, "INJECTION_RATE": "0.0", "COMMENTS": null, "LOCATION": "SL: 2370' FSL & 330' FWL OF S013-T13N-R16W. PBHL: 100' FNL & 2111' FWL OF S012-T13N-R16W.", "section": "013", "MERIDIAN": "W", "range": "16W", "PARISH_CODE": "15", "lat": "32.115069041", "lon": "-93.968365999", "depth": "35000.0", "LEGEND": "-1", "DISTRICT_CODE": null, "INSPECTION_DATE": null, "INSPECTION_YEAR_INDEX": null, "SECTION": "13", "INJECTION_VOLUME": null, "LOG_REVIEWED_FLAG": null, "ORPHAN_STATUS_CODE": null, "ORPHAN_STATUS_DATE": null, "field": "BETHANY LONGSTREET", "operator": "EXPAND OPERATING LLC", "parish": "CONCORDIA", "SCOUT_WELL_STATUS_CODE": "1", "SCOUT_REPORT_DATE": "2026-08-18 05:00:00", "SCOUT_MEASURED_DEPTH": "35000.0", "SCOUT_TRUE_VERTICAL_DEPTH": null, "LUW_CODE": null, "LUW_TYPE_CODE": null, "LUW_NAME": null, "LW_REC_STATUS": null, "SURFACE_LAMBERT_X": "1545454.0", "SURFACE_LAMBERT_Y": "529868.0", "SURFACE_COORD_SYSTEM_CODE": "1", "SURFACE_ZONE": "N", "SURFACE_UTM83_X": "408645.167476668", "SURFACE_UTM83_Y": "3553600.78091959", "UPPER_PERFS": null, "LOWER_PERFS": null, "SANDS": null, "RESERVOIRS": null, "FORMATIONS": null, "HYPERLINK": "https://sonlite.dnr.state.la.us/ords/apex/r/sonris_pub/sonris_data_portal/well-profile?clear=CR,9000&ig[ig_master]_well_serial_num=255815", "GIS_UPD_DATE": "2026-08-19 09:05:20", "status_desc": "PERMITTED", "dirwell": null, "SCOUT_DETAIL": "SL: 2370' FSL & 330' FWL OF S013-T13N-R16W. PBHL: 100' FNL & 2111' FWL OF S012-T13N-R16W.", "MINERAL_INTEREST_FLAG": null, "STATE_INTEREST_FLAG": null, "DOC_ACCESS": "https://sonlite.dnr.state.la.us/ords/r/sonris/ucmsearch/finddocuments?qtype=eq&idx=xwellserialnumber&val=255815", "STATE_ZONE": "BAD", "COASTAL_PERMIT_NUM": null, "SE_ANNO_CAD_DATA": null, "TRUE_VERTICAL_DEPTH": "35000.0", "first_seen": "False"}}, {"type": "Feature", "geometry": {"type": "Point", "coordinates": [-92.878236155, 32.455546848]}, "properties": {"OBJECTID": "243701", "id": "255816", "ORGANIZATION_ID": "P289", "ORGOP_LINE_ID": "1", "WELL_CLASS_TYPE_CODE": null, "well": "HOSS RA SUC; THOMAS 15", "well_num": "001", "township": "17N", "EFFECTIVE_DATE": "2026-08-18 05:00:00", "api": "17061214500000", "OPERATION_TYPE_CODE": "1", "issue_date": "2026-08-18 05:00:00", "spud": null, "status": "1", "WELL_STATUS_DATE": "2026-08-18 05:00:00", "ORIGINAL_COMPLETION_DATE": null, "LAST_RECOMPLETION_DATE": null, "LAST_TEST_DATE": null, "ORPHANED_FLAG": null, "PRODUCT_TYPE_CODE": "0", "CLASSIFICATION": null, "UNIT_WELL_FLAG": null, "EXEMPT_29E_FLAG": null, "FIELD_ID": "1992", "LEASE_NUM": null, "MUD_DENSITY": "0.0", "USDW_VALUE": null, "AREA_USDW_VALUE": "0.0", "SOURCE_AREA_USDW_VALUE": null, "MAX_SIP": null, "SIP_ASSIGNED_DATE": null, "SOURCE_OF_SIP_VALUE": null, "INJECTION_RATE": "0.0", "COMMENTS": null, "LOCATION": "SL: 513' FSL & 339' FWL OF S015-T17N-R05W.", "section": "015", "MERIDIAN": "W", "range": "05W", "PARISH_CODE": "31", "lat": "32.455546848", "lon": "-92.878236155", "depth": "9999.0", "LEGEND": "1", "DISTRICT_CODE": null, "INSPECTION_DATE": null, "INSPECTION_YEAR_INDEX": null, "SECTION": "15", "INJECTION_VOLUME": null, "LOG_REVIEWED_FLAG": null, "ORPHAN_STATUS_CODE": null, "ORPHAN_STATUS_DATE": null, "field": "BRYCELAND", "operator": "PETRO-CHEM OPERATING COMPANY, INC.", "parish": "LINCOLN", "SCOUT_WELL_STATUS_CODE": "1", "SCOUT_REPORT_DATE": "2026-08-18 05:00:00", "SCOUT_MEASURED_DEPTH": "9999.0", "SCOUT_TRUE_VERTICAL_DEPTH": null, "LUW_CODE": null, "LUW_TYPE_CODE": null, "LUW_NAME": null, "LW_REC_STATUS": null, "SURFACE_LAMBERT_X": "1883379.0", "SURFACE_LAMBERT_Y": "650855.0", "SURFACE_COORD_SYSTEM_CODE": "1", "SURFACE_ZONE": "N", "SURFACE_UTM83_X": "511444.021407946", "SURFACE_UTM83_Y": "3590937.96977822", "UPPER_PERFS": null, "LOWER_PERFS": null, "SANDS": null, "RESERVOIRS": null, "FORMATIONS": null, "HYPERLINK": "https://sonlite.dnr.state.la.us/ords/apex/r/sonris_pub/sonris_data_portal/well-profile?clear=CR,9000&ig[ig_master]_well_serial_num=255816", "GIS_UPD_DATE": "2026-08-19 09:05:20", "status_desc": "PERMITTED", "dirwell": null, "SCOUT_DETAIL": "SL: 513' FSL & 339' FWL OF S015-T17N-R05W.", "MINERAL_INTEREST_FLAG": null, "STATE_INTEREST_FLAG": null, "DOC_ACCESS": "https://sonlite.dnr.state.la.us/ords/r/sonris/ucmsearch/finddocuments?qtype=eq&idx=xwellserialnumber&val=255816", "STATE_ZONE": "BAD", "COASTAL_PERMIT_NUM": null, "SE_ANNO_CAD_DATA": null, "TRUE_VERTICAL_DEPTH": "9999.0", "first_seen": "True"}}, {"type": "Feature", "geometry": {"type": "Point", "coordinates": [-93.665771429, 32.759774083]}, "properties": {"OBJECTID": "243702", "id": "255817", "ORGANIZATION_ID": "G1212", "ORGOP_LINE_ID": "1", "WELL_CLASS_TYPE_CODE": null, "well": "VUA;PADGETT 1-1H", "well_num": "001", "township": "20N", "EFFECTIVE_DATE": "2026-08-18 05:00:00", "api": "17015253510000", "OPERATION_TYPE_CODE": "1", "issue_date": "2026-08-18 05:00:00", "spud": null, "status": "1", "WELL_STATUS_DATE": "2026-08-18 05:00:00", "ORIGINAL_COMPLETION_DATE": null, "LAST_RECOMPLETION_DATE": null, "LAST_TEST_DATE": null, "ORPHANED_FLAG": null, "PRODUCT_TYPE_CODE": "0", "CLASSIFICATION": null, "UNIT_WELL_FLAG": null, "EXEMPT_29E_FLAG": null, "FIELD_ID": "1448", "LEASE_NUM": null, "MUD_DENSITY": "0.0", "USDW_VALUE": null, "AREA_USDW_VALUE": "0.0", "SOURCE_AREA_USDW_VALUE": null, "MAX_SIP": null, "SIP_ASSIGNED_DATE": null, "SOURCE_OF_SIP_VALUE": null, "INJECTION_RATE": "0.0", "COMMENTS": null, "LOCATION": "SHL: 315' FNL & 1639' FWL OF S001-T20N-R13W. PBHL: 238' FSL & 204' FEL OF S001-T20N-R13W.", "section": "001", "MERIDIAN": "W", "range": "13W", "PARISH_CODE": "8", "lat": "32.759774083", "lon": "-93.665771429", "depth": "14400.0", "LEGEND": "-1", "DISTRICT_CODE": null, "INSPECTION_DATE": null, "INSPECTION_YEAR_INDEX": null, "SECTION": "1", "INJECTION_VOLUME": null, "LOG_REVIEWED_FLAG": null, "ORPHAN_STATUS_CODE": null, "ORPHAN_STATUS_DATE": null, "field": "BENTON", "operator": "GRAYROCK ENERGY IV OPERATING COMPANY, LL", "parish": "BOSSIER", "SCOUT_WELL_STATUS_CODE": "1", "SCOUT_REPORT_DATE": "2026-08-18 05:00:00", "SCOUT_MEASURED_DEPTH": "14400.0", "SCOUT_TRUE_VERTICAL_DEPTH": null, "LUW_CODE": null, "LUW_TYPE_CODE": null, "LUW_NAME": null, "LW_REC_STATUS": null, "SURFACE_LAMBERT_X": "1641654.0", "SURFACE_LAMBERT_Y": "763266.0", "SURFACE_COORD_SYSTEM_CODE": "1", "SURFACE_ZONE": "N", "SURFACE_UTM83_X": "437637.827271996", "SURFACE_UTM83_Y": "3624852.05231851", "UPPER_PERFS": null, "LOWER_PERFS": null, "SANDS": null, "RESERVOIRS": null, "FORMATIONS": null, "HYPERLINK": "https://sonlite.dnr.state.la.us/ords/apex/r/sonris_pub/sonris_data_portal/well-profile?clear=CR,9000&ig[ig_master]_well_serial_num=255817", "GIS_UPD_DATE": "2026-08-19 09:05:20", "status_desc": "PERMITTED", "dirwell": null, "SCOUT_DETAIL": "SHL: 315' FNL & 1639' FWL OF S001-T20N-R13W. PBHL: 238' FSL & 204' FEL OF S001-T20N-R13W.", "MINERAL_INTEREST_FLAG": null, "STATE_INTEREST_FLAG": null, "DOC_ACCESS": "https://sonlite.dnr.state.la.us/ords/r/sonris/ucmsearch/finddocuments?qtype=eq&idx=xwellserialnumber&val=255817", "STATE_ZONE": "BAD", "COASTAL_PERMIT_NUM": null, "SE_ANNO_CAD_DATA": null, "TRUE_VERTICAL_DEPTH": "8452.0", "first_seen": "True"}}, {"type": "Feature", "geometry": {"type": "Point", "coordinates": [-93.665772829, 32.759884011]}, "properties": {"OBJECTID": "243703", "id": "255818", "ORGANIZATION_ID": "G1212", "ORGOP_LINE_ID": "1", "WELL_CLASS_TYPE_CODE": null, "well": "VUA;PADGETT 1-6H", "well_num": "001", "township": "20N", "EFFECTIVE_DATE": "2026-08-18 05:00:00", "api": "17015253520000", "OPERATION_TYPE_CODE": "1", "issue_date": "2026-08-18 05:00:00", "spud": null, "status": "1", "WELL_STATUS_DATE": "2026-08-18 05:00:00", "ORIGINAL_COMPLETION_DATE": null, "LAST_RECOMPLETION_DATE": null, "LAST_TEST_DATE": null, "ORPHANED_FLAG": null, "PRODUCT_TYPE_CODE": "0", "CLASSIFICATION": null, "UNIT_WELL_FLAG": null, "EXEMPT_29E_FLAG": null, "FIELD_ID": "1448", "LEASE_NUM": null, "MUD_DENSITY": "0.0", "USDW_VALUE": null, "AREA_USDW_VALUE": "0.0", "SOURCE_AREA_USDW_VALUE": null, "MAX_SIP": null, "SIP_ASSIGNED_DATE": null, "SOURCE_OF_SIP_VALUE": null, "INJECTION_RATE": "0.0", "COMMENTS": null, "LOCATION": "SL: 275' FNL & 1639' FWL OF S001-T20N-R13W. PBHL: 604' FSL & 260' FWL OF S001-T20N-R13W.", "section": "001", "MERIDIAN": "W", "range": "13W", "PARISH_CODE": "8", "lat": "32.759884011", "lon": "-93.665772829", "depth": "13900.0", "LEGEND": "1", "DISTRICT_CODE": null, "INSPECTION_DATE": null, "INSPECTION_YEAR_INDEX": null, "SECTION": "1", "INJECTION_VOLUME": null, "LOG_REVIEWED_FLAG": null, "ORPHAN_STATUS_CODE": null, "ORPHAN_STATUS_DATE": null, "field": "BENTON", "operator": "GRAYROCK ENERGY IV OPERATING COMPANY, LL", "parish": "BOSSIER", "SCOUT_WELL_STATUS_CODE": "1", "SCOUT_REPORT_DATE": "2026-08-18 05:00:00", "SCOUT_MEASURED_DEPTH": "13900.0", "SCOUT_TRUE_VERTICAL_DEPTH": null, "LUW_CODE": null, "LUW_TYPE_CODE": null, "LUW_NAME": null, "LW_REC_STATUS": null, "SURFACE_LAMBERT_X": "1641654.0", "SURFACE_LAMBERT_Y": "763306.0", "SURFACE_COORD_SYSTEM_CODE": "1", "SURFACE_ZONE": "N", "SURFACE_UTM83_X": "437637.772802134", "SURFACE_UTM83_Y": "3624864.2397287", "UPPER_PERFS": null, "LOWER_PERFS": null, "SANDS": null, "RESERVOIRS": null, "FORMATIONS": null, "HYPERLINK": "https://sonlite.dnr.state.la.us/ords/apex/r/sonris_pub/sonris_data_portal/well-profile?clear=CR,9000&ig[ig_master]_well_serial_num=255818", "GIS_UPD_DATE": "2026-08-19 09:05:20", "status_desc": "PERMITTED", "dirwell": null, "SCOUT_DETAIL": "SL: 275' FNL & 1639' FWL OF S001-T20N-R13W. PBHL: 604' FSL & 260' FWL OF S001-T20N-R13W.", "MINERAL_INTEREST_FLAG": null, "STATE_INTEREST_FLAG": null, "DOC_ACCESS": "https://sonlite.dnr.state.la.us/ords/r/sonris/ucmsearch/finddocuments?qtype=eq&idx=xwellserialnumber&val=255818", "STATE_ZONE": "BAD", "COASTAL_PERMIT_NUM": null, "SE_ANNO_CAD_DATA": null, "TRUE_VERTICAL_DEPTH": "8800.0", "first_seen": "True"}}, {"type": "Feature", "geometry": {"type": "Point", "coordinates": [-93.652826345, 32.747223075]}, "properties": {"OBJECTID": "243704", "id": "255819", "ORGANIZATION_ID": "G1212", "ORGOP_LINE_ID": "1", "WELL_CLASS_TYPE_CODE": null, "well": "VUA;PADGETT 6-17H", "well_num": "001", "township": "20N", "EFFECTIVE_DATE": "2026-08-18 05:00:00", "api": "17015253530000", "OPERATION_TYPE_CODE": "1", "issue_date": "2026-08-18 05:00:00", "spud": null, "status": "1", "WELL_STATUS_DATE": "2026-08-18 05:00:00", "ORIGINAL_COMPLETION_DATE": null, "LAST_RECOMPLETION_DATE": null, "LAST_TEST_DATE": null, "ORPHANED_FLAG": null, "PRODUCT_TYPE_CODE": "0", "CLASSIFICATION": null, "UNIT_WELL_FLAG": null, "EXEMPT_29E_FLAG": null, "FIELD_ID": "1448", "LEASE_NUM": null, "MUD_DENSITY": "0.0", "USDW_VALUE": null, "AREA_USDW_VALUE": "0.0", "SOURCE_AREA_USDW_VALUE": null, "MAX_SIP": null, "SIP_ASSIGNED_DATE": null, "SOURCE_OF_SIP_VALUE": null, "INJECTION_RATE": "0.0", "COMMENTS": null, "LOCATION": "SL: 412' FSL & 329' FWL OF S006-T20N-R12W. PBHL: 461' FNL & 1658' FWL OF S017-T20N-R12W.", "section": "006", "MERIDIAN": "W", "range": "12W", "PARISH_CODE": "8", "lat": "32.747223075", "lon": "-93.652826345", "depth": "17100.0", "LEGEND": "-1", "DISTRICT_CODE": null, "INSPECTION_DATE": null, "INSPECTION_YEAR_INDEX": null, "SECTION": "6", "INJECTION_VOLUME": null, "LOG_REVIEWED_FLAG": null, "ORPHAN_STATUS_CODE": null, "ORPHAN_STATUS_DATE": null, "field": "BENTON", "operator": "GRAYROCK ENERGY IV OPERATING COMPANY, LL", "parish": "BOSSIER", "SCOUT_WELL_STATUS_CODE": "1", "SCOUT_REPORT_DATE": "2026-08-18 05:00:00", "SCOUT_MEASURED_DEPTH": "17100.0", "SCOUT_TRUE_VERTICAL_DEPTH": null, "LUW_CODE": null, "LUW_TYPE_CODE": null, "LUW_NAME": null, "LW_REC_STATUS": null, "SURFACE_LAMBERT_X": "1645585.0", "SURFACE_LAMBERT_Y": "758657.0", "SURFACE_COORD_SYSTEM_CODE": "1", "SURFACE_ZONE": "N", "SURFACE_UTM83_X": "438841.825563365", "SURFACE_UTM83_Y": "3623453.11301108", "UPPER_PERFS": null, "LOWER_PERFS": null, "SANDS": null, "RESERVOIRS": null, "FORMATIONS": null, "HYPERLINK": "https://sonlite.dnr.state.la.us/ords/apex/r/sonris_pub/sonris_data_portal/well-profile?clear=CR,9000&ig[ig_master]_well_serial_num=255819", "GIS_UPD_DATE": "2026-08-19 09:05:20", "status_desc": "PERMITTED", "dirwell": null, "SCOUT_DETAIL": "SL: 412' FSL & 329' FWL OF S006-T20N-R12W. PBHL: 461' FNL & 1658' FWL OF S017-T20N-R12W.", "MINERAL_INTEREST_FLAG": null, "STATE_INTEREST_FLAG": null, "DOC_ACCESS": "https://sonlite.dnr.state.la.us/ords/r/sonris/ucmsearch/finddocuments?qtype=eq&idx=xwellserialnumber&val=255819", "STATE_ZONE": "BAD", "COASTAL_PERMIT_NUM": null, "SE_ANNO_CAD_DATA": null, "TRUE_VERTICAL_DEPTH": "8550.0", "first_seen": "True"}}, {"type": "Feature", "geometry": {"type": "Point", "coordinates": [-93.652946118, 32.747178022]}, "properties": {"OBJECTID": "243705", "id": "255820", "ORGANIZATION_ID": "E6963", "ORGOP_LINE_ID": "1", "WELL_CLASS_TYPE_CODE": null, "well": "VUA;PADGETT 6-17H", "well_num": "002", "township": "20N", "EFFECTIVE_DATE": "2026-08-18 05:00:00", "api": "17015253540000", "OPERATION_TYPE_CODE": "1", "issue_date": "2026-08-18 05:00:00", "spud": null, "status": "1", "WELL_STATUS_DATE": "2026-08-18 05:00:00", "ORIGINAL_COMPLETION_DATE": null, "LAST_RECOMPLETION_DATE": null, "LAST_TEST_DATE": null, "ORPHANED_FLAG": null, "PRODUCT_TYPE_CODE": "0", "CLASSIFICATION": null, "UNIT_WELL_FLAG": null, "EXEMPT_29E_FLAG": null, "FIELD_ID": "1448", "LEASE_NUM": null, "MUD_DENSITY": "0.0", "USDW_VALUE": null, "AREA_USDW_VALUE": "0.0", "SOURCE_AREA_USDW_VALUE": null, "MAX_SIP": null, "SIP_ASSIGNED_DATE": null, "SOURCE_OF_SIP_VALUE": null, "INJECTION_RATE": "0.0", "COMMENTS": null, "LOCATION": "SL: 395' FSL & 293' FWL OF S006-T20N-R12W. PBHL: 949' FNL & 1185 FWL OF S017-T20N-R12W.", "section": "006", "MERIDIAN": "W", "range": "12W", "PARISH_CODE": "8", "lat": "32.747178022", "lon": "-93.652946118", "depth": "17100.0", "LEGEND": "-1", "DISTRICT_CODE": null, "INSPECTION_DATE": null, "INSPECTION_YEAR_INDEX": null, "SECTION": "6", "INJECTION_VOLUME": null, "LOG_REVIEWED_FLAG": null, "ORPHAN_STATUS_CODE": null, "ORPHAN_STATUS_DATE": null, "field": "BENTON", "operator": "EMPRESA OPERATING, LLC", "parish": "BOSSIER", "SCOUT_WELL_STATUS_CODE": "1", "SCOUT_REPORT_DATE": "2026-08-18 05:00:00", "SCOUT_MEASURED_DEPTH": "17100.0", "SCOUT_TRUE_VERTICAL_DEPTH": null, "LUW_CODE": null, "LUW_TYPE_CODE": null, "LUW_NAME": null, "LW_REC_STATUS": null, "SURFACE_LAMBERT_X": "1645548.0", "SURFACE_LAMBERT_Y": "758641.0", "SURFACE_COORD_SYSTEM_CODE": "1", "SURFACE_ZONE": "N", "SURFACE_UTM83_X": "438830.574005785", "SURFACE_UTM83_Y": "3623448.18760021", "UPPER_PERFS": null, "LOWER_PERFS": null, "SANDS": null, "RESERVOIRS": null, "FORMATIONS": null, "HYPERLINK": "https://sonlite.dnr.state.la.us/ords/apex/r/sonris_pub/sonris_data_portal/well-profile?clear=CR,9000&ig[ig_master]_well_serial_num=255820", "GIS_UPD_DATE": "2026-08-19 09:05:20", "status_desc": "PERMITTED", "dirwell": null, "SCOUT_DETAIL": "SL: 395' FSL & 293' FWL OF S006-T20N-R12W. PBHL: 949' FNL & 1185 FWL OF S017-T20N-R12W.", "MINERAL_INTEREST_FLAG": null, "STATE_INTEREST_FLAG": null, "DOC_ACCESS": "https://sonlite.dnr.state.la.us/ords/r/sonris/ucmsearch/finddocuments?qtype=eq&idx=xwellserialnumber&val=255820", "STATE_ZONE": "BAD", "COASTAL_PERMIT_NUM": null, "SE_ANNO_CAD_DATA": null, "TRUE_VERTICAL_DEPTH": "8650.0", "first_seen": "True"}}]}