{"type": "FeatureCollection", "features": [{"type": "Feature", "geometry": {"type": "Point", "coordinates": [-92.109362866, 31.560532302]}, "properties": {"OBJECTID": "4280", "id": "255772", "ORGANIZATION_ID": "A1188", "ORGOP_LINE_ID": "1", "WELL_CLASS_TYPE_CODE": null, "well": "SHIRLEY ETAL", "well_num": "004", "township": "07N", "EFFECTIVE_DATE": "2026-07-17 05:00:00", "api": "17059269240000", "OPERATION_TYPE_CODE": "01", "issue_date": "2026-07-17 05:00:00", "spud": null, "status": "01", "WELL_STATUS_DATE": "2026-07-17 05:00:00", "ORIGINAL_COMPLETION_DATE": null, "LAST_RECOMPLETION_DATE": null, "LAST_TEST_DATE": null, "ORPHANED_FLAG": null, "PRODUCT_TYPE_CODE": "00", "CLASSIFICATION": null, "UNIT_WELL_FLAG": null, "EXEMPT_29E_FLAG": null, "FIELD_ID": "2384", "LEASE_NUM": null, "MUD_DENSITY": "0.0", "USDW_VALUE": null, "AREA_USDW_VALUE": "0.0", "SOURCE_AREA_USDW_VALUE": null, "MAX_SIP": null, "SIP_ASSIGNED_DATE": null, "SOURCE_OF_SIP_VALUE": null, "INJECTION_RATE": "0.0", "COMMENTS": null, "LOCATION": "1152' FNL & 228' FWL OF SEC 30-T7N-R4E.  PBHL: FROM SE CORNER OF SEC 41-T7N-R4E RUN N 19 D 01' 18\" W 333',  SEC 30-T17N-R4E.", "section": "030", "MERIDIAN": "W", "range": "04E", "PARISH_CODE": "30", "lat": "31.560532302", "lon": "-92.109362866", "depth": "4600.0", "LEGEND": "-1", "DISTRICT_CODE": null, "INSPECTION_DATE": null, "INSPECTION_YEAR_INDEX": null, "SECTION": "030", "INJECTION_VOLUME": null, "LOG_REVIEWED_FLAG": null, "ORPHAN_STATUS_CODE": null, "ORPHAN_STATUS_DATE": null, "field": "CATAHOULA LAKE", "operator": "ASHER GIDEON LLC", "parish": "LA SALLE", "SCOUT_WELL_STATUS_CODE": "01", "SCOUT_REPORT_DATE": "2026-07-17 05:00:00", "SCOUT_MEASURED_DEPTH": "4600.0", "SCOUT_TRUE_VERTICAL_DEPTH": null, "LUW_CODE": null, "LUW_TYPE_CODE": null, "LUW_NAME": null, "LW_REC_STATUS": null, "SURFACE_LAMBERT_X": "2121718.0", "SURFACE_LAMBERT_Y": "325289.0", "SURFACE_COORD_SYSTEM_CODE": "01", "SURFACE_ZONE": "N", "SURFACE_UTM83_X": "584525.763540453", "SURFACE_UTM83_Y": "3492069.56792872", "UPPER_PERFS": null, "LOWER_PERFS": null, "SANDS": null, "RESERVOIRS": null, "FORMATIONS": null, "HYPERLINK": "https://sonlite.dnr.state.la.us/ords/apex/r/sonris_pub/sonris_data_portal/well-profile?clear=CR,9000&ig[ig_master]_well_serial_num=255772", "GIS_UPD_DATE": "2026-07-28 09:05:37", "status_desc": "PERMITTED", "dirwell": null, "SCOUT_DETAIL": "1152' FNL & 228' FWL OF SEC 30-T7N-R4E.  PBHL: FROM SE CORNER OF SEC 41-T7N-R4E RUN N 19 D 01' 18\" W 333' & N 70 D 58' 42\" E 124' TO LOC STAKE, SEC 30-T7N-R4E.", "MINERAL_INTEREST_FLAG": null, "STATE_INTEREST_FLAG": null, "DOC_ACCESS": "https://sonlite.dnr.state.la.us/ords/r/sonris/ucmsearch/finddocuments?qtype=eq&idx=xwellserialnumber&val=255772", "STATE_ZONE": "NORTH", "COASTAL_PERMIT_NUM": null, "SE_ANNO_CAD_DATA": null, "TRUE_VERTICAL_DEPTH": "4600.0", "first_seen": "False"}}, {"type": "Feature", "geometry": {"type": "Point", "coordinates": [-92.803701697, 32.567640304]}, "properties": {"OBJECTID": "4281", "id": "255773", "ORGANIZATION_ID": "F139", "ORGOP_LINE_ID": "1", "WELL_CLASS_TYPE_CODE": null, "well": "J O LONG ETAL", "well_num": "015", "township": "06S", "EFFECTIVE_DATE": "2026-07-16 05:00:00", "api": "17077206380000", "OPERATION_TYPE_CODE": "01", "issue_date": "2026-07-16 05:00:00", "spud": null, "status": "01", "WELL_STATUS_DATE": "2026-07-16 05:00:00", "ORIGINAL_COMPLETION_DATE": null, "LAST_RECOMPLETION_DATE": null, "LAST_TEST_DATE": null, "ORPHANED_FLAG": null, "PRODUCT_TYPE_CODE": "00", "CLASSIFICATION": null, "UNIT_WELL_FLAG": null, "EXEMPT_29E_FLAG": null, "FIELD_ID": "3913", "LEASE_NUM": null, "MUD_DENSITY": "0.0", "USDW_VALUE": null, "AREA_USDW_VALUE": "0.0", "SOURCE_AREA_USDW_VALUE": null, "MAX_SIP": null, "SIP_ASSIGNED_DATE": null, "SOURCE_OF_SIP_VALUE": null, "INJECTION_RATE": "0.0", "COMMENTS": null, "LOCATION": "N 65 D 54' 48\" W 10,972.18' FROM NGS MON. \"BOMER\" FALLING IN SEC 29-T6S-R8E.", "section": "029", "MERIDIAN": "W", "range": "08E", "PARISH_CODE": "39", "lat": "32.567640304", "lon": "-92.803701697", "depth": "8600.0", "LEGEND": "01", "DISTRICT_CODE": null, "INSPECTION_DATE": null, "INSPECTION_YEAR_INDEX": null, "SECTION": "029", "INJECTION_VOLUME": null, "LOG_REVIEWED_FLAG": null, "ORPHAN_STATUS_CODE": null, "ORPHAN_STATUS_DATE": null, "field": "FORDOCHE", "operator": "FORDOCHE OPERATING COMPANY, LLC", "parish": "POINTE COUPEE", "SCOUT_WELL_STATUS_CODE": "01", "SCOUT_REPORT_DATE": "2026-07-16 05:00:00", "SCOUT_MEASURED_DEPTH": "8600.0", "SCOUT_TRUE_VERTICAL_DEPTH": null, "LUW_CODE": null, "LUW_TYPE_CODE": null, "LUW_NAME": null, "LW_REC_STATUS": null, "SURFACE_LAMBERT_X": "1906484.0", "SURFACE_LAMBERT_Y": "691564.0", "SURFACE_COORD_SYSTEM_CODE": "01", "SURFACE_ZONE": "N", "SURFACE_UTM83_X": "518426.29954264", "SURFACE_UTM83_Y": "3603374.1565376", "UPPER_PERFS": null, "LOWER_PERFS": null, "SANDS": null, "RESERVOIRS": null, "FORMATIONS": null, "HYPERLINK": "https://sonlite.dnr.state.la.us/ords/apex/r/sonris_pub/sonris_data_portal/well-profile?clear=CR,9000&ig[ig_master]_well_serial_num=255773", "GIS_UPD_DATE": "2026-07-28 09:05:37", "status_desc": "PERMITTED", "dirwell": null, "SCOUT_DETAIL": "N 65 D 54' 48\" W 10,972.18' FROM NGS MON. \"BOMER\" FALLING IN SEC 29-T6S-R8E.", "MINERAL_INTEREST_FLAG": null, "STATE_INTEREST_FLAG": null, "DOC_ACCESS": "https://sonlite.dnr.state.la.us/ords/r/sonris/ucmsearch/finddocuments?qtype=eq&idx=xwellserialnumber&val=255773", "STATE_ZONE": "SOUTH", "COASTAL_PERMIT_NUM": null, "SE_ANNO_CAD_DATA": null, "TRUE_VERTICAL_DEPTH": "8600.0", "first_seen": "True"}}, {"type": "Feature", "geometry": {"type": "Point", "coordinates": [-92.274070286, 31.799062683]}, "properties": {"OBJECTID": "4282", "id": "255774", "ORGANIZATION_ID": "S1132", "ORGOP_LINE_ID": "1", "WELL_CLASS_TYPE_CODE": null, "well": "MILLS", "well_num": "017", "township": "10N", "EFFECTIVE_DATE": "2026-07-16 05:00:00", "api": "17059269250000", "OPERATION_TYPE_CODE": "01", "issue_date": "2026-07-16 05:00:00", "spud": null, "status": "01", "WELL_STATUS_DATE": "2026-07-16 05:00:00", "ORIGINAL_COMPLETION_DATE": null, "LAST_RECOMPLETION_DATE": null, "LAST_TEST_DATE": null, "ORPHANED_FLAG": null, "PRODUCT_TYPE_CODE": "00", "CLASSIFICATION": null, "UNIT_WELL_FLAG": null, "EXEMPT_29E_FLAG": null, "FIELD_ID": "7130", "LEASE_NUM": null, "MUD_DENSITY": "0.0", "USDW_VALUE": null, "AREA_USDW_VALUE": "0.0", "SOURCE_AREA_USDW_VALUE": null, "MAX_SIP": null, "SIP_ASSIGNED_DATE": null, "SOURCE_OF_SIP_VALUE": null, "INJECTION_RATE": "0.0", "COMMENTS": null, "LOCATION": "881' FSL & 1540' FWL OF SEC 33-T10N-R2E.", "section": "033", "MERIDIAN": "W", "range": "02E", "PARISH_CODE": "30", "lat": "31.799062683", "lon": "-92.274070286", "depth": "2850.0", "LEGEND": "01", "DISTRICT_CODE": null, "INSPECTION_DATE": null, "INSPECTION_YEAR_INDEX": null, "SECTION": "033", "INJECTION_VOLUME": null, "LOG_REVIEWED_FLAG": null, "ORPHAN_STATUS_CODE": null, "ORPHAN_STATUS_DATE": null, "field": "OLLA", "operator": "SIGNAL OPERATING L.L.C.", "parish": "LA SALLE", "SCOUT_WELL_STATUS_CODE": "01", "SCOUT_REPORT_DATE": "2026-07-16 05:00:00", "SCOUT_MEASURED_DEPTH": "2850.0", "SCOUT_TRUE_VERTICAL_DEPTH": null, "LUW_CODE": null, "LUW_TYPE_CODE": null, "LUW_NAME": null, "LW_REC_STATUS": null, "SURFACE_LAMBERT_X": "2070237.0", "SURFACE_LAMBERT_Y": "411909.0", "SURFACE_COORD_SYSTEM_CODE": "01", "SURFACE_ZONE": "N", "SURFACE_UTM83_X": "568717.879876357", "SURFACE_UTM83_Y": "3518393.05818199", "UPPER_PERFS": null, "LOWER_PERFS": null, "SANDS": null, "RESERVOIRS": null, "FORMATIONS": null, "HYPERLINK": "https://sonlite.dnr.state.la.us/ords/apex/r/sonris_pub/sonris_data_portal/well-profile?clear=CR,9000&ig[ig_master]_well_serial_num=255774", "GIS_UPD_DATE": "2026-07-28 09:05:37", "status_desc": "PERMITTED", "dirwell": null, "SCOUT_DETAIL": "881' FSL & 1540' FWL OF SEC 33-T10N-R2E.", "MINERAL_INTEREST_FLAG": null, "STATE_INTEREST_FLAG": null, "DOC_ACCESS": "https://sonlite.dnr.state.la.us/ords/r/sonris/ucmsearch/finddocuments?qtype=eq&idx=xwellserialnumber&val=255774", "STATE_ZONE": "NORTH", "COASTAL_PERMIT_NUM": null, "SE_ANNO_CAD_DATA": null, "TRUE_VERTICAL_DEPTH": "2850.0", "first_seen": "True"}}, {"type": "Feature", "geometry": {"type": "Point", "coordinates": [-91.681465636, 31.683607555]}, "properties": {"OBJECTID": "3682", "id": "255775", "ORGANIZATION_ID": "B257", "ORGOP_LINE_ID": "1", "WELL_CLASS_TYPE_CODE": null, "well": "WEEKS NB", "well_num": "001", "township": "08N", "EFFECTIVE_DATE": "2026-07-17 05:00:00", "api": "17029233300000", "OPERATION_TYPE_CODE": "01", "issue_date": "2026-07-17 05:00:00", "spud": null, "status": "01", "WELL_STATUS_DATE": "2026-07-17 05:00:00", "ORIGINAL_COMPLETION_DATE": null, "LAST_RECOMPLETION_DATE": null, "LAST_TEST_DATE": null, "ORPHANED_FLAG": null, "PRODUCT_TYPE_CODE": "00", "CLASSIFICATION": null, "UNIT_WELL_FLAG": null, "EXEMPT_29E_FLAG": null, "FIELD_ID": "0194", "LEASE_NUM": null, "MUD_DENSITY": "0.0", "USDW_VALUE": null, "AREA_USDW_VALUE": "0.0", "SOURCE_AREA_USDW_VALUE": null, "MAX_SIP": null, "SIP_ASSIGNED_DATE": null, "SOURCE_OF_SIP_VALUE": null, "INJECTION_RATE": "0.0", "COMMENTS": null, "LOCATION": "90' FSL & 330 FEL OF NW/4 OF THE SW/4 OF SEC 8-T8N-R8E.", "section": "008", "MERIDIAN": "W", "range": "08E", "PARISH_CODE": "15", "lat": "31.683607555", "lon": "-91.681465636", "depth": "4950.0", "LEGEND": "01", "DISTRICT_CODE": null, "INSPECTION_DATE": null, "INSPECTION_YEAR_INDEX": null, "SECTION": "008", "INJECTION_VOLUME": null, "LOG_REVIEWED_FLAG": null, "ORPHAN_STATUS_CODE": null, "ORPHAN_STATUS_DATE": null, "field": "BALLINA", "operator": "BAY GAS, LLC", "parish": "CONCORDIA", "SCOUT_WELL_STATUS_CODE": "01", "SCOUT_REPORT_DATE": "2026-07-17 05:00:00", "SCOUT_MEASURED_DEPTH": "4950.0", "SCOUT_TRUE_VERTICAL_DEPTH": null, "LUW_CODE": null, "LUW_TYPE_CODE": null, "LUW_NAME": null, "LW_REC_STATUS": null, "SURFACE_LAMBERT_X": "2254652.0", "SURFACE_LAMBERT_Y": "370800.0", "SURFACE_COORD_SYSTEM_CODE": "01", "SURFACE_ZONE": "N", "SURFACE_UTM83_X": "624973.37042677", "SURFACE_UTM83_Y": "3506122.20809971", "UPPER_PERFS": null, "LOWER_PERFS": null, "SANDS": null, "RESERVOIRS": null, "FORMATIONS": null, "HYPERLINK": "https://sonlite.dnr.state.la.us/ords/apex/r/sonris_pub/sonris_data_portal/well-profile?clear=CR,9000&ig[ig_master]_well_serial_num=255775", "GIS_UPD_DATE": "2026-07-28 09:05:37", "status_desc": "PERMITTED", "dirwell": null, "SCOUT_DETAIL": "90' FSL & 330 FEL OF NW/4 OF THE SW/4 OF SEC 8-T8N-R8E.", "MINERAL_INTEREST_FLAG": null, "STATE_INTEREST_FLAG": null, "DOC_ACCESS": "https://sonlite.dnr.state.la.us/ords/r/sonris/ucmsearch/finddocuments?qtype=eq&idx=xwellserialnumber&val=255775", "STATE_ZONE": "NORTH", "COASTAL_PERMIT_NUM": null, "SE_ANNO_CAD_DATA": null, "TRUE_VERTICAL_DEPTH": "4950.0", "first_seen": "True"}}, {"type": "Feature", "geometry": {"type": "Point", "coordinates": [-92.2536742, 31.787316329]}, "properties": {"OBJECTID": "7433", "id": "255776", "ORGANIZATION_ID": "C359", "ORGOP_LINE_ID": "1", "WELL_CLASS_TYPE_CODE": null, "well": "TREMONT LBR CO", "well_num": "A-C-12", "township": "09N", "EFFECTIVE_DATE": "2026-07-17 05:00:00", "api": "17059242560000", "OPERATION_TYPE_CODE": "01", "issue_date": "2026-07-17 05:00:00", "spud": null, "status": "01", "WELL_STATUS_DATE": "2026-07-17 05:00:00", "ORIGINAL_COMPLETION_DATE": null, "LAST_RECOMPLETION_DATE": null, "LAST_TEST_DATE": null, "ORPHANED_FLAG": null, "PRODUCT_TYPE_CODE": "00", "CLASSIFICATION": null, "UNIT_WELL_FLAG": null, "EXEMPT_29E_FLAG": null, "FIELD_ID": "7130", "LEASE_NUM": null, "MUD_DENSITY": "0.0", "USDW_VALUE": null, "AREA_USDW_VALUE": "0.0", "SOURCE_AREA_USDW_VALUE": null, "MAX_SIP": null, "SIP_ASSIGNED_DATE": null, "SOURCE_OF_SIP_VALUE": null, "INJECTION_RATE": "0.0", "COMMENTS": null, "LOCATION": "600' FSL & 50' FEL OF THE NE/4 OF THE SW/4, SEC 3-T9N-R2E. (REDRILL OF SERIAL #209578- P&A)", "section": "003", "MERIDIAN": "W", "range": "02E", "PARISH_CODE": "30", "lat": "31.787316329", "lon": "-92.2536742", "depth": "2700.0", "LEGEND": "01", "DISTRICT_CODE": null, "INSPECTION_DATE": null, "INSPECTION_YEAR_INDEX": null, "SECTION": "003", "INJECTION_VOLUME": null, "LOG_REVIEWED_FLAG": null, "ORPHAN_STATUS_CODE": null, "ORPHAN_STATUS_DATE": null, "field": "OLLA", "operator": "C.T.R. OIL, INC.", "parish": "LA SALLE", "SCOUT_WELL_STATUS_CODE": "01", "SCOUT_REPORT_DATE": "2026-07-17 05:00:00", "SCOUT_MEASURED_DEPTH": "2700.0", "SCOUT_TRUE_VERTICAL_DEPTH": null, "LUW_CODE": null, "LUW_TYPE_CODE": null, "LUW_NAME": null, "LW_REC_STATUS": null, "SURFACE_LAMBERT_X": "2076583.0", "SURFACE_LAMBERT_Y": "407650.0", "SURFACE_COORD_SYSTEM_CODE": "01", "SURFACE_ZONE": "N", "SURFACE_UTM83_X": "570657.595952656", "SURFACE_UTM83_Y": "3517104.12858985", "UPPER_PERFS": null, "LOWER_PERFS": null, "SANDS": null, "RESERVOIRS": null, "FORMATIONS": null, "HYPERLINK": "https://sonlite.dnr.state.la.us/ords/apex/r/sonris_pub/sonris_data_portal/well-profile?clear=CR,9000&ig[ig_master]_well_serial_num=255776", "GIS_UPD_DATE": "2026-07-28 09:05:37", "status_desc": "PERMITTED", "dirwell": null, "SCOUT_DETAIL": "600' FSL & 50' FEL OF THE NE/4 OF THE SW/4, SEC 3-T9N-R2E. (REDRILL OF SERIAL #209578- P&A)", "MINERAL_INTEREST_FLAG": null, "STATE_INTEREST_FLAG": null, "DOC_ACCESS": "https://sonlite.dnr.state.la.us/ords/r/sonris/ucmsearch/finddocuments?qtype=eq&idx=xwellserialnumber&val=255776", "STATE_ZONE": "NORTH", "COASTAL_PERMIT_NUM": null, "SE_ANNO_CAD_DATA": null, "TRUE_VERTICAL_DEPTH": "2700.0", "first_seen": "True"}}]}