{"type": "FeatureCollection", "features": [{"type": "Feature", "geometry": {"type": "Point", "coordinates": [-91.280920356, 32.779609469]}, "properties": {"OBJECTID": "4006", "id": "255839", "ORGANIZATION_ID": "W7985", "ORGOP_LINE_ID": "1", "WELL_CLASS_TYPE_CODE": null, "well": "DON AND LINDA WHITLOCK", "well_num": "001", "township": "21N", "EFFECTIVE_DATE": "2026-09-04 05:00:00", "api": "17035200900000", "OPERATION_TYPE_CODE": "1", "issue_date": "2026-09-04 05:00:00", "spud": null, "status": "1", "WELL_STATUS_DATE": "2026-09-04 05:00:00", "ORIGINAL_COMPLETION_DATE": null, "LAST_RECOMPLETION_DATE": null, "LAST_TEST_DATE": null, "ORPHANED_FLAG": null, "PRODUCT_TYPE_CODE": "0", "CLASSIFICATION": null, "UNIT_WELL_FLAG": null, "EXEMPT_29E_FLAG": null, "FIELD_ID": "9709", "LEASE_NUM": null, "MUD_DENSITY": "0.0", "USDW_VALUE": null, "AREA_USDW_VALUE": "0.0", "SOURCE_AREA_USDW_VALUE": null, "MAX_SIP": null, "SIP_ASSIGNED_DATE": null, "SOURCE_OF_SIP_VALUE": null, "INJECTION_RATE": "0.0", "COMMENTS": null, "LOCATION": "LAT N 32D 46' 45.99\" LONG W 91D 16' 50.87\". 2534' N AND 2126' E OF THE SW COR OF SEC 58, T21N-R12E.", "section": "058", "MERIDIAN": "W", "range": "12E", "PARISH_CODE": "18", "lat": "32.779609469", "lon": "-91.280920356", "depth": "2990.0", "LEGEND": "1", "DISTRICT_CODE": null, "INSPECTION_DATE": null, "INSPECTION_YEAR_INDEX": null, "SECTION": "58", "INJECTION_VOLUME": null, "LOG_REVIEWED_FLAG": null, "ORPHAN_STATUS_CODE": null, "ORPHAN_STATUS_DATE": null, "field": "WILDCAT-NO LA MONROE DIST", "operator": "WLE, LLC MS.", "parish": "EAST CARROLL", "SCOUT_WELL_STATUS_CODE": "1", "SCOUT_REPORT_DATE": "2026-09-04 05:00:00", "SCOUT_MEASURED_DEPTH": "2990.0", "SCOUT_TRUE_VERTICAL_DEPTH": null, "LUW_CODE": null, "LUW_TYPE_CODE": null, "LUW_NAME": null, "LW_REC_STATUS": null, "SURFACE_LAMBERT_X": "2374751.0", "SURFACE_LAMBERT_Y": "770663.0", "SURFACE_COORD_SYSTEM_CODE": "1", "SURFACE_ZONE": "N", "SURFACE_UTM83_X": "660997.396017823", "SURFACE_UTM83_Y": "3628162.7378896", "UPPER_PERFS": null, "LOWER_PERFS": null, "SANDS": null, "RESERVOIRS": null, "FORMATIONS": null, "HYPERLINK": "https://sonlite.dnr.state.la.us/ords/apex/r/sonris_pub/sonris_data_portal/well-profile?clear=CR,9000&ig[ig_master]_well_serial_num=255839", "GIS_UPD_DATE": "2026-09-08 09:05:24", "status_desc": "PERMITTED", "dirwell": null, "SCOUT_DETAIL": "LAT N 32D 46' 45.99\" LONG W 91D 16' 50.87\". 2534' N AND 2126' E OF THE SW COR OF SEC 58, T21N-R12E.", "MINERAL_INTEREST_FLAG": null, "STATE_INTEREST_FLAG": null, "DOC_ACCESS": "https://sonlite.dnr.state.la.us/ords/r/sonris/ucmsearch/finddocuments?qtype=eq&idx=xwellserialnumber&val=255839", "STATE_ZONE": "NORTH", "COASTAL_PERMIT_NUM": null, "SE_ANNO_CAD_DATA": null, "TRUE_VERTICAL_DEPTH": "2990.0", "first_seen": "True"}}]}