{"type": "FeatureCollection", "features": [{"type": "Feature", "geometry": {"type": "Point", "coordinates": [-91.849916279, 31.132097693]}, "properties": {"OBJECTID": "243950", "id": "255836", "ORGANIZATION_ID": "G6643", "ORGOP_LINE_ID": "1", "WELL_CLASS_TYPE_CODE": null, "well": "BLACKSTONE MINERALS 22", "well_num": "001", "township": "02N", "EFFECTIVE_DATE": "2026-09-03 05:00:00", "api": "17009206840000", "OPERATION_TYPE_CODE": "1", "issue_date": "2026-09-03 05:00:00", "spud": null, "status": "1", "WELL_STATUS_DATE": "2026-09-03 05:00:00", "ORIGINAL_COMPLETION_DATE": null, "LAST_RECOMPLETION_DATE": null, "LAST_TEST_DATE": null, "ORPHANED_FLAG": null, "PRODUCT_TYPE_CODE": "0", "CLASSIFICATION": null, "UNIT_WELL_FLAG": null, "EXEMPT_29E_FLAG": null, "FIELD_ID": "708", "LEASE_NUM": null, "MUD_DENSITY": "0.0", "USDW_VALUE": null, "AREA_USDW_VALUE": "0.0", "SOURCE_AREA_USDW_VALUE": null, "MAX_SIP": null, "SIP_ASSIGNED_DATE": null, "SOURCE_OF_SIP_VALUE": null, "INJECTION_RATE": "0.0", "COMMENTS": null, "LOCATION": "FROM NW COR SEC 22, T2N-R6E, G S'LY ALG THE W BONDARY OF SEC 22, 3038'; THNCE GO E'LY @ RT ANGLES, 1926' TO LOC IN SEC 22, T2N-R6E.", "section": "022", "MERIDIAN": "W", "range": "06E", "PARISH_CODE": "5", "lat": "31.132097693", "lon": "-91.849916279", "depth": "5250.0", "LEGEND": "1", "DISTRICT_CODE": null, "INSPECTION_DATE": null, "INSPECTION_YEAR_INDEX": null, "SECTION": "22", "INJECTION_VOLUME": null, "LOG_REVIEWED_FLAG": null, "ORPHAN_STATUS_CODE": null, "ORPHAN_STATUS_DATE": null, "field": "BAYOU DES LANCE", "operator": "GEOTERRE OPERATING, L.L.C.", "parish": "AVOYELLES", "SCOUT_WELL_STATUS_CODE": "1", "SCOUT_REPORT_DATE": "2026-09-03 05:00:00", "SCOUT_MEASURED_DEPTH": "5250.0", "SCOUT_TRUE_VERTICAL_DEPTH": null, "LUW_CODE": null, "LUW_TYPE_CODE": null, "LUW_NAME": null, "LW_REC_STATUS": null, "SURFACE_LAMBERT_X": "2203460.0", "SURFACE_LAMBERT_Y": "169837.0", "SURFACE_COORD_SYSTEM_CODE": "1", "SURFACE_ZONE": "N", "SURFACE_UTM83_X": "609645.774582681", "SURFACE_UTM83_Y": "3444810.81845861", "UPPER_PERFS": null, "LOWER_PERFS": null, "SANDS": null, "RESERVOIRS": null, "FORMATIONS": null, "HYPERLINK": "https://sonlite.dnr.state.la.us/ords/apex/r/sonris_pub/sonris_data_portal/well-profile?clear=CR,9000&ig[ig_master]_well_serial_num=255836", "GIS_UPD_DATE": "2026-09-04 09:05:12", "status_desc": "PERMITTED", "dirwell": null, "SCOUT_DETAIL": "FROM NW COR SEC 22, T2N-R6E, G S'LY ALG THE W BONDARY OF SEC 22, 3038'; THNCE GO E'LY @ RT ANGLES, 1926' TO LOC IN SEC 22, T2N-R6E.", "MINERAL_INTEREST_FLAG": null, "STATE_INTEREST_FLAG": null, "DOC_ACCESS": "https://sonlite.dnr.state.la.us/ords/r/sonris/ucmsearch/finddocuments?qtype=eq&idx=xwellserialnumber&val=255836", "STATE_ZONE": "SOUTH", "COASTAL_PERMIT_NUM": null, "SE_ANNO_CAD_DATA": null, "TRUE_VERTICAL_DEPTH": "5250.0", "first_seen": "True"}}, {"type": "Feature", "geometry": {"type": "Point", "coordinates": [-91.760737841, 31.058139668]}, "properties": {"OBJECTID": "243951", "id": "255837", "ORGANIZATION_ID": "G6643", "ORGOP_LINE_ID": "1", "WELL_CLASS_TYPE_CODE": null, "well": "STATE LEASE 22349", "well_num": "001", "township": "01N", "EFFECTIVE_DATE": "2026-09-03 05:00:00", "api": "17009206850000", "OPERATION_TYPE_CODE": "1", "issue_date": "2026-09-03 05:00:00", "spud": null, "status": "1", "WELL_STATUS_DATE": "2026-09-03 05:00:00", "ORIGINAL_COMPLETION_DATE": null, "LAST_RECOMPLETION_DATE": null, "LAST_TEST_DATE": null, "ORPHANED_FLAG": null, "PRODUCT_TYPE_CODE": "0", "CLASSIFICATION": null, "UNIT_WELL_FLAG": null, "EXEMPT_29E_FLAG": null, "FIELD_ID": "9709", "LEASE_NUM": null, "MUD_DENSITY": "0.0", "USDW_VALUE": null, "AREA_USDW_VALUE": "0.0", "SOURCE_AREA_USDW_VALUE": null, "MAX_SIP": null, "SIP_ASSIGNED_DATE": null, "SOURCE_OF_SIP_VALUE": null, "INJECTION_RATE": "0.0", "COMMENTS": null, "LOCATION": "FRM NW COR S16-T1N-R7E, LA PRPL M, SW LAND DST G S'LY ALG THE LINE BTWN SEC16 AND SEC17 FOR 3130'; THNCE G E'LY @ RT ANGLES FOR 3180' TO THE LOC IN S16-T1N-R7E.", "section": "016", "MERIDIAN": "W", "range": "07E", "PARISH_CODE": "5", "lat": "31.058139668", "lon": "-91.760737841", "depth": "4400.0", "LEGEND": "1", "DISTRICT_CODE": null, "INSPECTION_DATE": null, "INSPECTION_YEAR_INDEX": null, "SECTION": "16", "INJECTION_VOLUME": null, "LOG_REVIEWED_FLAG": null, "ORPHAN_STATUS_CODE": null, "ORPHAN_STATUS_DATE": null, "field": "WILDCAT-NO LA MONROE DIST", "operator": "GEOTERRE OPERATING, L.L.C.", "parish": "AVOYELLES", "SCOUT_WELL_STATUS_CODE": "1", "SCOUT_REPORT_DATE": "2026-09-03 05:00:00", "SCOUT_MEASURED_DEPTH": "4400.0", "SCOUT_TRUE_VERTICAL_DEPTH": null, "LUW_CODE": null, "LUW_TYPE_CODE": null, "LUW_NAME": null, "LW_REC_STATUS": null, "SURFACE_LAMBERT_X": "2231547.0", "SURFACE_LAMBERT_Y": "143114.0", "SURFACE_COORD_SYSTEM_CODE": "1", "SURFACE_ZONE": "N", "SURFACE_UTM83_X": "618239.982380831", "SURFACE_UTM83_Y": "3436705.06297446", "UPPER_PERFS": null, "LOWER_PERFS": null, "SANDS": null, "RESERVOIRS": null, "FORMATIONS": null, "HYPERLINK": "https://sonlite.dnr.state.la.us/ords/apex/r/sonris_pub/sonris_data_portal/well-profile?clear=CR,9000&ig[ig_master]_well_serial_num=255837", "GIS_UPD_DATE": "2026-09-04 09:05:12", "status_desc": "PERMITTED", "dirwell": null, "SCOUT_DETAIL": "FRM NW COR S16-T1N-R7E, LA PRPL M, SW LAND DST G S'LY ALG THE LINE BTWN SEC16 AND SEC17 FOR 3130'; THNCE G E'LY @ RT ANGLES FOR 3180' TO THE LOC IN S16-T1N-R7E.", "MINERAL_INTEREST_FLAG": null, "STATE_INTEREST_FLAG": null, "DOC_ACCESS": "https://sonlite.dnr.state.la.us/ords/r/sonris/ucmsearch/finddocuments?qtype=eq&idx=xwellserialnumber&val=255837", "STATE_ZONE": "SOUTH", "COASTAL_PERMIT_NUM": null, "SE_ANNO_CAD_DATA": null, "TRUE_VERTICAL_DEPTH": "4400.0", "first_seen": "True"}}, {"type": "Feature", "geometry": {"type": "Point", "coordinates": [-93.973568569, 32.357178283]}, "properties": {"OBJECTID": "243549", "id": "255838", "ORGANIZATION_ID": "E1152", "ORGOP_LINE_ID": "1", "WELL_CLASS_TYPE_CODE": null, "well": "MCF24&23&14-16-16LHC", "well_num": "001", "township": "16N", "EFFECTIVE_DATE": "2026-09-03 05:00:00", "api": "17017370700000", "OPERATION_TYPE_CODE": "1", "issue_date": "2026-09-03 05:00:00", "spud": null, "status": "1", "WELL_STATUS_DATE": "2026-09-03 05:00:00", "ORIGINAL_COMPLETION_DATE": null, "LAST_RECOMPLETION_DATE": null, "LAST_TEST_DATE": null, "ORPHANED_FLAG": null, "PRODUCT_TYPE_CODE": "0", "CLASSIFICATION": null, "UNIT_WELL_FLAG": null, "EXEMPT_29E_FLAG": null, "FIELD_ID": "4313", "LEASE_NUM": null, "MUD_DENSITY": "0.0", "USDW_VALUE": null, "AREA_USDW_VALUE": "0.0", "SOURCE_AREA_USDW_VALUE": null, "MAX_SIP": null, "SIP_ASSIGNED_DATE": null, "SOURCE_OF_SIP_VALUE": null, "INJECTION_RATE": "0.0", "COMMENTS": null, "LOCATION": "SL: 445' FSL & 2157' FEL OF SEC, T16N-R16W. PBHL: 100' FNL & 787' FEL OF SEC 14, T16N-R16W.", "section": "023", "MERIDIAN": "W", "range": "16W", "PARISH_CODE": "9", "lat": "32.357178283", "lon": "-93.973568569", "depth": "35000.0", "LEGEND": "-1", "DISTRICT_CODE": null, "INSPECTION_DATE": null, "INSPECTION_YEAR_INDEX": null, "SECTION": "23", "INJECTION_VOLUME": null, "LOG_REVIEWED_FLAG": null, "ORPHAN_STATUS_CODE": null, "ORPHAN_STATUS_DATE": null, "field": "GREENWOOD-WASKOM", "operator": "EXPAND OPERATING LLC", "parish": "CADDO", "SCOUT_WELL_STATUS_CODE": "1", "SCOUT_REPORT_DATE": "2026-09-03 05:00:00", "SCOUT_MEASURED_DEPTH": "35000.0", "SCOUT_TRUE_VERTICAL_DEPTH": null, "LUW_CODE": null, "LUW_TYPE_CODE": null, "LUW_NAME": null, "LW_REC_STATUS": null, "SURFACE_LAMBERT_X": "1545041.0", "SURFACE_LAMBERT_Y": "617958.0", "SURFACE_COORD_SYSTEM_CODE": "1", "SURFACE_ZONE": "N", "SURFACE_UTM83_X": "408397.621477523", "SURFACE_UTM83_Y": "3580443.87108768", "UPPER_PERFS": null, "LOWER_PERFS": null, "SANDS": null, "RESERVOIRS": null, "FORMATIONS": null, "HYPERLINK": "https://sonlite.dnr.state.la.us/ords/apex/r/sonris_pub/sonris_data_portal/well-profile?clear=CR,9000&ig[ig_master]_well_serial_num=255838", "GIS_UPD_DATE": "2026-09-04 09:05:12", "status_desc": "PERMITTED", "dirwell": null, "SCOUT_DETAIL": "SL: 445' FSL & 2157' FEL OF SEC, T16N-R16W. PBHL: 100' FNL & 787' FEL OF SEC 14, T16N-R16W.", "MINERAL_INTEREST_FLAG": null, "STATE_INTEREST_FLAG": null, "DOC_ACCESS": "https://sonlite.dnr.state.la.us/ords/r/sonris/ucmsearch/finddocuments?qtype=eq&idx=xwellserialnumber&val=255838", "STATE_ZONE": "BAD", "COASTAL_PERMIT_NUM": null, "SE_ANNO_CAD_DATA": null, "TRUE_VERTICAL_DEPTH": "14000.0", "first_seen": "False"}}]}