{"type": "FeatureCollection", "features": [{"type": "Feature", "geometry": {"type": "Point", "coordinates": [-93.607352517, 32.925136665]}, "properties": {"OBJECTID": "223775", "id": "255847", "ORGANIZATION_ID": "W228", "ORGOP_LINE_ID": "1", "WELL_CLASS_TYPE_CODE": null, "well": "CROWELL ET AL 36", "well_num": "001", "township": "01S", "EFFECTIVE_DATE": "2026-09-23 05:00:00", "api": "17039206120000", "OPERATION_TYPE_CODE": "1", "issue_date": "2026-09-23 05:00:00", "spud": null, "status": "1", "WELL_STATUS_DATE": "2026-09-23 05:00:00", "ORIGINAL_COMPLETION_DATE": null, "LAST_RECOMPLETION_DATE": null, "LAST_TEST_DATE": null, "ORPHANED_FLAG": null, "PRODUCT_TYPE_CODE": "0", "CLASSIFICATION": null, "UNIT_WELL_FLAG": null, "EXEMPT_29E_FLAG": null, "FIELD_ID": "2595", "LEASE_NUM": null, "MUD_DENSITY": "0.0", "USDW_VALUE": null, "AREA_USDW_VALUE": "0.0", "SOURCE_AREA_USDW_VALUE": null, "MAX_SIP": null, "SIP_ASSIGNED_DATE": null, "SOURCE_OF_SIP_VALUE": null, "INJECTION_RATE": "0.0", "COMMENTS": null, "LOCATION": "2102 N'LY ALG THE E LINE OF SEC 36 FROM ITS SE COR & 434' W'LY @ RIGHT ANGLES LOC IN SEC 36-T1S-R1W.", "section": "036", "MERIDIAN": "W", "range": "01W", "PARISH_CODE": "20", "lat": "32.925136665", "lon": "-93.607352517", "depth": "12500.0", "LEGEND": "1", "DISTRICT_CODE": null, "INSPECTION_DATE": null, "INSPECTION_YEAR_INDEX": null, "SECTION": "36", "INJECTION_VOLUME": null, "LOG_REVIEWED_FLAG": null, "ORPHAN_STATUS_CODE": null, "ORPHAN_STATUS_DATE": null, "field": "CHENEYVILLE, WEST", "operator": "WAGNER OIL LOUISIANA", "parish": "EVANGELINE", "SCOUT_WELL_STATUS_CODE": "1.0", "SCOUT_REPORT_DATE": "2026-09-23 05:00:00", "SCOUT_MEASURED_DEPTH": "12500.0", "SCOUT_TRUE_VERTICAL_DEPTH": null, "LUW_CODE": null, "LUW_TYPE_CODE": null, "LUW_NAME": null, "LW_REC_STATUS": null, "SURFACE_LAMBERT_X": "1660228.0", "SURFACE_LAMBERT_Y": "823244.0", "SURFACE_COORD_SYSTEM_CODE": "1", "SURFACE_ZONE": "N", "SURFACE_UTM83_X": "443215.353327643", "SURFACE_UTM83_Y": "3643151.22959119", "UPPER_PERFS": null, "LOWER_PERFS": null, "SANDS": null, "RESERVOIRS": null, "FORMATIONS": null, "HYPERLINK": "https://sonlite.dnr.state.la.us/ords/apex/r/sonris_pub/sonris_data_portal/well-profile?clear=CR,9000&ig[ig_master]_well_serial_num=255847", "GIS_UPD_DATE": "2026-09-24 09:05:18", "status_desc": "PERMITTED", "dirwell": null, "SCOUT_DETAIL": "2102 N'LY ALG THE E LINE OF SEC 36 FROM ITS SE COR & 434' W'LY @ RIGHT ANGLES LOC IN SEC 36-T1S-R1W.", "MINERAL_INTEREST_FLAG": null, "STATE_INTEREST_FLAG": null, "DOC_ACCESS": "https://sonlite.dnr.state.la.us/ords/r/sonris/ucmsearch/finddocuments?qtype=eq&idx=xwellserialnumber&val=255847", "STATE_ZONE": "SOUTH", "COASTAL_PERMIT_NUM": null, "SE_ANNO_CAD_DATA": null, "TRUE_VERTICAL_DEPTH": "12500.0", "first_seen": "False"}}, {"type": "Feature", "geometry": {"type": "Point", "coordinates": [-90.96796728, 30.073767669]}, "properties": {"OBJECTID": "225430", "id": "976400", "ORGANIZATION_ID": "B1034", "ORGOP_LINE_ID": "1", "WELL_CLASS_TYPE_CODE": "30.0", "well": "SOLEIL", "well_num": "001", "township": "11S", "EFFECTIVE_DATE": "2026-09-23 05:00:00", "api": "17005880660000", "OPERATION_TYPE_CODE": "1", "issue_date": "2026-09-23 05:00:00", "spud": null, "status": "2", "WELL_STATUS_DATE": "2026-09-23 05:00:00", "ORIGINAL_COMPLETION_DATE": null, "LAST_RECOMPLETION_DATE": null, "LAST_TEST_DATE": null, "ORPHANED_FLAG": null, "PRODUCT_TYPE_CODE": "0", "CLASSIFICATION": "V", "UNIT_WELL_FLAG": null, "EXEMPT_29E_FLAG": null, "FIELD_ID": "9727", "LEASE_NUM": null, "MUD_DENSITY": "0.0", "USDW_VALUE": null, "AREA_USDW_VALUE": "1048.0", "SOURCE_AREA_USDW_VALUE": "PER E-LOG SN 162343 BY DBG", "MAX_SIP": null, "SIP_ASSIGNED_DATE": null, "SOURCE_OF_SIP_VALUE": null, "INJECTION_RATE": null, "COMMENTS": null, "LOCATION": "S28\u00b0 11'41\" E 13,930.13' FROM NGS MON. \"DONALDSONVILLE\", FALLING IN SECTION 32, T11S - R15E, ASCENSION PARISH, LOUISIANA.", "section": "32", "MERIDIAN": "W", "range": "15E", "PARISH_CODE": "3", "lat": "30.073767669", "lon": "-90.96796728", "depth": null, "LEGEND": "2", "DISTRICT_CODE": null, "INSPECTION_DATE": null, "INSPECTION_YEAR_INDEX": null, "SECTION": "32", "INJECTION_VOLUME": null, "LOG_REVIEWED_FLAG": null, "ORPHAN_STATUS_CODE": null, "ORPHAN_STATUS_DATE": null, "field": "WILDCAT-SO LA LAFAYETTE DIST", "operator": "BKVERDE LLC", "parish": "ASCENSION", "SCOUT_WELL_STATUS_CODE": null, "SCOUT_REPORT_DATE": null, "SCOUT_MEASURED_DEPTH": null, "SCOUT_TRUE_VERTICAL_DEPTH": null, "LUW_CODE": null, "LUW_TYPE_CODE": null, "LUW_NAME": null, "LW_REC_STATUS": null, "SURFACE_LAMBERT_X": "2115602.0", "SURFACE_LAMBERT_Y": "511782.0", "SURFACE_COORD_SYSTEM_CODE": "1", "SURFACE_ZONE": "S", "SURFACE_UTM83_X": "695860.331356677", "SURFACE_UTM83_Y": "3328700.36460739", "UPPER_PERFS": null, "LOWER_PERFS": null, "SANDS": null, "RESERVOIRS": null, "FORMATIONS": null, "HYPERLINK": "https://sonlite.dnr.state.la.us/ords/apex/r/sonris_pub/sonris_data_portal/well-profile?clear=CR,9000&ig[ig_master]_well_serial_num=976400", "GIS_UPD_DATE": "2026-09-24 09:05:18", "status_desc": "APPROVAL TO CONSTRUCT INJECTION WELL", "dirwell": null, "SCOUT_DETAIL": null, "MINERAL_INTEREST_FLAG": null, "STATE_INTEREST_FLAG": null, "DOC_ACCESS": "https://sonlite.dnr.state.la.us/ords/r/sonris/ucmsearch/finddocuments?qtype=eq&idx=xwellserialnumber&val=976400", "STATE_ZONE": "SOUTH", "COASTAL_PERMIT_NUM": null, "SE_ANNO_CAD_DATA": null, "TRUE_VERTICAL_DEPTH": null, "first_seen": "True"}}]}