{"type": "FeatureCollection", "features": [{"type": "Feature", "geometry": {"type": "Point", "coordinates": [-93.973698139, 32.357179536]}, "properties": {"OBJECTID": "245619", "id": "255834", "ORGANIZATION_ID": "E1152", "ORGOP_LINE_ID": "1", "WELL_CLASS_TYPE_CODE": null, "well": "HA RA SUA; MCF 23&14-16-16 HC", "well_num": "001-ALT", "township": "16N", "EFFECTIVE_DATE": "2026-08-31 05:00:00", "api": "17017370680000", "OPERATION_TYPE_CODE": "1", "issue_date": "2026-08-31 05:00:00", "spud": null, "status": "1", "WELL_STATUS_DATE": "2026-08-31 05:00:00", "ORIGINAL_COMPLETION_DATE": null, "LAST_RECOMPLETION_DATE": null, "LAST_TEST_DATE": null, "ORPHANED_FLAG": null, "PRODUCT_TYPE_CODE": "0", "CLASSIFICATION": null, "UNIT_WELL_FLAG": null, "EXEMPT_29E_FLAG": null, "FIELD_ID": "4313", "LEASE_NUM": null, "MUD_DENSITY": "0.0", "USDW_VALUE": null, "AREA_USDW_VALUE": "0.0", "SOURCE_AREA_USDW_VALUE": null, "MAX_SIP": null, "SIP_ASSIGNED_DATE": null, "SOURCE_OF_SIP_VALUE": null, "INJECTION_RATE": "0.0", "COMMENTS": null, "LOCATION": "SL: 445' FSL & 2197' FEL OF SEC 23, T16N-R16W. PBHL: 100' FNL & 1626' FWL OF SEC 23, T16N-R16W.", "section": "023", "MERIDIAN": "W", "range": "16W", "PARISH_CODE": "9", "lat": "32.357179536", "lon": "-93.973698139", "depth": "35000.0", "LEGEND": "-1", "DISTRICT_CODE": null, "INSPECTION_DATE": null, "INSPECTION_YEAR_INDEX": null, "SECTION": "23", "INJECTION_VOLUME": null, "LOG_REVIEWED_FLAG": null, "ORPHAN_STATUS_CODE": null, "ORPHAN_STATUS_DATE": null, "field": "GREENWOOD-WASKOM", "operator": "EXPAND OPERATING LLC", "parish": "CADDO", "SCOUT_WELL_STATUS_CODE": "1", "SCOUT_REPORT_DATE": "2026-08-31 05:00:00", "SCOUT_MEASURED_DEPTH": "35000.0", "SCOUT_TRUE_VERTICAL_DEPTH": null, "LUW_CODE": null, "LUW_TYPE_CODE": null, "LUW_NAME": null, "LW_REC_STATUS": null, "SURFACE_LAMBERT_X": "1545001.0", "SURFACE_LAMBERT_Y": "617959.0", "SURFACE_COORD_SYSTEM_CODE": "1", "SURFACE_ZONE": "N", "SURFACE_UTM83_X": "408385.431063604", "SURFACE_UTM83_Y": "3580444.1209285", "UPPER_PERFS": null, "LOWER_PERFS": null, "SANDS": null, "RESERVOIRS": null, "FORMATIONS": null, "HYPERLINK": "https://sonlite.dnr.state.la.us/ords/apex/r/sonris_pub/sonris_data_portal/well-profile?clear=CR,9000&ig[ig_master]_well_serial_num=255834", "GIS_UPD_DATE": "2026-09-01 09:05:15", "status_desc": "PERMITTED", "dirwell": null, "SCOUT_DETAIL": "SL: 445' FSL & 2197' FEL OF SEC 23, T16N-R16W. PBHL: 100' FNL & 1626' FWL OF SEC 23, T16N-R16W.", "MINERAL_INTEREST_FLAG": null, "STATE_INTEREST_FLAG": null, "DOC_ACCESS": "https://sonlite.dnr.state.la.us/ords/r/sonris/ucmsearch/finddocuments?qtype=eq&idx=xwellserialnumber&val=255834", "STATE_ZONE": "BAD", "COASTAL_PERMIT_NUM": null, "SE_ANNO_CAD_DATA": null, "TRUE_VERTICAL_DEPTH": "35000.0", "first_seen": "False"}}, {"type": "Feature", "geometry": {"type": "Point", "coordinates": [-93.973633376, 32.357180284]}, "properties": {"OBJECTID": "245620", "id": "255835", "ORGANIZATION_ID": "E1152", "ORGOP_LINE_ID": "1", "WELL_CLASS_TYPE_CODE": null, "well": "HA RA SUA; MCF 23&14-16-16 HC", "well_num": "002-ALT", "township": "16N", "EFFECTIVE_DATE": "2026-08-31 05:00:00", "api": "17017370690000", "OPERATION_TYPE_CODE": "1", "issue_date": "2026-08-31 05:00:00", "spud": null, "status": "1", "WELL_STATUS_DATE": "2026-08-31 05:00:00", "ORIGINAL_COMPLETION_DATE": null, "LAST_RECOMPLETION_DATE": null, "LAST_TEST_DATE": null, "ORPHANED_FLAG": null, "PRODUCT_TYPE_CODE": "0", "CLASSIFICATION": null, "UNIT_WELL_FLAG": null, "EXEMPT_29E_FLAG": null, "FIELD_ID": "4313", "LEASE_NUM": null, "MUD_DENSITY": "0.0", "USDW_VALUE": null, "AREA_USDW_VALUE": "0.0", "SOURCE_AREA_USDW_VALUE": null, "MAX_SIP": null, "SIP_ASSIGNED_DATE": null, "SOURCE_OF_SIP_VALUE": null, "INJECTION_RATE": "0.0", "COMMENTS": null, "LOCATION": "SL: 445' FSL & 2177' FEL OF SEC 23, T16N-R16W. PBHL: 100' FNL & 2259' FEL OF SEC 14, T16N-R16W.", "section": "023", "MERIDIAN": "W", "range": "16W", "PARISH_CODE": "9", "lat": "32.357180284", "lon": "-93.973633376", "depth": "35000.0", "LEGEND": "-1", "DISTRICT_CODE": null, "INSPECTION_DATE": null, "INSPECTION_YEAR_INDEX": null, "SECTION": "23", "INJECTION_VOLUME": null, "LOG_REVIEWED_FLAG": null, "ORPHAN_STATUS_CODE": null, "ORPHAN_STATUS_DATE": null, "field": "GREENWOOD-WASKOM", "operator": "EXPAND OPERATING LLC", "parish": "CADDO", "SCOUT_WELL_STATUS_CODE": "1", "SCOUT_REPORT_DATE": "2026-08-31 05:00:00", "SCOUT_MEASURED_DEPTH": "35000.0", "SCOUT_TRUE_VERTICAL_DEPTH": null, "LUW_CODE": null, "LUW_TYPE_CODE": null, "LUW_NAME": null, "LW_REC_STATUS": null, "SURFACE_LAMBERT_X": "1545021.0", "SURFACE_LAMBERT_Y": "617959.0", "SURFACE_COORD_SYSTEM_CODE": "1", "SURFACE_ZONE": "N", "SURFACE_UTM83_X": "408391.525584542", "SURFACE_UTM83_Y": "3580444.14837109", "UPPER_PERFS": null, "LOWER_PERFS": null, "SANDS": null, "RESERVOIRS": null, "FORMATIONS": null, "HYPERLINK": "https://sonlite.dnr.state.la.us/ords/apex/r/sonris_pub/sonris_data_portal/well-profile?clear=CR,9000&ig[ig_master]_well_serial_num=255835", "GIS_UPD_DATE": "2026-09-01 09:05:15", "status_desc": "PERMITTED", "dirwell": null, "SCOUT_DETAIL": "SL: 445' FSL & 2177' FEL OF SEC 23, T16N-R16W. PBHL: 100' FNL & 2259' FEL OF SEC 14, T16N-R16W.", "MINERAL_INTEREST_FLAG": null, "STATE_INTEREST_FLAG": null, "DOC_ACCESS": "https://sonlite.dnr.state.la.us/ords/r/sonris/ucmsearch/finddocuments?qtype=eq&idx=xwellserialnumber&val=255835", "STATE_ZONE": "BAD", "COASTAL_PERMIT_NUM": null, "SE_ANNO_CAD_DATA": null, "TRUE_VERTICAL_DEPTH": "35000.0", "first_seen": "False"}}]}