{"type": "FeatureCollection", "features": [{"type": "Feature", "geometry": {"type": "Point", "coordinates": [-92.244299624, 31.669280996]}, "properties": {"OBJECTID": "2588", "id": "255827", "ORGANIZATION_ID": "C359", "ORGOP_LINE_ID": "1", "WELL_CLASS_TYPE_CODE": null, "well": "WX B RG SUK; PLACID FEE", "well_num": "010", "township": "08N", "EFFECTIVE_DATE": "2026-08-26 05:00:00", "api": "17059269260000", "OPERATION_TYPE_CODE": "1", "issue_date": "2026-08-26 05:00:00", "spud": null, "status": "1", "WELL_STATUS_DATE": "2026-08-26 05:00:00", "ORIGINAL_COMPLETION_DATE": null, "LAST_RECOMPLETION_DATE": null, "LAST_TEST_DATE": null, "ORPHANED_FLAG": null, "PRODUCT_TYPE_CODE": "0", "CLASSIFICATION": null, "UNIT_WELL_FLAG": null, "EXEMPT_29E_FLAG": null, "FIELD_ID": "9011", "LEASE_NUM": null, "MUD_DENSITY": "0.0", "USDW_VALUE": null, "AREA_USDW_VALUE": "0.0", "SOURCE_AREA_USDW_VALUE": null, "MAX_SIP": null, "SIP_ASSIGNED_DATE": null, "SOURCE_OF_SIP_VALUE": null, "INJECTION_RATE": "0.0", "COMMENTS": null, "LOCATION": "SL: 535' FEL & 180' FSL OF THE NW 1/4 OF THE SW 1/4 OF SECTION 014, T08N-R02E.", "section": "014", "MERIDIAN": "W", "range": "02E", "PARISH_CODE": "30", "lat": "31.669280996", "lon": "-92.244299624", "depth": "3700.0", "LEGEND": "1", "DISTRICT_CODE": null, "INSPECTION_DATE": null, "INSPECTION_YEAR_INDEX": null, "SECTION": "14", "INJECTION_VOLUME": null, "LOG_REVIEWED_FLAG": null, "ORPHAN_STATUS_CODE": null, "ORPHAN_STATUS_DATE": null, "field": "TROUT CREEK", "operator": "C.T.R. OIL, INC.", "parish": "LA SALLE", "SCOUT_WELL_STATUS_CODE": "1", "SCOUT_REPORT_DATE": "2026-08-26 05:00:00", "SCOUT_MEASURED_DEPTH": "3700.0", "SCOUT_TRUE_VERTICAL_DEPTH": null, "LUW_CODE": null, "LUW_TYPE_CODE": null, "LUW_NAME": null, "LW_REC_STATUS": null, "SURFACE_LAMBERT_X": "2079597.0", "SURFACE_LAMBERT_Y": "364721.0", "SURFACE_COORD_SYSTEM_CODE": "1", "SURFACE_ZONE": "N", "SURFACE_UTM83_X": "571635.90075929", "SURFACE_UTM83_Y": "3504026.97832324", "UPPER_PERFS": null, "LOWER_PERFS": null, "SANDS": null, "RESERVOIRS": null, "FORMATIONS": null, "HYPERLINK": "https://sonlite.dnr.state.la.us/ords/apex/r/sonris_pub/sonris_data_portal/well-profile?clear=CR,9000&ig[ig_master]_well_serial_num=255827", "GIS_UPD_DATE": "2026-08-27 09:05:18", "status_desc": "PERMITTED", "dirwell": null, "SCOUT_DETAIL": "SL: 535' FEL & 180' FSL OF THE NW 1/4 OF THE SW 1/4 OF SECTION 014, T08N-R02E.", "MINERAL_INTEREST_FLAG": null, "STATE_INTEREST_FLAG": null, "DOC_ACCESS": "https://sonlite.dnr.state.la.us/ords/r/sonris/ucmsearch/finddocuments?qtype=eq&idx=xwellserialnumber&val=255827", "STATE_ZONE": "BAD", "COASTAL_PERMIT_NUM": null, "SE_ANNO_CAD_DATA": null, "TRUE_VERTICAL_DEPTH": "3700.0", "first_seen": "False"}}, {"type": "Feature", "geometry": {"type": "Point", "coordinates": [-93.693025697, 31.816542726]}, "properties": {"OBJECTID": "2589", "id": "255828", "ORGANIZATION_ID": "J1211", "ORGOP_LINE_ID": "1", "WELL_CLASS_TYPE_CODE": null, "well": "HA RA SUR; G MAN 27-22-15HC", "well_num": "003-ALT", "township": "10N", "EFFECTIVE_DATE": "2026-08-26 05:00:00", "api": "17085227300000", "OPERATION_TYPE_CODE": "1", "issue_date": "2026-08-26 05:00:00", "spud": null, "status": "1", "WELL_STATUS_DATE": "2026-08-26 05:00:00", "ORIGINAL_COMPLETION_DATE": null, "LAST_RECOMPLETION_DATE": null, "LAST_TEST_DATE": null, "ORPHANED_FLAG": null, "PRODUCT_TYPE_CODE": "0", "CLASSIFICATION": null, "UNIT_WELL_FLAG": null, "EXEMPT_29E_FLAG": null, "FIELD_ID": "7405", "LEASE_NUM": null, "MUD_DENSITY": "0.0", "USDW_VALUE": null, "AREA_USDW_VALUE": "0.0", "SOURCE_AREA_USDW_VALUE": null, "MAX_SIP": null, "SIP_ASSIGNED_DATE": null, "SOURCE_OF_SIP_VALUE": null, "INJECTION_RATE": "0.0", "COMMENTS": null, "LOCATION": "SL: 108' FSL & 1027' FWL OF S27-T10N-R13W. PBHL: 100' FNL & 1609' FWL OF S15-T10N-R13W IN DESOTO PARISH.", "section": "027", "MERIDIAN": "W", "range": "13W", "PARISH_CODE": "43", "lat": "31.816542726", "lon": "-93.693025697", "depth": "28200.0", "LEGEND": "-1", "DISTRICT_CODE": null, "INSPECTION_DATE": null, "INSPECTION_YEAR_INDEX": null, "SECTION": "27", "INJECTION_VOLUME": null, "LOG_REVIEWED_FLAG": null, "ORPHAN_STATUS_CODE": null, "ORPHAN_STATUS_DATE": null, "field": "PLEASANT HILL", "operator": "JERA UPSTREAM AMERICA, LLC", "parish": "SABINE", "SCOUT_WELL_STATUS_CODE": "1", "SCOUT_REPORT_DATE": "2026-08-26 05:00:00", "SCOUT_MEASURED_DEPTH": "28200.0", "SCOUT_TRUE_VERTICAL_DEPTH": null, "LUW_CODE": null, "LUW_TYPE_CODE": null, "LUW_NAME": null, "LW_REC_STATUS": null, "SURFACE_LAMBERT_X": "1629498.0", "SURFACE_LAMBERT_Y": "420234.0", "SURFACE_COORD_SYSTEM_CODE": "1", "SURFACE_ZONE": "N", "SURFACE_UTM83_X": "434409.29916614", "SURFACE_UTM83_Y": "3520310.26858407", "UPPER_PERFS": null, "LOWER_PERFS": null, "SANDS": null, "RESERVOIRS": null, "FORMATIONS": null, "HYPERLINK": "https://sonlite.dnr.state.la.us/ords/apex/r/sonris_pub/sonris_data_portal/well-profile?clear=CR,9000&ig[ig_master]_well_serial_num=255828", "GIS_UPD_DATE": "2026-08-27 09:05:18", "status_desc": "PERMITTED", "dirwell": null, "SCOUT_DETAIL": "SL: 108' FSL & 1027' FWL OF S27-T10N-R13W. PBHL: 100' FNL & 1609' FWL OF S15-T10N-R13W IN DESOTO PARISH.", "MINERAL_INTEREST_FLAG": null, "STATE_INTEREST_FLAG": null, "DOC_ACCESS": "https://sonlite.dnr.state.la.us/ords/r/sonris/ucmsearch/finddocuments?qtype=eq&idx=xwellserialnumber&val=255828", "STATE_ZONE": "BAD", "COASTAL_PERMIT_NUM": null, "SE_ANNO_CAD_DATA": null, "TRUE_VERTICAL_DEPTH": "12650.0", "first_seen": "False"}}, {"type": "Feature", "geometry": {"type": "Point", "coordinates": [-93.497662147, 31.887733708]}, "properties": {"OBJECTID": "2590", "id": "255829", "ORGANIZATION_ID": "E1152", "ORGOP_LINE_ID": "1", "WELL_CLASS_TYPE_CODE": null, "well": "HA RA SUII;STILES 4&9-10-11 HC", "well_num": "001", "township": "10N", "EFFECTIVE_DATE": "2026-08-26 05:00:00", "api": "17012763800000", "OPERATION_TYPE_CODE": "1", "issue_date": "2026-08-26 05:00:00", "spud": null, "status": "1", "WELL_STATUS_DATE": "2026-08-26 05:00:00", "ORIGINAL_COMPLETION_DATE": null, "LAST_RECOMPLETION_DATE": null, "LAST_TEST_DATE": null, "ORPHANED_FLAG": null, "PRODUCT_TYPE_CODE": "0", "CLASSIFICATION": null, "UNIT_WELL_FLAG": null, "EXEMPT_29E_FLAG": null, "FIELD_ID": "4319", "LEASE_NUM": null, "MUD_DENSITY": "0.0", "USDW_VALUE": null, "AREA_USDW_VALUE": "0.0", "SOURCE_AREA_USDW_VALUE": null, "MAX_SIP": null, "SIP_ASSIGNED_DATE": null, "SOURCE_OF_SIP_VALUE": null, "INJECTION_RATE": "0.0", "COMMENTS": null, "LOCATION": "SL: 441' FNL & 1818' FEL OF SEC 4, T10N-11W. PBHL: 2047' FSL & 2430' FEL OF SEC 9, T10N-R11W.", "section": "004", "MERIDIAN": "W", "range": "11W", "PARISH_CODE": "16", "lat": "31.887733708", "lon": "-93.497662147", "depth": "35000.0", "LEGEND": "-1", "DISTRICT_CODE": null, "INSPECTION_DATE": null, "INSPECTION_YEAR_INDEX": null, "SECTION": "4", "INJECTION_VOLUME": null, "LOG_REVIEWED_FLAG": null, "ORPHAN_STATUS_CODE": null, "ORPHAN_STATUS_DATE": null, "field": "GROGAN", "operator": "EXPAND OPERATING LLC", "parish": "DE SOTO", "SCOUT_WELL_STATUS_CODE": "1", "SCOUT_REPORT_DATE": "2026-08-26 05:00:00", "SCOUT_MEASURED_DEPTH": "35000.0", "SCOUT_TRUE_VERTICAL_DEPTH": null, "LUW_CODE": null, "LUW_TYPE_CODE": null, "LUW_NAME": null, "LW_REC_STATUS": null, "SURFACE_LAMBERT_X": "1690414.0", "SURFACE_LAMBERT_Y": "445516.0", "SURFACE_COORD_SYSTEM_CODE": "1", "SURFACE_ZONE": "N", "SURFACE_UTM83_X": "452935.700618966", "SURFACE_UTM83_Y": "3528099.90756116", "UPPER_PERFS": null, "LOWER_PERFS": null, "SANDS": null, "RESERVOIRS": null, "FORMATIONS": null, "HYPERLINK": "https://sonlite.dnr.state.la.us/ords/apex/r/sonris_pub/sonris_data_portal/well-profile?clear=CR,9000&ig[ig_master]_well_serial_num=255829", "GIS_UPD_DATE": "2026-08-27 09:05:18", "status_desc": "PERMITTED", "dirwell": null, "SCOUT_DETAIL": "SL: 441' FNL & 1818' FEL OF SEC 4, T10N-11W. PBHL: 2047' FSL & 2430' FEL OF SEC 9, T10N-R11W.", "MINERAL_INTEREST_FLAG": null, "STATE_INTEREST_FLAG": null, "DOC_ACCESS": "https://sonlite.dnr.state.la.us/ords/r/sonris/ucmsearch/finddocuments?qtype=eq&idx=xwellserialnumber&val=255829", "STATE_ZONE": "BAD", "COASTAL_PERMIT_NUM": null, "SE_ANNO_CAD_DATA": null, "TRUE_VERTICAL_DEPTH": "14000.0", "first_seen": "False"}}, {"type": "Feature", "geometry": {"type": "Point", "coordinates": [-93.497600724, 31.887714946]}, "properties": {"OBJECTID": "2591", "id": "255830", "ORGANIZATION_ID": "E1152", "ORGOP_LINE_ID": "1", "WELL_CLASS_TYPE_CODE": null, "well": "HA RA SUII;STILES 4&9-10-11 HC", "well_num": "002-ALT", "township": "10N", "EFFECTIVE_DATE": "2026-08-26 05:00:00", "api": "17031276390000", "OPERATION_TYPE_CODE": "1", "issue_date": "2026-08-26 05:00:00", "spud": null, "status": "1", "WELL_STATUS_DATE": "2026-08-26 05:00:00", "ORIGINAL_COMPLETION_DATE": null, "LAST_RECOMPLETION_DATE": null, "LAST_TEST_DATE": null, "ORPHANED_FLAG": null, "PRODUCT_TYPE_CODE": "0", "CLASSIFICATION": null, "UNIT_WELL_FLAG": null, "EXEMPT_29E_FLAG": null, "FIELD_ID": "4319", "LEASE_NUM": null, "MUD_DENSITY": "0.0", "USDW_VALUE": null, "AREA_USDW_VALUE": "0.0", "SOURCE_AREA_USDW_VALUE": null, "MAX_SIP": null, "SIP_ASSIGNED_DATE": null, "SOURCE_OF_SIP_VALUE": null, "INJECTION_RATE": "0.0", "COMMENTS": null, "LOCATION": "SL: 448' FNL & 1799' FEL OF SEC 4, T10N-11W. PBHL: 2425' FSL & 1550' FEL OF SEC 9, T10N-R11W.", "section": "004", "MERIDIAN": "W", "range": "11W", "PARISH_CODE": "16", "lat": "31.887714946", "lon": "-93.497600724", "depth": "35000.0", "LEGEND": "-1", "DISTRICT_CODE": null, "INSPECTION_DATE": null, "INSPECTION_YEAR_INDEX": null, "SECTION": "4", "INJECTION_VOLUME": null, "LOG_REVIEWED_FLAG": null, "ORPHAN_STATUS_CODE": null, "ORPHAN_STATUS_DATE": null, "field": "GROGAN", "operator": "EXPAND OPERATING LLC", "parish": "DE SOTO", "SCOUT_WELL_STATUS_CODE": "1", "SCOUT_REPORT_DATE": "2026-08-26 05:00:00", "SCOUT_MEASURED_DEPTH": "35000.0", "SCOUT_TRUE_VERTICAL_DEPTH": null, "LUW_CODE": null, "LUW_TYPE_CODE": null, "LUW_NAME": null, "LW_REC_STATUS": null, "SURFACE_LAMBERT_X": "1690433.0", "SURFACE_LAMBERT_Y": "445509.0", "SURFACE_COORD_SYSTEM_CODE": "1", "SURFACE_ZONE": "N", "SURFACE_UTM83_X": "452941.499987944", "SURFACE_UTM83_Y": "3528097.80131376", "UPPER_PERFS": null, "LOWER_PERFS": null, "SANDS": null, "RESERVOIRS": null, "FORMATIONS": null, "HYPERLINK": "https://sonlite.dnr.state.la.us/ords/apex/r/sonris_pub/sonris_data_portal/well-profile?clear=CR,9000&ig[ig_master]_well_serial_num=255830", "GIS_UPD_DATE": "2026-08-27 09:05:18", "status_desc": "PERMITTED", "dirwell": null, "SCOUT_DETAIL": "SL: 448' FNL & 1799' FEL OF SEC 4, T10N-11W. PBHL: 2425' FSL & 1550' FEL OF SEC 9, T10N-R11W.", "MINERAL_INTEREST_FLAG": null, "STATE_INTEREST_FLAG": null, "DOC_ACCESS": "https://sonlite.dnr.state.la.us/ords/r/sonris/ucmsearch/finddocuments?qtype=eq&idx=xwellserialnumber&val=255830", "STATE_ZONE": "BAD", "COASTAL_PERMIT_NUM": null, "SE_ANNO_CAD_DATA": null, "TRUE_VERTICAL_DEPTH": "14000.0", "first_seen": "False"}}, {"type": "Feature", "geometry": {"type": "Point", "coordinates": [-93.4975393, 31.887696184]}, "properties": {"OBJECTID": "2592", "id": "255831", "ORGANIZATION_ID": "E1152", "ORGOP_LINE_ID": "1", "WELL_CLASS_TYPE_CODE": null, "well": "HA RA SUII;STILES 4&9-10-11 HC", "well_num": "003-ALT", "township": "10N", "EFFECTIVE_DATE": "2026-08-26 05:00:00", "api": "17031276400000", "OPERATION_TYPE_CODE": "1", "issue_date": "2026-08-26 05:00:00", "spud": null, "status": "1", "WELL_STATUS_DATE": "2026-08-26 05:00:00", "ORIGINAL_COMPLETION_DATE": null, "LAST_RECOMPLETION_DATE": null, "LAST_TEST_DATE": null, "ORPHANED_FLAG": null, "PRODUCT_TYPE_CODE": "0", "CLASSIFICATION": null, "UNIT_WELL_FLAG": null, "EXEMPT_29E_FLAG": null, "FIELD_ID": "4319", "LEASE_NUM": null, "MUD_DENSITY": "0.0", "USDW_VALUE": null, "AREA_USDW_VALUE": "0.0", "SOURCE_AREA_USDW_VALUE": null, "MAX_SIP": null, "SIP_ASSIGNED_DATE": null, "SOURCE_OF_SIP_VALUE": null, "INJECTION_RATE": "0.0", "COMMENTS": null, "LOCATION": "SL: 455' FNL & 1780' FEL OF SEC 4, T10N-R11W. PBHL: 2355' FNL & 765' FEL OF SEC 9, T10N-R11W.", "section": "004", "MERIDIAN": "W", "range": "11W", "PARISH_CODE": "16", "lat": "31.887696184", "lon": "-93.4975393", "depth": "35000.0", "LEGEND": "-1", "DISTRICT_CODE": null, "INSPECTION_DATE": null, "INSPECTION_YEAR_INDEX": null, "SECTION": "4", "INJECTION_VOLUME": null, "LOG_REVIEWED_FLAG": null, "ORPHAN_STATUS_CODE": null, "ORPHAN_STATUS_DATE": null, "field": "GROGAN", "operator": "EXPAND OPERATING LLC", "parish": "DE SOTO", "SCOUT_WELL_STATUS_CODE": "1", "SCOUT_REPORT_DATE": "2026-08-26 05:00:00", "SCOUT_MEASURED_DEPTH": "35000.0", "SCOUT_TRUE_VERTICAL_DEPTH": null, "LUW_CODE": null, "LUW_TYPE_CODE": null, "LUW_NAME": null, "LW_REC_STATUS": null, "SURFACE_LAMBERT_X": "1690452.0", "SURFACE_LAMBERT_Y": "445502.0", "SURFACE_COORD_SYSTEM_CODE": "1", "SURFACE_ZONE": "N", "SURFACE_UTM83_X": "452947.299356886", "SURFACE_UTM83_Y": "3528095.69506639", "UPPER_PERFS": null, "LOWER_PERFS": null, "SANDS": null, "RESERVOIRS": null, "FORMATIONS": null, "HYPERLINK": "https://sonlite.dnr.state.la.us/ords/apex/r/sonris_pub/sonris_data_portal/well-profile?clear=CR,9000&ig[ig_master]_well_serial_num=255831", "GIS_UPD_DATE": "2026-08-27 09:05:18", "status_desc": "PERMITTED", "dirwell": null, "SCOUT_DETAIL": "SL: 455' FNL & 1780' FEL OF SEC 4, T10N-R11W. PBHL: 2355' FNL & 765' FEL OF SEC 9, T10N-R11W.", "MINERAL_INTEREST_FLAG": null, "STATE_INTEREST_FLAG": null, "DOC_ACCESS": "https://sonlite.dnr.state.la.us/ords/r/sonris/ucmsearch/finddocuments?qtype=eq&idx=xwellserialnumber&val=255831", "STATE_ZONE": "BAD", "COASTAL_PERMIT_NUM": null, "SE_ANNO_CAD_DATA": null, "TRUE_VERTICAL_DEPTH": "14000.0", "first_seen": "False"}}]}