{"type": "FeatureCollection", "features": [{"type": "Feature", "geometry": {"type": "Point", "coordinates": [-93.619203385, 32.050469303]}, "properties": {"OBJECTID": "229563", "id": "255784", "ORGANIZATION_ID": "A1169", "ORGOP_LINE_ID": "1", "WELL_CLASS_TYPE_CODE": null, "well": "HA RA SUE;MOMENTUM 5-12-12HU", "well_num": "005", "township": "12N", "EFFECTIVE_DATE": "2026-07-24 05:00:00", "api": "17031276240000", "OPERATION_TYPE_CODE": "01", "issue_date": "2026-07-24 05:00:00", "spud": null, "status": "01", "WELL_STATUS_DATE": "2026-07-24 05:00:00", "ORIGINAL_COMPLETION_DATE": null, "LAST_RECOMPLETION_DATE": null, "LAST_TEST_DATE": null, "ORPHANED_FLAG": null, "PRODUCT_TYPE_CODE": "00", "CLASSIFICATION": null, "UNIT_WELL_FLAG": null, "EXEMPT_29E_FLAG": null, "FIELD_ID": "7651", "LEASE_NUM": null, "MUD_DENSITY": "0.0", "USDW_VALUE": null, "AREA_USDW_VALUE": "0.0", "SOURCE_AREA_USDW_VALUE": null, "MAX_SIP": null, "SIP_ASSIGNED_DATE": null, "SOURCE_OF_SIP_VALUE": null, "INJECTION_RATE": "0.0", "COMMENTS": null, "LOCATION": "551' FSL & 2607' FEL OF SEC 5-T12N-R12W. PBHL: 100' FSL & 430' FWL OF SEC 5-T12N-R12W", "section": "005", "MERIDIAN": "W", "range": "12W", "PARISH_CODE": "16", "lat": "32.050469303", "lon": "-93.619203385", "depth": "25000.0", "LEGEND": "-1", "DISTRICT_CODE": null, "INSPECTION_DATE": null, "INSPECTION_YEAR_INDEX": null, "SECTION": "005", "INJECTION_VOLUME": null, "LOG_REVIEWED_FLAG": null, "ORPHAN_STATUS_CODE": null, "ORPHAN_STATUS_DATE": null, "field": "RED RIVER-BULL BAYOU", "operator": "APEX NATURAL GAS, LLC", "parish": "DE SOTO", "SCOUT_WELL_STATUS_CODE": "01", "SCOUT_REPORT_DATE": "2026-07-24 05:00:00", "SCOUT_MEASURED_DEPTH": "25000.0", "SCOUT_TRUE_VERTICAL_DEPTH": null, "LUW_CODE": null, "LUW_TYPE_CODE": null, "LUW_NAME": null, "LW_REC_STATUS": null, "SURFACE_LAMBERT_X": "1653305.0", "SURFACE_LAMBERT_Y": "505079.0", "SURFACE_COORD_SYSTEM_CODE": "01", "SURFACE_ZONE": "N", "SURFACE_UTM83_X": "441544.489806896", "SURFACE_UTM83_Y": "3546197.48169904", "UPPER_PERFS": null, "LOWER_PERFS": null, "SANDS": null, "RESERVOIRS": null, "FORMATIONS": null, "HYPERLINK": "https://sonlite.dnr.state.la.us/ords/apex/r/sonris_pub/sonris_data_portal/well-profile?clear=CR,9000&ig[ig_master]_well_serial_num=255784", "GIS_UPD_DATE": "2026-07-29 09:05:20", "status_desc": "PERMITTED", "dirwell": null, "SCOUT_DETAIL": "551' FSL & 2607' FEL OF SEC 5-T12N-R12W. PBHL: 100' FSL & 430' FWL OF SEC 5-T12N-R12W", "MINERAL_INTEREST_FLAG": null, "STATE_INTEREST_FLAG": null, "DOC_ACCESS": "https://sonlite.dnr.state.la.us/ords/r/sonris/ucmsearch/finddocuments?qtype=eq&idx=xwellserialnumber&val=255784", "STATE_ZONE": "BAD", "COASTAL_PERMIT_NUM": null, "SE_ANNO_CAD_DATA": null, "TRUE_VERTICAL_DEPTH": "13500.0", "first_seen": "False"}}, {"type": "Feature", "geometry": {"type": "Point", "coordinates": [-93.618955884, 32.049756708]}, "properties": {"OBJECTID": "229564", "id": "255785", "ORGANIZATION_ID": "A1169", "ORGOP_LINE_ID": "1", "WELL_CLASS_TYPE_CODE": null, "well": "HA RA SUE;MOMENTUM 5-12-12HU", "well_num": "006-ALT", "township": "12N", "EFFECTIVE_DATE": "2026-07-24 05:00:00", "api": "17031276250000", "OPERATION_TYPE_CODE": "01", "issue_date": "2026-07-24 05:00:00", "spud": null, "status": "01", "WELL_STATUS_DATE": "2026-07-24 05:00:00", "ORIGINAL_COMPLETION_DATE": null, "LAST_RECOMPLETION_DATE": null, "LAST_TEST_DATE": null, "ORPHANED_FLAG": null, "PRODUCT_TYPE_CODE": "00", "CLASSIFICATION": null, "UNIT_WELL_FLAG": null, "EXEMPT_29E_FLAG": null, "FIELD_ID": "7651", "LEASE_NUM": null, "MUD_DENSITY": "0.0", "USDW_VALUE": null, "AREA_USDW_VALUE": "0.0", "SOURCE_AREA_USDW_VALUE": null, "MAX_SIP": null, "SIP_ASSIGNED_DATE": null, "SOURCE_OF_SIP_VALUE": null, "INJECTION_RATE": "0.0", "COMMENTS": null, "LOCATION": "291' FSL & 2527' FEL OF SEC 5-T12N-R12W. PBHL: 100' FSL & 930' FEL OF SEC 5-T12N-R12W.", "section": "005", "MERIDIAN": "W", "range": "12W", "PARISH_CODE": "16", "lat": "32.049756708", "lon": "-93.618955884", "depth": "25000.0", "LEGEND": "-1", "DISTRICT_CODE": null, "INSPECTION_DATE": null, "INSPECTION_YEAR_INDEX": null, "SECTION": "005", "INJECTION_VOLUME": null, "LOG_REVIEWED_FLAG": null, "ORPHAN_STATUS_CODE": null, "ORPHAN_STATUS_DATE": null, "field": "RED RIVER-BULL BAYOU", "operator": "APEX NATURAL GAS, LLC", "parish": "DE SOTO", "SCOUT_WELL_STATUS_CODE": "01", "SCOUT_REPORT_DATE": "2026-07-24 05:00:00", "SCOUT_MEASURED_DEPTH": "25000.0", "SCOUT_TRUE_VERTICAL_DEPTH": null, "LUW_CODE": null, "LUW_TYPE_CODE": null, "LUW_NAME": null, "LW_REC_STATUS": null, "SURFACE_LAMBERT_X": "1653379.0", "SURFACE_LAMBERT_Y": "504819.0", "SURFACE_COORD_SYSTEM_CODE": "01", "SURFACE_ZONE": "N", "SURFACE_UTM83_X": "441567.402586236", "SURFACE_UTM83_Y": "3546118.35926255", "UPPER_PERFS": null, "LOWER_PERFS": null, "SANDS": null, "RESERVOIRS": null, "FORMATIONS": null, "HYPERLINK": "https://sonlite.dnr.state.la.us/ords/apex/r/sonris_pub/sonris_data_portal/well-profile?clear=CR,9000&ig[ig_master]_well_serial_num=255785", "GIS_UPD_DATE": "2026-07-29 09:05:20", "status_desc": "PERMITTED", "dirwell": null, "SCOUT_DETAIL": "291' FSL & 2527' FEL OF SEC 5-T12N-R12W. PBHL: 100' FSL & 930' FEL OF SEC 5-T12N-R12W.", "MINERAL_INTEREST_FLAG": null, "STATE_INTEREST_FLAG": null, "DOC_ACCESS": "https://sonlite.dnr.state.la.us/ords/r/sonris/ucmsearch/finddocuments?qtype=eq&idx=xwellserialnumber&val=255785", "STATE_ZONE": "BAD", "COASTAL_PERMIT_NUM": null, "SE_ANNO_CAD_DATA": null, "TRUE_VERTICAL_DEPTH": "13500.0", "first_seen": "False"}}, {"type": "Feature", "geometry": {"type": "Point", "coordinates": [-93.171746425, 31.733917137]}, "properties": {"OBJECTID": "229565", "id": "255786", "ORGANIZATION_ID": "E1152", "ORGOP_LINE_ID": "1", "WELL_CLASS_TYPE_CODE": null, "well": "EGC 27&34-9-8 HC", "well_num": "001", "township": "09N", "EFFECTIVE_DATE": "2026-07-24 05:00:00", "api": "17069205630000", "OPERATION_TYPE_CODE": "01", "issue_date": "2026-07-24 05:00:00", "spud": null, "status": "01", "WELL_STATUS_DATE": "2026-07-24 05:00:00", "ORIGINAL_COMPLETION_DATE": null, "LAST_RECOMPLETION_DATE": null, "LAST_TEST_DATE": null, "ORPHANED_FLAG": null, "PRODUCT_TYPE_CODE": "00", "CLASSIFICATION": null, "UNIT_WELL_FLAG": null, "EXEMPT_29E_FLAG": null, "FIELD_ID": "7734", "LEASE_NUM": null, "MUD_DENSITY": "0.0", "USDW_VALUE": null, "AREA_USDW_VALUE": "0.0", "SOURCE_AREA_USDW_VALUE": null, "MAX_SIP": null, "SIP_ASSIGNED_DATE": null, "SOURCE_OF_SIP_VALUE": null, "INJECTION_RATE": "0.0", "COMMENTS": null, "LOCATION": "2089' FSL & 540' FEL OF SEC 27-T9N-R8W. PBHL: 100' FSL & 430' FEL OF SEC 34-T9N-R8W.", "section": "027", "MERIDIAN": "W", "range": "08W", "PARISH_CODE": "35", "lat": "31.733917137", "lon": "-93.171746425", "depth": "35000.0", "LEGEND": "-1", "DISTRICT_CODE": null, "INSPECTION_DATE": null, "INSPECTION_YEAR_INDEX": null, "SECTION": "027", "INJECTION_VOLUME": null, "LOG_REVIEWED_FLAG": null, "ORPHAN_STATUS_CODE": null, "ORPHAN_STATUS_DATE": null, "field": "ROBELINE", "operator": "EXPAND OPERATING LLC", "parish": "NATCHITOCHES", "SCOUT_WELL_STATUS_CODE": "01", "SCOUT_REPORT_DATE": "2026-07-24 05:00:00", "SCOUT_MEASURED_DEPTH": "35000.0", "SCOUT_TRUE_VERTICAL_DEPTH": null, "LUW_CODE": null, "LUW_TYPE_CODE": null, "LUW_NAME": null, "LW_REC_STATUS": null, "SURFACE_LAMBERT_X": "1791217.0", "SURFACE_LAMBERT_Y": "388786.0", "SURFACE_COORD_SYSTEM_CODE": "01", "SURFACE_ZONE": "N", "SURFACE_UTM83_X": "483730.947768538", "SURFACE_UTM83_Y": "3510955.85915527", "UPPER_PERFS": null, "LOWER_PERFS": null, "SANDS": null, "RESERVOIRS": null, "FORMATIONS": null, "HYPERLINK": "https://sonlite.dnr.state.la.us/ords/apex/r/sonris_pub/sonris_data_portal/well-profile?clear=CR,9000&ig[ig_master]_well_serial_num=255786", "GIS_UPD_DATE": "2026-07-29 09:05:20", "status_desc": "PERMITTED", "dirwell": null, "SCOUT_DETAIL": "2089' FSL & 540' FEL OF SEC 27-T9N-R8W. PBHL: 100' FSL & 430' FEL OF SEC 34-T9N-R8W.", "MINERAL_INTEREST_FLAG": null, "STATE_INTEREST_FLAG": null, "DOC_ACCESS": "https://sonlite.dnr.state.la.us/ords/r/sonris/ucmsearch/finddocuments?qtype=eq&idx=xwellserialnumber&val=255786", "STATE_ZONE": "BAD", "COASTAL_PERMIT_NUM": null, "SE_ANNO_CAD_DATA": null, "TRUE_VERTICAL_DEPTH": "14000.0", "first_seen": "False"}}, {"type": "Feature", "geometry": {"type": "Point", "coordinates": [-93.930033396, 32.884997708]}, "properties": {"OBJECTID": "229566", "id": "255787", "ORGANIZATION_ID": "0492", "ORGOP_LINE_ID": "1", "WELL_CLASS_TYPE_CODE": null, "well": "BAYOU STATE OWENS", "well_num": "014", "township": "22N", "EFFECTIVE_DATE": "2026-07-23 05:00:00", "api": "17017370640000", "OPERATION_TYPE_CODE": "01", "issue_date": "2026-07-23 05:00:00", "spud": null, "status": "01", "WELL_STATUS_DATE": "2026-07-23 05:00:00", "ORIGINAL_COMPLETION_DATE": null, "LAST_RECOMPLETION_DATE": null, "LAST_TEST_DATE": null, "ORPHANED_FLAG": null, "PRODUCT_TYPE_CODE": "00", "CLASSIFICATION": null, "UNIT_WELL_FLAG": null, "EXEMPT_29E_FLAG": null, "FIELD_ID": "2152", "LEASE_NUM": null, "MUD_DENSITY": "0.0", "USDW_VALUE": null, "AREA_USDW_VALUE": "0.0", "SOURCE_AREA_USDW_VALUE": null, "MAX_SIP": null, "SIP_ASSIGNED_DATE": null, "SOURCE_OF_SIP_VALUE": null, "INJECTION_RATE": "0.0", "COMMENTS": null, "LOCATION": "2492' FNL & 279' FWL OF SEC 21-T22N-R15W.", "section": "021", "MERIDIAN": "W", "range": "15W", "PARISH_CODE": "09", "lat": "32.884997708", "lon": "-93.930033396", "depth": "1100.0", "LEGEND": "01", "DISTRICT_CODE": null, "INSPECTION_DATE": null, "INSPECTION_YEAR_INDEX": null, "SECTION": "021", "INJECTION_VOLUME": null, "LOG_REVIEWED_FLAG": null, "ORPHAN_STATUS_CODE": null, "ORPHAN_STATUS_DATE": null, "field": "CADDO PINE ISLAND", "operator": "BAYOU STATE OIL CORPORATION", "parish": "CADDO", "SCOUT_WELL_STATUS_CODE": "01", "SCOUT_REPORT_DATE": "2026-07-23 05:00:00", "SCOUT_MEASURED_DEPTH": "1100.0", "SCOUT_TRUE_VERTICAL_DEPTH": null, "LUW_CODE": null, "LUW_TYPE_CODE": null, "LUW_NAME": null, "LW_REC_STATUS": null, "SURFACE_LAMBERT_X": "1561017.0", "SURFACE_LAMBERT_Y": "809799.0", "SURFACE_COORD_SYSTEM_CODE": "01", "SURFACE_ZONE": "N", "SURFACE_UTM83_X": "413006.038886483", "SURFACE_UTM83_Y": "3638921.26972538", "UPPER_PERFS": null, "LOWER_PERFS": null, "SANDS": null, "RESERVOIRS": null, "FORMATIONS": null, "HYPERLINK": "https://sonlite.dnr.state.la.us/ords/apex/r/sonris_pub/sonris_data_portal/well-profile?clear=CR,9000&ig[ig_master]_well_serial_num=255787", "GIS_UPD_DATE": "2026-07-29 09:05:20", "status_desc": "PERMITTED", "dirwell": null, "SCOUT_DETAIL": "2492' FNL & 279' FWL OF SEC 21-T22N-R15W.", "MINERAL_INTEREST_FLAG": null, "STATE_INTEREST_FLAG": null, "DOC_ACCESS": "https://sonlite.dnr.state.la.us/ords/r/sonris/ucmsearch/finddocuments?qtype=eq&idx=xwellserialnumber&val=255787", "STATE_ZONE": "BAD", "COASTAL_PERMIT_NUM": null, "SE_ANNO_CAD_DATA": null, "TRUE_VERTICAL_DEPTH": "1100.0", "first_seen": "False"}}, {"type": "Feature", "geometry": {"type": "Point", "coordinates": [-93.919750072, 32.883553418]}, "properties": {"OBJECTID": "229567", "id": "255788", "ORGANIZATION_ID": "0492", "ORGOP_LINE_ID": "1", "WELL_CLASS_TYPE_CODE": null, "well": "JOLLEY B", "well_num": "032", "township": "22N", "EFFECTIVE_DATE": "2026-07-24 05:00:00", "api": "17017370650000", "OPERATION_TYPE_CODE": "01", "issue_date": "2026-07-24 05:00:00", "spud": null, "status": "01", "WELL_STATUS_DATE": "2026-07-24 05:00:00", "ORIGINAL_COMPLETION_DATE": null, "LAST_RECOMPLETION_DATE": null, "LAST_TEST_DATE": null, "ORPHANED_FLAG": null, "PRODUCT_TYPE_CODE": "00", "CLASSIFICATION": null, "UNIT_WELL_FLAG": null, "EXEMPT_29E_FLAG": null, "FIELD_ID": "2152", "LEASE_NUM": null, "MUD_DENSITY": "0.0", "USDW_VALUE": null, "AREA_USDW_VALUE": "0.0", "SOURCE_AREA_USDW_VALUE": null, "MAX_SIP": null, "SIP_ASSIGNED_DATE": null, "SOURCE_OF_SIP_VALUE": null, "INJECTION_RATE": "0.0", "COMMENTS": null, "LOCATION": "2322' FSL & 1851' FEL OF SEC 21-T22N-R15W.", "section": "021", "MERIDIAN": "W", "range": "15W", "PARISH_CODE": "09", "lat": "32.883553418", "lon": "-93.919750072", "depth": "1100.0", "LEGEND": "01", "DISTRICT_CODE": null, "INSPECTION_DATE": null, "INSPECTION_YEAR_INDEX": null, "SECTION": "021", "INJECTION_VOLUME": null, "LOG_REVIEWED_FLAG": null, "ORPHAN_STATUS_CODE": null, "ORPHAN_STATUS_DATE": null, "field": "CADDO PINE ISLAND", "operator": "BAYOU STATE OIL CORPORATION", "parish": "CADDO", "SCOUT_WELL_STATUS_CODE": "01", "SCOUT_REPORT_DATE": "2026-07-24 05:00:00", "SCOUT_MEASURED_DEPTH": "1100.0", "SCOUT_TRUE_VERTICAL_DEPTH": null, "LUW_CODE": null, "LUW_TYPE_CODE": null, "LUW_NAME": null, "LW_REC_STATUS": null, "SURFACE_LAMBERT_X": "1564167.0", "SURFACE_LAMBERT_Y": "809232.0", "SURFACE_COORD_SYSTEM_CODE": "01", "SURFACE_ZONE": "N", "SURFACE_UTM83_X": "413966.56468587", "SURFACE_UTM83_Y": "3638752.71843006", "UPPER_PERFS": null, "LOWER_PERFS": null, "SANDS": null, "RESERVOIRS": null, "FORMATIONS": null, "HYPERLINK": "https://sonlite.dnr.state.la.us/ords/apex/r/sonris_pub/sonris_data_portal/well-profile?clear=CR,9000&ig[ig_master]_well_serial_num=255788", "GIS_UPD_DATE": "2026-07-29 09:05:20", "status_desc": "PERMITTED", "dirwell": null, "SCOUT_DETAIL": "2322' FSL & 1851' FEL OF SEC 21-T22N-R15W.", "MINERAL_INTEREST_FLAG": null, "STATE_INTEREST_FLAG": null, "DOC_ACCESS": "https://sonlite.dnr.state.la.us/ords/r/sonris/ucmsearch/finddocuments?qtype=eq&idx=xwellserialnumber&val=255788", "STATE_ZONE": "BAD", "COASTAL_PERMIT_NUM": null, "SE_ANNO_CAD_DATA": null, "TRUE_VERTICAL_DEPTH": "1100.0", "first_seen": "False"}}, {"type": "Feature", "geometry": {"type": "Point", "coordinates": [-93.919752431, 32.882866276]}, "properties": {"OBJECTID": "229568", "id": "255789", "ORGANIZATION_ID": "0492", "ORGOP_LINE_ID": "1", "WELL_CLASS_TYPE_CODE": null, "well": "JOLLEY B", "well_num": "033", "township": "22N", "EFFECTIVE_DATE": "2026-07-24 05:00:00", "api": "17017370660000", "OPERATION_TYPE_CODE": "01", "issue_date": "2026-07-24 05:00:00", "spud": null, "status": "01", "WELL_STATUS_DATE": "2026-07-24 05:00:00", "ORIGINAL_COMPLETION_DATE": null, "LAST_RECOMPLETION_DATE": null, "LAST_TEST_DATE": null, "ORPHANED_FLAG": null, "PRODUCT_TYPE_CODE": "00", "CLASSIFICATION": null, "UNIT_WELL_FLAG": null, "EXEMPT_29E_FLAG": null, "FIELD_ID": "2152", "LEASE_NUM": null, "MUD_DENSITY": "0.0", "USDW_VALUE": null, "AREA_USDW_VALUE": "0.0", "SOURCE_AREA_USDW_VALUE": null, "MAX_SIP": null, "SIP_ASSIGNED_DATE": null, "SOURCE_OF_SIP_VALUE": null, "INJECTION_RATE": "0.0", "COMMENTS": null, "LOCATION": "2072' FSL & 1851' FEL OF SEC21-T22N-R15W.", "section": "021", "MERIDIAN": "W", "range": "15W", "PARISH_CODE": "09", "lat": "32.882866276", "lon": "-93.919752431", "depth": "1100.0", "LEGEND": "01", "DISTRICT_CODE": null, "INSPECTION_DATE": null, "INSPECTION_YEAR_INDEX": null, "SECTION": "021", "INJECTION_VOLUME": null, "LOG_REVIEWED_FLAG": null, "ORPHAN_STATUS_CODE": null, "ORPHAN_STATUS_DATE": null, "field": "CADDO PINE ISLAND", "operator": "BAYOU STATE OIL CORPORATION", "parish": "CADDO", "SCOUT_WELL_STATUS_CODE": "01", "SCOUT_REPORT_DATE": "2026-07-24 05:00:00", "SCOUT_MEASURED_DEPTH": "1100.0", "SCOUT_TRUE_VERTICAL_DEPTH": null, "LUW_CODE": null, "LUW_TYPE_CODE": null, "LUW_NAME": null, "LW_REC_STATUS": null, "SURFACE_LAMBERT_X": "1564163.0", "SURFACE_LAMBERT_Y": "808982.0", "SURFACE_COORD_SYSTEM_CODE": "01", "SURFACE_ZONE": "N", "SURFACE_UTM83_X": "413965.679942395", "SURFACE_UTM83_Y": "3638676.5410325", "UPPER_PERFS": null, "LOWER_PERFS": null, "SANDS": null, "RESERVOIRS": null, "FORMATIONS": null, "HYPERLINK": "https://sonlite.dnr.state.la.us/ords/apex/r/sonris_pub/sonris_data_portal/well-profile?clear=CR,9000&ig[ig_master]_well_serial_num=255789", "GIS_UPD_DATE": "2026-07-29 09:05:20", "status_desc": "PERMITTED", "dirwell": null, "SCOUT_DETAIL": "2072' FSL & 1851' FEL OF SEC21-T22N-R15W.", "MINERAL_INTEREST_FLAG": null, "STATE_INTEREST_FLAG": null, "DOC_ACCESS": "https://sonlite.dnr.state.la.us/ords/r/sonris/ucmsearch/finddocuments?qtype=eq&idx=xwellserialnumber&val=255789", "STATE_ZONE": "BAD", "COASTAL_PERMIT_NUM": null, "SE_ANNO_CAD_DATA": null, "TRUE_VERTICAL_DEPTH": "1100.0", "first_seen": "False"}}, {"type": "Feature", "geometry": {"type": "Point", "coordinates": [-93.924325773, 32.883076741]}, "properties": {"OBJECTID": "229569", "id": "255790", "ORGANIZATION_ID": "0492", "ORGOP_LINE_ID": "1", "WELL_CLASS_TYPE_CODE": null, "well": "OWENS", "well_num": "038", "township": "22N", "EFFECTIVE_DATE": "2026-07-24 05:00:00", "api": "17017370670000", "OPERATION_TYPE_CODE": "01", "issue_date": "2026-07-24 05:00:00", "spud": null, "status": "01", "WELL_STATUS_DATE": "2026-07-24 05:00:00", "ORIGINAL_COMPLETION_DATE": null, "LAST_RECOMPLETION_DATE": null, "LAST_TEST_DATE": null, "ORPHANED_FLAG": null, "PRODUCT_TYPE_CODE": "00", "CLASSIFICATION": null, "UNIT_WELL_FLAG": null, "EXEMPT_29E_FLAG": null, "FIELD_ID": "2152", "LEASE_NUM": null, "MUD_DENSITY": "0.0", "USDW_VALUE": null, "AREA_USDW_VALUE": "0.0", "SOURCE_AREA_USDW_VALUE": null, "MAX_SIP": null, "SIP_ASSIGNED_DATE": null, "SOURCE_OF_SIP_VALUE": null, "INJECTION_RATE": "0.0", "COMMENTS": null, "LOCATION": "2140' FSL & 2034' FWL OF SEC 21-T22N-R15W.", "section": "021", "MERIDIAN": "W", "range": "15W", "PARISH_CODE": "09", "lat": "32.883076741", "lon": "-93.924325773", "depth": "1100.0", "LEGEND": "01", "DISTRICT_CODE": null, "INSPECTION_DATE": null, "INSPECTION_YEAR_INDEX": null, "SECTION": "021", "INJECTION_VOLUME": null, "LOG_REVIEWED_FLAG": null, "ORPHAN_STATUS_CODE": null, "ORPHAN_STATUS_DATE": null, "field": "CADDO PINE ISLAND", "operator": "BAYOU STATE OIL CORPORATION", "parish": "CADDO", "SCOUT_WELL_STATUS_CODE": "01", "SCOUT_REPORT_DATE": "2026-07-24 05:00:00", "SCOUT_MEASURED_DEPTH": "1100.0", "SCOUT_TRUE_VERTICAL_DEPTH": null, "LUW_CODE": null, "LUW_TYPE_CODE": null, "LUW_NAME": null, "LW_REC_STATUS": null, "SURFACE_LAMBERT_X": "1562760.0", "SURFACE_LAMBERT_Y": "809077.0", "SURFACE_COORD_SYSTEM_CODE": "01", "SURFACE_ZONE": "N", "SURFACE_UTM83_X": "413538.075256679", "SURFACE_UTM83_Y": "3638703.61218692", "UPPER_PERFS": null, "LOWER_PERFS": null, "SANDS": null, "RESERVOIRS": null, "FORMATIONS": null, "HYPERLINK": "https://sonlite.dnr.state.la.us/ords/apex/r/sonris_pub/sonris_data_portal/well-profile?clear=CR,9000&ig[ig_master]_well_serial_num=255790", "GIS_UPD_DATE": "2026-07-29 09:05:20", "status_desc": "PERMITTED", "dirwell": null, "SCOUT_DETAIL": "2140' FSL & 2034' FWL OF SEC 21-T22N-R15W.", "MINERAL_INTEREST_FLAG": null, "STATE_INTEREST_FLAG": null, "DOC_ACCESS": "https://sonlite.dnr.state.la.us/ords/r/sonris/ucmsearch/finddocuments?qtype=eq&idx=xwellserialnumber&val=255790", "STATE_ZONE": "BAD", "COASTAL_PERMIT_NUM": null, "SE_ANNO_CAD_DATA": null, "TRUE_VERTICAL_DEPTH": "1100.0", "first_seen": "False"}}, {"type": "Feature", "geometry": {"type": "Point", "coordinates": [-93.256684029, 32.030758817]}, "properties": {"OBJECTID": "229570", "id": "255791", "ORGANIZATION_ID": "E4161", "ORGOP_LINE_ID": "1", "WELL_CLASS_TYPE_CODE": null, "well": "HA RA SUD;SWN PROD 14-23 HC", "well_num": "003-ALT", "township": "12N", "EFFECTIVE_DATE": "2026-07-24 05:00:00", "api": "17081219510000", "OPERATION_TYPE_CODE": "01", "issue_date": "2026-07-24 05:00:00", "spud": null, "status": "01", "WELL_STATUS_DATE": "2026-07-24 05:00:00", "ORIGINAL_COMPLETION_DATE": null, "LAST_RECOMPLETION_DATE": null, "LAST_TEST_DATE": null, "ORPHANED_FLAG": null, "PRODUCT_TYPE_CODE": "00", "CLASSIFICATION": null, "UNIT_WELL_FLAG": null, "EXEMPT_29E_FLAG": null, "FIELD_ID": "2332", "LEASE_NUM": null, "MUD_DENSITY": "0.0", "USDW_VALUE": null, "AREA_USDW_VALUE": "0.0", "SOURCE_AREA_USDW_VALUE": null, "MAX_SIP": null, "SIP_ASSIGNED_DATE": null, "SOURCE_OF_SIP_VALUE": null, "INJECTION_RATE": "0.0", "COMMENTS": null, "LOCATION": "208' FNL & 413' FEL OF SEC 14-T12N-R9W. PBHL: 25' FSL & 1450' FEL OF SEC 23-T12N-R9W.", "section": "014", "MERIDIAN": "W", "range": "09W", "PARISH_CODE": "41", "lat": "32.030758817", "lon": "-93.256684029", "depth": "24081.0", "LEGEND": "-1", "DISTRICT_CODE": null, "INSPECTION_DATE": null, "INSPECTION_YEAR_INDEX": null, "SECTION": "014", "INJECTION_VOLUME": null, "LOG_REVIEWED_FLAG": null, "ORPHAN_STATUS_CODE": null, "ORPHAN_STATUS_DATE": null, "field": "CARROLL CREEK", "operator": "ENSIGHT IV ENERGY MANAGEMENT, LLC", "parish": "RED RIVER", "SCOUT_WELL_STATUS_CODE": "01", "SCOUT_REPORT_DATE": "2026-07-24 05:00:00", "SCOUT_MEASURED_DEPTH": "24081.0", "SCOUT_TRUE_VERTICAL_DEPTH": null, "LUW_CODE": null, "LUW_TYPE_CODE": null, "LUW_NAME": null, "LW_REC_STATUS": null, "SURFACE_LAMBERT_X": "1765566.0", "SURFACE_LAMBERT_Y": "496937.0", "SURFACE_COORD_SYSTEM_CODE": "01", "SURFACE_ZONE": "N", "SURFACE_UTM83_X": "475762.883289705", "SURFACE_UTM83_Y": "3543873.87898204", "UPPER_PERFS": null, "LOWER_PERFS": null, "SANDS": null, "RESERVOIRS": null, "FORMATIONS": null, "HYPERLINK": "https://sonlite.dnr.state.la.us/ords/apex/r/sonris_pub/sonris_data_portal/well-profile?clear=CR,9000&ig[ig_master]_well_serial_num=255791", "GIS_UPD_DATE": "2026-07-29 09:05:20", "status_desc": "PERMITTED", "dirwell": null, "SCOUT_DETAIL": "208' FNL & 413' FEL OF SEC 14-T12N-R9W. PBHL: 25' FSL & 1450' FEL OF SEC 23-T12N-R9W.", "MINERAL_INTEREST_FLAG": null, "STATE_INTEREST_FLAG": null, "DOC_ACCESS": "https://sonlite.dnr.state.la.us/ords/r/sonris/ucmsearch/finddocuments?qtype=eq&idx=xwellserialnumber&val=255791", "STATE_ZONE": "BAD", "COASTAL_PERMIT_NUM": null, "SE_ANNO_CAD_DATA": null, "TRUE_VERTICAL_DEPTH": "13751.0", "first_seen": "False"}}, {"type": "Feature", "geometry": {"type": "Point", "coordinates": [-93.416708239, 32.147626932]}, "properties": {"OBJECTID": "229571", "id": "255792", "ORGANIZATION_ID": "B6983", "ORGOP_LINE_ID": "1", "WELL_CLASS_TYPE_CODE": null, "well": "HA RD SUU;CASON 32-29-20HC", "well_num": "001-ALT", "township": "13N", "EFFECTIVE_DATE": "2026-07-24 05:00:00", "api": "17081219520000", "OPERATION_TYPE_CODE": "01", "issue_date": "2026-07-24 05:00:00", "spud": null, "status": "01", "WELL_STATUS_DATE": "2026-07-24 05:00:00", "ORIGINAL_COMPLETION_DATE": null, "LAST_RECOMPLETION_DATE": null, "LAST_TEST_DATE": null, "ORPHANED_FLAG": null, "PRODUCT_TYPE_CODE": "00", "CLASSIFICATION": null, "UNIT_WELL_FLAG": null, "EXEMPT_29E_FLAG": null, "FIELD_ID": "7651", "LEASE_NUM": null, "MUD_DENSITY": "0.0", "USDW_VALUE": null, "AREA_USDW_VALUE": "0.0", "SOURCE_AREA_USDW_VALUE": null, "MAX_SIP": null, "SIP_ASSIGNED_DATE": null, "SOURCE_OF_SIP_VALUE": null, "INJECTION_RATE": "0.0", "COMMENTS": null, "LOCATION": "301' FNL & 2455' FWL OF SEC 15-T13N-R10W.  PBHL: 477' FSL & 1571' FWL OF SEC 20-T14N-R10W.", "section": "05", "MERIDIAN": "W", "range": "10W", "PARISH_CODE": "41", "lat": "32.147626932", "lon": "-93.416708239", "depth": "24351.0", "LEGEND": "-1", "DISTRICT_CODE": null, "INSPECTION_DATE": null, "INSPECTION_YEAR_INDEX": null, "SECTION": "05", "INJECTION_VOLUME": null, "LOG_REVIEWED_FLAG": null, "ORPHAN_STATUS_CODE": null, "ORPHAN_STATUS_DATE": null, "field": "RED RIVER-BULL BAYOU", "operator": "BPX OPERATING COMPANY", "parish": "RED RIVER", "SCOUT_WELL_STATUS_CODE": "01", "SCOUT_REPORT_DATE": "2026-07-24 05:00:00", "SCOUT_MEASURED_DEPTH": "24351.0", "SCOUT_TRUE_VERTICAL_DEPTH": null, "LUW_CODE": null, "LUW_TYPE_CODE": null, "LUW_NAME": null, "LW_REC_STATUS": null, "SURFACE_LAMBERT_X": "1716338.0", "SURFACE_LAMBERT_Y": "539832.0", "SURFACE_COORD_SYSTEM_CODE": "01", "SURFACE_ZONE": "N", "SURFACE_UTM83_X": "460702.724248926", "SURFACE_UTM83_Y": "3556875.25560602", "UPPER_PERFS": null, "LOWER_PERFS": null, "SANDS": null, "RESERVOIRS": null, "FORMATIONS": null, "HYPERLINK": "https://sonlite.dnr.state.la.us/ords/apex/r/sonris_pub/sonris_data_portal/well-profile?clear=CR,9000&ig[ig_master]_well_serial_num=255792", "GIS_UPD_DATE": "2026-07-29 09:05:20", "status_desc": "PERMITTED", "dirwell": null, "SCOUT_DETAIL": "301' FNL & 2455' FWL OF SEC 15-T13N-R10W.  PBHL: 477' FSL & 1571' FWL OF SEC 20-T14N-R10W.", "MINERAL_INTEREST_FLAG": null, "STATE_INTEREST_FLAG": null, "DOC_ACCESS": "https://sonlite.dnr.state.la.us/ords/r/sonris/ucmsearch/finddocuments?qtype=eq&idx=xwellserialnumber&val=255792", "STATE_ZONE": "BAD", "COASTAL_PERMIT_NUM": null, "SE_ANNO_CAD_DATA": null, "TRUE_VERTICAL_DEPTH": "12512.0", "first_seen": "False"}}, {"type": "Feature", "geometry": {"type": "Point", "coordinates": [-93.416746273, 32.147552435]}, "properties": {"OBJECTID": "229572", "id": "255793", "ORGANIZATION_ID": "B6983", "ORGOP_LINE_ID": "1", "WELL_CLASS_TYPE_CODE": null, "well": "HA RD SUU;CASON 32-29-20HC", "well_num": "002-ALT", "township": "13N", "EFFECTIVE_DATE": "2026-07-24 05:00:00", "api": "17081219530000", "OPERATION_TYPE_CODE": "01", "issue_date": "2026-07-24 05:00:00", "spud": null, "status": "01", "WELL_STATUS_DATE": "2026-07-24 05:00:00", "ORIGINAL_COMPLETION_DATE": null, "LAST_RECOMPLETION_DATE": null, "LAST_TEST_DATE": null, "ORPHANED_FLAG": null, "PRODUCT_TYPE_CODE": "00", "CLASSIFICATION": null, "UNIT_WELL_FLAG": null, "EXEMPT_29E_FLAG": null, "FIELD_ID": "7651", "LEASE_NUM": null, "MUD_DENSITY": "0.0", "USDW_VALUE": null, "AREA_USDW_VALUE": "0.0", "SOURCE_AREA_USDW_VALUE": null, "MAX_SIP": null, "SIP_ASSIGNED_DATE": null, "SOURCE_OF_SIP_VALUE": null, "INJECTION_RATE": "0.0", "COMMENTS": null, "LOCATION": "329' FNL & 2444' FWL OF SEC 5-T13N-R10W. PBHL: 100' FNL & 2567' FWL OF SEC 20-T14N-R10W.", "section": "005", "MERIDIAN": "W", "range": "10W", "PARISH_CODE": "41", "lat": "32.147552435", "lon": "-93.416746273", "depth": "28915.0", "LEGEND": "-1", "DISTRICT_CODE": null, "INSPECTION_DATE": null, "INSPECTION_YEAR_INDEX": null, "SECTION": "005", "INJECTION_VOLUME": null, "LOG_REVIEWED_FLAG": null, "ORPHAN_STATUS_CODE": null, "ORPHAN_STATUS_DATE": null, "field": "RED RIVER-BULL BAYOU", "operator": "BPX OPERATING COMPANY", "parish": "RED RIVER", "SCOUT_WELL_STATUS_CODE": "01", "SCOUT_REPORT_DATE": "2026-07-24 05:00:00", "SCOUT_MEASURED_DEPTH": "28915.0", "SCOUT_TRUE_VERTICAL_DEPTH": null, "LUW_CODE": null, "LUW_TYPE_CODE": null, "LUW_NAME": null, "LW_REC_STATUS": null, "SURFACE_LAMBERT_X": "1716326.0", "SURFACE_LAMBERT_Y": "539805.0", "SURFACE_COORD_SYSTEM_CODE": "01", "SURFACE_ZONE": "N", "SURFACE_UTM83_X": "460699.105523094", "SURFACE_UTM83_Y": "3556867.01174555", "UPPER_PERFS": null, "LOWER_PERFS": null, "SANDS": null, "RESERVOIRS": null, "FORMATIONS": null, "HYPERLINK": "https://sonlite.dnr.state.la.us/ords/apex/r/sonris_pub/sonris_data_portal/well-profile?clear=CR,9000&ig[ig_master]_well_serial_num=255793", "GIS_UPD_DATE": "2026-07-29 09:05:20", "status_desc": "PERMITTED", "dirwell": null, "SCOUT_DETAIL": "329' FNL & 2444' FWL OF SEC 5-T13N-R10W. PBHL: 100' FNL & 2567' FWL OF SEC 20-T14N-R10W.", "MINERAL_INTEREST_FLAG": null, "STATE_INTEREST_FLAG": null, "DOC_ACCESS": "https://sonlite.dnr.state.la.us/ords/r/sonris/ucmsearch/finddocuments?qtype=eq&idx=xwellserialnumber&val=255793", "STATE_ZONE": "BAD", "COASTAL_PERMIT_NUM": null, "SE_ANNO_CAD_DATA": null, "TRUE_VERTICAL_DEPTH": "12514.0", "first_seen": "False"}}, {"type": "Feature", "geometry": {"type": "Point", "coordinates": [-93.416781049, 32.147475212]}, "properties": {"OBJECTID": "229573", "id": "255794", "ORGANIZATION_ID": "B6983", "ORGOP_LINE_ID": "1", "WELL_CLASS_TYPE_CODE": null, "well": "HA RD SUU;CASON 32-29-20HC", "well_num": "003-ALT", "township": "13N", "EFFECTIVE_DATE": "2026-07-24 05:00:00", "api": "17081219540000", "OPERATION_TYPE_CODE": "01", "issue_date": "2026-07-24 05:00:00", "spud": null, "status": "01", "WELL_STATUS_DATE": "2026-07-24 05:00:00", "ORIGINAL_COMPLETION_DATE": null, "LAST_RECOMPLETION_DATE": null, "LAST_TEST_DATE": null, "ORPHANED_FLAG": null, "PRODUCT_TYPE_CODE": "00", "CLASSIFICATION": null, "UNIT_WELL_FLAG": null, "EXEMPT_29E_FLAG": null, "FIELD_ID": "7651", "LEASE_NUM": null, "MUD_DENSITY": "0.0", "USDW_VALUE": null, "AREA_USDW_VALUE": "0.0", "SOURCE_AREA_USDW_VALUE": null, "MAX_SIP": null, "SIP_ASSIGNED_DATE": null, "SOURCE_OF_SIP_VALUE": null, "INJECTION_RATE": "0.0", "COMMENTS": null, "LOCATION": "357' FNL & 2433' FWL OF SEC 5-T13N-R10W.  PBHL: 100' FNL & 1740' FEL OF SEC 20-T14N-R10W.", "section": "005", "MERIDIAN": "W", "range": "10W", "PARISH_CODE": "41", "lat": "32.147475212", "lon": "-93.416781049", "depth": "28803.0", "LEGEND": "-1", "DISTRICT_CODE": null, "INSPECTION_DATE": null, "INSPECTION_YEAR_INDEX": null, "SECTION": "005", "INJECTION_VOLUME": null, "LOG_REVIEWED_FLAG": null, "ORPHAN_STATUS_CODE": null, "ORPHAN_STATUS_DATE": null, "field": "RED RIVER-BULL BAYOU", "operator": "BPX OPERATING COMPANY", "parish": "RED RIVER", "SCOUT_WELL_STATUS_CODE": "01", "SCOUT_REPORT_DATE": "2026-07-24 05:00:00", "SCOUT_MEASURED_DEPTH": "28803.0", "SCOUT_TRUE_VERTICAL_DEPTH": null, "LUW_CODE": null, "LUW_TYPE_CODE": null, "LUW_NAME": null, "LW_REC_STATUS": null, "SURFACE_LAMBERT_X": "1716315.0", "SURFACE_LAMBERT_Y": "539777.0", "SURFACE_COORD_SYSTEM_CODE": "01", "SURFACE_ZONE": "N", "SURFACE_UTM83_X": "460695.792902278", "SURFACE_UTM83_Y": "3556858.46457661", "UPPER_PERFS": null, "LOWER_PERFS": null, "SANDS": null, "RESERVOIRS": null, "FORMATIONS": null, "HYPERLINK": "https://sonlite.dnr.state.la.us/ords/apex/r/sonris_pub/sonris_data_portal/well-profile?clear=CR,9000&ig[ig_master]_well_serial_num=255794", "GIS_UPD_DATE": "2026-07-29 09:05:20", "status_desc": "PERMITTED", "dirwell": null, "SCOUT_DETAIL": "357' FNL & 2433' FWL OF SEC 5-T13N-R10W.  PBHL: 100' FNL & 1740' FEL OF SEC 20-T14N-R10W.", "MINERAL_INTEREST_FLAG": null, "STATE_INTEREST_FLAG": null, "DOC_ACCESS": "https://sonlite.dnr.state.la.us/ords/r/sonris/ucmsearch/finddocuments?qtype=eq&idx=xwellserialnumber&val=255794", "STATE_ZONE": "BAD", "COASTAL_PERMIT_NUM": null, "SE_ANNO_CAD_DATA": null, "TRUE_VERTICAL_DEPTH": "12520.0", "first_seen": "False"}}, {"type": "Feature", "geometry": {"type": "Point", "coordinates": [-93.416815824, 32.147397989]}, "properties": {"OBJECTID": "229574", "id": "255795", "ORGANIZATION_ID": "B6983", "ORGOP_LINE_ID": "1", "WELL_CLASS_TYPE_CODE": null, "well": "HA RD SUU;CASON 32-29-20HC", "well_num": "004-ALT", "township": "13N", "EFFECTIVE_DATE": "2026-07-24 05:00:00", "api": "17081219550000", "OPERATION_TYPE_CODE": "01", "issue_date": "2026-07-24 05:00:00", "spud": null, "status": "01", "WELL_STATUS_DATE": "2026-07-24 05:00:00", "ORIGINAL_COMPLETION_DATE": null, "LAST_RECOMPLETION_DATE": null, "LAST_TEST_DATE": null, "ORPHANED_FLAG": null, "PRODUCT_TYPE_CODE": "00", "CLASSIFICATION": null, "UNIT_WELL_FLAG": null, "EXEMPT_29E_FLAG": null, "FIELD_ID": "7651", "LEASE_NUM": null, "MUD_DENSITY": "0.0", "USDW_VALUE": null, "AREA_USDW_VALUE": "0.0", "SOURCE_AREA_USDW_VALUE": null, "MAX_SIP": null, "SIP_ASSIGNED_DATE": null, "SOURCE_OF_SIP_VALUE": null, "INJECTION_RATE": "0.0", "COMMENTS": null, "LOCATION": "385' FNL & 2423' FWL OF SEC 5-T13N-R10W.  PBHL: 100' FNL & 430' FEL OF SEC 20-T14N-R10W.", "section": "005", "MERIDIAN": "W", "range": "10W", "PARISH_CODE": "41", "lat": "32.147397989", "lon": "-93.416815824", "depth": "29007.0", "LEGEND": "-1", "DISTRICT_CODE": null, "INSPECTION_DATE": null, "INSPECTION_YEAR_INDEX": null, "SECTION": "005", "INJECTION_VOLUME": null, "LOG_REVIEWED_FLAG": null, "ORPHAN_STATUS_CODE": null, "ORPHAN_STATUS_DATE": null, "field": "RED RIVER-BULL BAYOU", "operator": "BPX OPERATING COMPANY", "parish": "RED RIVER", "SCOUT_WELL_STATUS_CODE": "01", "SCOUT_REPORT_DATE": "2026-07-24 05:00:00", "SCOUT_MEASURED_DEPTH": "29007.0", "SCOUT_TRUE_VERTICAL_DEPTH": null, "LUW_CODE": null, "LUW_TYPE_CODE": null, "LUW_NAME": null, "LW_REC_STATUS": null, "SURFACE_LAMBERT_X": "1716304.0", "SURFACE_LAMBERT_Y": "539749.0", "SURFACE_COORD_SYSTEM_CODE": "01", "SURFACE_ZONE": "N", "SURFACE_UTM83_X": "460692.480281484", "SURFACE_UTM83_Y": "3556849.91740757", "UPPER_PERFS": null, "LOWER_PERFS": null, "SANDS": null, "RESERVOIRS": null, "FORMATIONS": null, "HYPERLINK": "https://sonlite.dnr.state.la.us/ords/apex/r/sonris_pub/sonris_data_portal/well-profile?clear=CR,9000&ig[ig_master]_well_serial_num=255795", "GIS_UPD_DATE": "2026-07-29 09:05:20", "status_desc": "PERMITTED", "dirwell": null, "SCOUT_DETAIL": "385' FNL & 2423' FWL OF SEC 5-T13N-R10W.  PBHL: 100' FNL & 430' FEL OF SEC 20-T14N-R10W.", "MINERAL_INTEREST_FLAG": null, "STATE_INTEREST_FLAG": null, "DOC_ACCESS": "https://sonlite.dnr.state.la.us/ords/r/sonris/ucmsearch/finddocuments?qtype=eq&idx=xwellserialnumber&val=255795", "STATE_ZONE": "BAD", "COASTAL_PERMIT_NUM": null, "SE_ANNO_CAD_DATA": null, "TRUE_VERTICAL_DEPTH": "12520.0", "first_seen": "False"}}]}